id,address,categories,city,country,keys,latitude,longitude,name,postalCode,province,twitter,websites
AVwc__ln_7pvs4fz1Nd5,3229 Washington Ave,"Brewery,Beer Garden,Performing Arts Venue,Brewery, Beer Garden, and Performing Arts Venue",Saint Louis,US,us/mo/saintlouis/3229washingtonave/1242676123,38.63774588,-90.22558603,Urban Chestnut Brewing Company,63103,MO,urbanchestnut,http://urbanchestnut.com
AVwc_2cd_7pvs4fz1L8E,639 Conner St,"Brewery,Gastropub",Noblesville,US,us/in/noblesville/639connerst/432991967,40.045274,-86.015334,Barley Island Brewing Company,46060,IN,barleyisland,http://www.barleyisland.com
AVwc_fjQIN2L1WUfrFYN,30 Germania St,"Brewery,Brewers",Jamaica Plain,US,us/ma/jamaicaplain/30germaniast/759551491,42.31451355,-71.10318078,Samuel Adams Brewery,2130,MA,samueladamsbeer,http://www.samueladams.com/brewery-and-craft/our-brewery
AVwc_h6kIN2L1WUfrFxW,137 Anacapa St,"Brewery,Beer Garden,Brewery and Beer Garden Lower State,Brewery and Beer Garden",Santa Barbara,US,us/ca/santabarbara/137anacapast/-606093222,34.41457978,-119.6908621,Figueroa Mountain Brewing Company,93101,CA,figmtn,http://figmtnbrew.com
AVwc_jV-kufWRAb51LiO,4170 Morena Blvd,"Attraction,Brewery,Brewery Bay Ho,restaurant,yoga studio",San Diego,US,us/ca/sandiego/4170morenablvd/-700631527,32.8028741,-117.2121683,Bitter Brothers Brewing Co.,92117,CA,bitter_brothers,"http://bitterbrothers.com,http://bitterbrothers.com/"
AVwc_n7ykufWRAb51MaT,1430 Washington Ave S,"Brewery,American Restaurant,Restaurant,Brewery and American Restaurant",Minneapolis,US,us/mn/minneapolis/1430washingtonaves/676796896,44.973194,-93.2478,Minneapolis Town Hall Brewery,55454,MN,thbrewery,http://townhallbrewery.com
AVwc_O9XIN2L1WUfrCsO,4720 Eastern Ave,"Brew Pubs,Beer and Ale,Liquor Stores,Bars,Restaurants,Brewers,Brewery,Beer & Ale",Cincinnati,US,us/oh/cincinnati/4720easternave/-1731453462,39.11976,-84.41839,Bad Tom Smith Brewing,45226,OH,badtombrewing,http://www.badtomsmithbrewing.com
AVwc_ogr_7pvs4fz1JYJ,661 W Arrow Hwy,"Gastropub,Brewery,Restaurant",San Dimas,US,us/ca/sandimas/661warrowhwy/1037864111,34.10608,-117.81773,Clayton Brewing Company,91773,CA,claytonbrewing,http://claytonbrewingco.com
AVwc_-PjByjofQCxkdXP,2374 E Cinema Dr,"Brewery,Brewery Southeast Meridian",Meridian,US,us/id/meridian/2374ecinemadr/-519377810,43.59133291,-116.3666511,Slanted Rock Brewing Co,83642,ID,slantedrock,http://slantedrock.com
AVwc_rzbkufWRAb51NKb,5048 Airport Pulling Rd,"Wine Shop, Liquor Store, and Brewery,Gifts & Novelties,Breweries,Beer & Ale Distributors,Wine & Distilled Beverages Retail,Wine Stores,Liquor Stores,Cigarettes & Tobacco,Beer & Ale Retail",Naples,US,us/fl/naples/5048airportpullingrd/-1152707038,26.209177,-81.768152,Total Wine & More,34105,FL,totalwine,http://www.totalwine.com/store-info/florida-naples/908
AVwc_s5M_7pvs4fz1KPT,9445 Washington Blvd N,"Brewery,Brewery Savage - Guilford,Bars & Clubs,Nightlife",Laurel,US,us/md/laurel/9445washingtonblvdn/-1965799230,39.12405088,-76.82314061,Jailbreak Brewing Company,20723,MD,jailbreakbrewco,http://jailbreakbrewing.com
AVwc_ShN_7pvs4fz1FgP,12260 Crosthwaite Cir,"Beer Garden,Brewery,Brewers,Beer Garden and Brewery,Restaurant",Poway,US,us/ca/poway/12260crosthwaitecir/663149952,32.94044,-117.03436,Cellar 3,92064,CA,greenflashbeer,http://greenflashbrew.com/cellar3/
AVwc_tMn_7pvs4fz1KTA,101 W Main St,"Brewery,Restaurants,Brew Pubs,Bar & Grills,Beer & Ale,American Restaurants,Bars",Solon,US,us/ia/solon/101wmainst/-1364518857,41.8069,-91.4955,Big Grove Brewery,52333,IA,biggrovebrewery,http://www.biggrovebrewery.com
AVwc_tOGkufWRAb51Nco,43484 Boscell Rd,"Wine Shop, Liquor Store, and Brewery,Breweries,Beer & Ale Distributors,Wine & Distilled Beverages Retail,Liquor Stores,Beer & Ale Retail",Fremont,US,us/ca/fremont/43484boscellrd/-1152707038,37.503025,-121.97528,Total Wine & More,94538,CA,totalwine,http://www.totalwine.com
AVwc_tzbkufWRAb51Ni2,3949 E Chandler Blvd,"Grocery Stores,Supermarkets and Super Stores,Pharmacies,Grocery Store,Supermarket,Cheese Shops,Grocery Stores & Supermarkets,Breweries,Beer & Ale Distributors,Beer & Ale Retail",Phoenix,US,us/az/phoenix/3949echandlerblvd/-1529150043,33.30389,-111.99888,Fry's Marketplace,85048,AZ,frysfoodstores,"https://www.frysfood.com?cid=loc_66000628_other,http://www.frysfood.com"
AVwc_xfmByjofQCxkbW3,431 E Central Blvd,"Music Venue,Bars & Pubs,Pubs,Sports Bars,Breweries,Bar,Bar & Grill Restaurants",Orlando,US,us/fl/orlando/431ecentralblvd/1757676697,28.542401,-81.372239,World of Beer,32801,FL,woborlando,http://worldofbeer.com/Locations/DowntownOrlando
AVwc_xQ7ByjofQCxkbUI,600 S Croatan Hwy,"Soul Food Restaurants,Seafood Restaurants,Restaurants,Bars Clubs,Bars Pubs,Pubs,Nightclubs,Brew Pubs,Neighborhood Bars,Taverns,Restaurant, Brewery, and Bar,Bars & Clubs,Bars & Pubs,Brewery, Beer Garden, and Restaurant,Kill Devil Hills",Kill Devil Hills,US,us/nc/killdevilhills/600scroatanhwy/-200120656,36.00948,-75.65945,Outer Banks Brewing Station,27948,NC,obxbrew,"http://www.obbrewing.com,http://api.citygridmedia.com/content/places/v2/click?q=9YKflVKbY9NauPJdMy0B1gS1IhB4xv4EWw0zDoT-UWc_izWF3zs5PKGdfOHubWrvM0QwDCYwbOH2fdLi0dK5xArULcksCCbfR-WWAz9xD1AmGVAQZIom4U3n5R4DuRC8WJCtvJcNItEKoCSfzwapuGnmwGnHDpEGYXGjnN4u8zXqkiimSHFf4_dbqGRbVgNJJFSTv89GkvGey1ZLaoJwcebwV3VrULeukumcG5k63f-oQ6meRlzprHN_z6yf5SGnsbdg76PZhw7r1EO6XNIEwl9kRmt70RYf9OocICAscOWiQ-sPyVjh0I_bnIzHhNe5ugkLqdlKeSGcWo9i96FLAIPkFTL28k3OSTjLqoqq93oR_AfdL4Bbk_K4MSQmwpqGWhlLpq7a6JQaRShfiQv5sDqwBgsJFgl20Xs21v-r3-TLRvjVGfuUI02YSPT_9KNrA2UmjVn9uv07b4HSsI_2wlgaYdcTmPyy3TbGItD5-u_PXQdD5nSPY-P4FKIVvKtdE2OLiMzfkwaAwjtDp121kVdiHJRLQoeq&placement=listing_profile&cs_user=unknown&cs_session=1c0b2e3a46c1b54a0cff144dfe0ca5c8fe27d4e4"
AVwc_yobIN2L1WUfrI0q,2959 Hartman Rd,"Brewery,Bars,Bars & Clubs,Brew Pubs,Restaurants,Food & Drink,Nightlife,Breweries,Beer & Ale,Liquor Stores,Bar & Grills,Taverns",Traverse City,US,us/mi/traversecity/2959hartmanrd/1492349565,44.71511826,-85.63491321,Brewery Terra Firma,49685,MI,brewterrafirma,http://breweryterrafirma.com
AVwc0_3KByjofQCxio4E,600 S Main St,"Brewery,Food,Bars Clubs,Bars Pubs,Brew Pubs,Taverns,Liquor Stores,Restaurants,Grill Restaurants,Restaurant,Brewery and Food",Breckenridge,US,us/co/breckenridge/600smainst/1771228952,39.4792,-106.0457,Breckenridge Brewery & Pub,80424,CO,breckbrew,http://www.breckbrewpub.com
AVwc04L6ByjofQCxinjX,11200 Broadway St,"American Restaurant,Pizza Place,Brewery,Restaurants,Sandwich Shops,Pizza Restaurants,Italian Restaurants,Chicago Style Restaurants,Restaurant,American Restaurant, Pizza Place, and Brewery",Pearland,US,us/tx/pearland/11200broadwayst/554746294,29.555548,-95.393452,BJ's Restaurant and Brewhouse,77584,TX,bjsrestaurants,http://t.co/bl46gcjDLN
AVwc09_kkufWRAb5zcwx,9550 Distribution Ave,Brewery,San Diego,US,us/ca/sandiego/9550distributionave/-843837567,32.88051394,-117.1631384,Saint Archer Brewing Company,92121,CA,saintarcherbrew,http://www.saintarcherbrewery.com
AVwc097NIN2L1WUfpVqh,600 Pine St,"Brewery,American Restaurant",Seattle,US,us/wa/seattle/600pinest/-1268123268,47.61275608,-122.3348397,Gordon Biersch Brewery Restaurant,98101,WA,gordon_biersch,http://gordonbiersch.com
AVwc0bJK_7pvs4fzzTLv,1327 Huron Ave,"Brewery,Beer & Wine Stores",Sheboygan,US,us/wi/sheboygan/1327huronave/1673875976,43.75947972,-87.7216719,3 Sheeps Brewing Company,53081,WI,3sheepsbrewing,http://3sheepsbrewing.com
AVwc0bZfkufWRAb5zW0v,2540 19th St,"Brewery,Restaurant,Brewery Highland",Denver,US,us/co/denver/254019thst/1285574162,39.76138,-105.00667,Prost Brewing,80211,CO,prostbrewing,http://www.prostbrewing.com
AVwc0DMxkufWRAb5zSqD,2530 Parkway,"Brewery,American Restaurant,Gastropub,Brewery, American Restaurant, and Gastropub,Bars,Brew Pubs,Restaurants,Beer & Ale,Bar & Grills,Taverns,women's clothing stores",Pigeon Forge,US,us/tn/pigeonforge/2530parkway/871959066,35.80689,-83.57754,Smoky Mountain Brewery,37863,TN,smokymtnbrewery,"http://smoky-mtn-brewery.com,http://www.smoky-mtn-brewery.com"
AVwc0EQZkufWRAb5zS2e,16990 Via Tazon,"Restaurant,American,Bar,Brewery",San Diego,US,us/ca/sandiego/16990viatazon/-1411468901,33.02385,-117.08575,The Cork and Craft,92127,CA,abnormalwine,"http://thecorkandcraft.com/,http://www.thecorkandcraft.com/"
AVwc0jAKkufWRAb5zYFC,700 NE Dekum St,"Brewery,Gastropub,Non-Profit,Restaurant,Bars Pubs,Brewery, Gastropub, and Non-Profit,Brewery, Gastropub, and Non-Profit Woodlawn",Portland,US,us/or/portland/700nedekumst/967453043,45.57153,-122.65816,The Oregon Public House,97211,OR,oregonpubhouse,http://oregonpublichouse.com
AVwc0JM7ByjofQCxie8_,1801 S Voss Rd,"Supermarket,Cheese Shops,Grocery Stores & Supermarkets,Supermarket Great Uptown,Breweries,Beer & Ale Distributors,Beer & Ale Retail",Houston,US,us/tx/houston/1801svossrd/-1122957716,29.748711,-95.500832,Kroger,77057,TX,kroger,http://kroger.com
AVwc0KA9ByjofQCxifHm,509 1/2 Puyallup Ave.,"Brewery,Beverages Retail,Breweries,Brewery Downtown Tacoma,Wineries",Tacoma,US,us/wa/tacoma/50912puyallupave/-459936555,47.240946,-122.427718,Wingman Brewers,98421,WA,wingman,http://wingmanbrewers.com
AVwc0kqwByjofQCxij4n,2006 N 9th St,"Brewery,Bar,Brewery and Bar",Lafayette,US,us/in/lafayette/2006n9thst/1319896481,40.43762132,-86.88658209,People's Brewing Company,47904,IN,peoplesbrew,http://peoplesbrew.com
AVwc0KVJ_7pvs4fzzQTB,619 Monroe St,"Brewery,Brewers",Toledo,US,us/oh/toledo/619monroest/467047213,41.6499,-83.5401,Black Cloister Brewing Company,43604,OH,blackcloisterbc,http://blackcloister.com/index.html
AVwc0lbIIN2L1WUfpRQL,1333 N Mcdowell Blvd,Brewery,Petaluma,US,us/ca/petaluma/1333nmcdowellblvd/-1368712624,38.27209893,-122.663877,Petaluma Hills Brewing Company,94954,CA,petalumahills,http://www.petalumahills.com
AVwc0P8FIN2L1WUfpNmh,225 W Vine St,"Office,Office Brewer's Hill",Milwaukee,US,us/wi/milwaukee/225wvinest/-1898145063,43.05308479,-87.91315556,United Way of Greater Milwaukee,53212,WI,unitedwaymke,http://unitedwaymilwaukee.org
AVwc0pObByjofQCxikyg,2917 E Eastland Center Dr,"Restaurant,Chain Restaurant,Breweries and brew pubs,Carry-out food,Pizza,Restaurants,Bar and grill restaurants,Pub restaurants,Brew Pubs,Pubs,Taverns,Bars Clubs,Bars Pubs,American Restaurants,Take Out Restaurants,Beer and Ale,Caterers,American Restaurant,Pizza Place,Brewery,American Restaurant, Pizza Place, and Brewery",West Covina,US,us/ca/westcovina/2917eeastlandcenterdr/554746294,34.07299,-117.88683,BJ's Restaurant & Brewhouse,91791,CA,bjsrestaurants,"http://www.bjsrestaurants.com/locations/ca/west-covina,http://t.co/bl46gcjDLN"
AVwc0U9jkufWRAb5zVyE,9524 W Linebaugh Ave,"Bar,Music Venue,Beer and beverages,Beer and beverages-wholesale and distributors,Breweries and brew pubs,Cocktail lounges,Karaoke,Liquor stores,Restaurants,American restaurants,Bar and grill restaurants,Dinner theatre restaurants,Bar and Music Venue",Tampa,US,us/fl/tampa/9524wlinebaughave/1757676697,28.0433,-82.5922,World of Beer,33626,FL,wob_westchase,http://worldofbeer.com/Locations/Westchase
AVwc0wh9kufWRAb5zamy,7919 E Thomas Rd,"American Restaurant,Dive Bar,Dive Bar, American Restaurant, and Brewery,Brewery,Dive Bar and American Restaurant",Scottsdale,US,us/az/scottsdale/7919ethomasrd/1989095531,33.47895458,-111.9110298,Pranksters Too,85251,AZ,prankstersaz,http://prankstersgarandbrill.com
AVwc12Mx_7pvs4fzzhjy,328 N Main Ave,"Bar,Wine Bar,Beer Garden,Brew Pubs,Beer and Ale,Bars,Night Clubs,Restaurants,Brewers,Restaurant,Bar, Wine Bar, and Beer Garden Downtown Gresham,Banquet Halls & Reception Facilities,Beer & Ale,Bar, Wine Bar, and Beer Garden",Gresham,US,us/or/gresham/328nmainave/1740109761,45.49994,-122.43068,The Hoppy Brewer,97030,OR,thehoppybrewer,"http://www.oregonshoppyplace.com,http://oregonshoppyplace.com"
AVwc138-ByjofQCxixwj,4112 Medical Pkwy,"Restaurant,Pubs,Brewery,Pub,Bars Pubs,Bars Clubs,Nightclubs,Neighborhood Bars,Restaurants,Brew Pubs,Bars & Clubs,Brewery and Pub Rosedale,Bars & Pubs,Food & Drink,Breweries,Nightlife,Brewery and Pub",Austin,US,us/tx/austin/4112medicalpkwy/312256348,30.310074,-97.742758,Draught House Pub & Brewery,78756,TX,draughthouse,"http://drunkenhorsenyc.com/,http://draughthouse.com"
AVwc13yuByjofQCxixu7,2312 Elliston Pl,"American Restaurant,Pub,Brewery,American Restaurant, Pub, and Brewery,condominiums",Nashville,US,us/tn/nashville/2312ellistonpl/228365555,36.15117618,-86.80452485,Hurry Back,37203,TN,hurrybacknash,"http://hurry-back.com,http://www.hurry-back.com"
AVwc169mIN2L1WUfpfbn,12 Liberty Dr,"Brewers,Restaurant",Londonderry,US,us/nh/londonderry/12libertydr/245410385,42.9164,-71.3629,603 Brewery,3053,NH,603brewery,http://603brewery.com
AVwc1aw3ByjofQCxitRx,227 Broadway,Brewery,Denver,US,us/co/denver/227broadway/-1675011757,39.71993776,-104.9876958,Trve Brewing Co.,80203,CO,trvebrewing,http://trvebrewing.com
AVwc1ge_ByjofQCxiuQW,4495 SW Scholls Ferry Rd,"Brewery,Pub,Restaurant,Bars,American Restaurants,Restaurants,Movie Theaters,Bar & Grills,Brewery, Movie Theater, and Winery,Taverns",Portland,US,us/or/portland/4495swschollsferryrd/1083932555,45.4874,-122.74751,McMenamins Raleigh Hills Pub,97225,OR,captainneon,http://mcmenamins.com/355-raleigh-hills-pub-home
AVwc1iwV_7pvs4fzze4Y,5400 N Clark St,"Restaurant,Fast Food,Burgers,Breweries and brew pubs,Pizza,Restaurants,American restaurants,Hamburger restaurants,Hot dog restaurants,Burger Joint,American Restaurant,Certified Green Restaurant(r),Pubs,Burger Joint and American Restaurant Andersonville",Chicago,US,us/il/chicago/5400nclarkst/-2028072305,41.97997,-87.66856,Hamburger Mary's,60640,IL,maryschicago,"http://www.hamburgermarys.com/chicago,http://hamburgermarys.com/chicago"
AVwc1LS2_7pvs4fzzbOF,345 S Elm St,"Brewery,American Restaurant,Beer Garden,Bars,American Restaurants,Brew Pubs,Restaurants,Beer & Ale,Bar & Grills,Taverns,Pub Food",Greensboro,US,us/nc/greensboro/345selmst/-227281650,36.06943,-79.7905,Natty Greene's Pub & Brewing Co.,27401,NC,natty_greenes,http://www.nattygreenes.com
AVwc1MXGIN2L1WUfpX-S,2855 Marconi Dr,"Brew Pubs,Beer and Ale,Restaurants,Brewery",Alpharetta,US,us/ga/alpharetta/2855marconidr/-436994985,34.08836,-84.24685,Jekyll Brewing,30005,GA,jekyllbrewing,"http://www.jekyllbrewing.com,http://jekyllbrewing.com"
AVwc1Nd0ByjofQCxirBp,308 E Superior St,"Irish Pub,Bar,Brewery,Irish Pub, Bar, and Brewery",Duluth,US,us/mn/duluth/308esuperiorst/-2078647411,46.78997367,-92.09406017,Carmody Irish Pub and Brewing,55802,MN,carmodyirishpub,http://carmodyirishpub.com
AVwc1oczIN2L1WUfpcgq,500 S Telshor Blvd,"Brewery,American Restaurant,Lounge,Take Out Restaurants,American Restaurants,Brew Pubs,Caterers,Restaurants,Beer & Ale,Breakfast Brunch & Lunch Restaurants,,Bar & Grills,Brewery, American Restaurant, and Lounge",Las Cruces,US,us/nm/lascruces/500stelshorblvd/-815383949,32.31473412,-106.744547,De La Vega's Pecan Grill and Brewery,88011,NM,dlvspecangrill,http://www.pecangrill.com
AVwc1P-EkufWRAb5zfge,1212 S E Powell Blvd,Brewery,Portland,US,us/or/portland/1212sepowellblvd/804508820,45.500323,-122.652954,Bushwhacker Cider - Brooklyn,97202,OR,bushwhckr,http://www.bushwhackercider.com
AVwc1T0rkufWRAb5zgFA,231 Collins Industrial Blvd,Brewery,Athens,US,us/ga/athens/231collinsindustrialblvd/-2004729263,33.98343851,-83.34810019,Southern Brewing Company,30601,GA,southernbrewco,http://www.sobrewco.com/home/
AVwc1T2AkufWRAb5zgFS,1207 E Pickard St,"Diner,Brewery,Diner and Brewery",Mount Pleasant,US,us/mi/mountpleasant/1207epickardst/835801807,43.61218873,-84.76272556,Cranker's Restaurant & Brewery - Mount Pleasant,48858,MI,crankersbrewmtp,http://crankersbrewery.com
AVwc1TG_IN2L1WUfpZFU,201 I 20 E,"American Restaurant,Brewery,Food",Arlington,US,us/tx/arlington/201i20e/554746294,32.67922647,-97.11079359,Bj's Restaurant & Brewhouse,76018,TX,bjsrestaurants,http://www.bjsrestaurants.com
AVwc209XByjofQCxi8K1,205 Hirst Rd,Brewery,Purcellville,US,us/va/purcellville/205hirstrd/1054757002,39.14342025,-77.71259305,Corcoran Brewing Company,20132,VA,corcoranbrew,http://corcoranbrewing.com
AVwc21oa_7pvs4fzzr_2,120 W Washington St,"Brew Pubs,Beer and Ale,American Restaurants,Bar and Grills,Restaurants,Brewery,American Restaurant,Brewery, Meeting Room, and American Restaurant Downtown Ann Arbor,Beer & Ale,Bar & Grills",Ann Arbor,US,us/mi/annarbor/120wwashingtonst/1714502230,42.28055,-83.7488,Grizzly Peak Brewing Co,48104,MI,grizzlypeak,"http://www.grizzlypeak.net,http://grizzlypeak.net"
AVwc22oT_7pvs4fzzsKy,70 SW Century Dr,"Brewers,Brewery",Bend,US,us/or/bend/70swcenturydr/-1664192441,44.0506,-121.3305,Goodlife Brewing Co,97702,OR,goodlifebrewing,http://goodlifebrewing.com
AVwc25C6IN2L1WUfpqCr,204 E Via Rancho Pkwy,"Restaurant,American,Chain Restaurant,Brewery,American Restaurant,Pizza Place,Restaurants,Bars Clubs,Bars Pubs,Pubs,Brew Pubs,Breweries and brew pubs,Carry-out food,Pizza,Bar and grill restaurants,Pub restaurants,American Restaurant, Pizza Place, and Brewery,Bars & Clubs,Bars & Pubs",Escondido,US,us/ca/escondido/204eviaranchopkwy/554746294,33.069057,-117.06838,BJ's Restaurant and Brewhouse,92025,CA,bjsrestaurants,http://t.co/bl46gcjDLN
AVwc2-5KkufWRAb5zxB6,1050 N Fairway Doctor F,"Bars,Brewery and Bar,Brewery,Bar,Taverns",Avondale,US,us/az/avondale/1050nfairwaydoctorf/1880612605,33.45448735,-112.3263172,8-bit Aleworks,85323,AZ,8bitaleworks,http://www.8-bitaleworks.com
AVwc2bdEIN2L1WUfplFo,8222 Park Meadows Dr,Brewery,Lone Tree,US,us/co/lonetree/8222parkmeadowsdr/549205266,39.56258375,-104.8928082,Lone Tree Brewery Co.,80124,CO,lonetreebrewing,http://lonetreebrewingco.com
AVwc2cMm_7pvs4fzzn_3,14237 W Colfax Ave,"Restaurant,Breakfast & Brunch,Chain Restaurant,Juice Smoothie Shops,Ice Cream Parlors,Breweries,Restaurants,Fast Food Restaurants,Refreshment Stands,Beverages Wholesale & Manufacturers,Health & Diet Food Products,Ice Cream & Frozen Desserts,Beverages,Juices,Beverages Retail,Ice Cream & Frozen Yogurt Shops,Juice Bars,Health Food Restaurants,Juice Bar",Golden,US,us/co/golden/14237wcolfaxave/2062304683,39.73696,-105.160425,Jamba Juice,80401,CO,jambajuice,"http://www.jambajuice.com/#/home/,http://www.jambajuice.com,http://locations.jambajuice.com/co/golden/14237-west-colfax-ave..html"
AVwc-2CYByjofQCxkRUp,1010 Virginia Dr,"Restaurant,Pubs,Brewery",Orlando,US,us/fl/orlando/1010virginiadr/1178343129,28.563698,-81.36597,Ten 10 Brewing Company,32803,FL,brewingten10,http://www.ten10brewingcompany.com
AVwc2E2VIN2L1WUfphDU,1555 Blake St,"Music Venue,Bar and Music Venue,Bar,Pubs,Bars & Pubs,Sports Bars,Breweries",Denver,US,us/co/denver/1555blakest/1757676697,39.750288,-104.999768,World of Beer,80202,CO,mapquest,"http://worldofbeer.com/Locations/Lodo,http://mapquest.com"
AVwc2GHmIN2L1WUfphU-,2311 Jolly Rd,"Wine,Beer and Ale,Brewers,Bars,Brew Pubs,Wine Shop, Gourmet Shop, and Liquor Store,Beer & Ale,Liquor Stores",Okemos,US,us/mi/okemos/2311jollyrd/1437309868,42.68242,-84.43542,Vine and Brew,48864,MI,vineandbrew,http://www.vineandbrew.com
AVwc2GTw_7pvs4fzzkS2,240 Lancaster Ave,"Brewery,American Restaurant,Restaurants,Bars Clubs,Bars Pubs,Brew Pubs,Restaurant,Brewery and American Restaurant",Malvern,US,us/pa/malvern/240lancasterave/-1929697018,40.0399,-75.543,McKenzie Brew House,19355,PA,mckenziebrew,http://www.mckenziebrewhouse.com
AVwc2LSM_7pvs4fzzlJr,121 W,"Brewery and American Restaurant,Restaurant",Wheaton,US,us/il/wheaton/121w/-1335254704,41.865105,-88.10773,Emmett's Brewing Company,60187,IL,emmettsbeer,http://emmettsbrewingco.com
AVwc2nKVByjofQCxi55_,3703 N Main St,"Beer and Ale,Brew Pubs,Bar and Grills,Caterers,Restaurants,Restaurant,Brewers,Brewery",Mishawaka,US,us/in/mishawaka/3703nmainst/-1896157781,41.69397,-86.18279,Evil Czech Brewery,46545,IN,evilczechbeer,"http://evilczechbrewery.com,http://api.citygridmedia.com/content/places/v2/click?q=9YKflVKbY9NauPJdMy0B1gS1IhB4xv4EWw0zDoT-UWc_izWF3zs5PKGdfOHubWrvM0QwDCYwbOH2fdLi0dK5xArULcksCCbfR-WWAz9xD1AmGVAQZIom4U3n5R4DuRC8WJCtvJcNItEKoCSfzwapuGnmwGnHDpEGYXGjnN4u8zXqkiimSHFf4_dbqGRbVgNJnPzKD0QWL5OxDLY-WNOMCOaIMJ8Tt1OmzsjZgnzgRwy_5KRH2MZ5KWPAhw9RiYz06Iioc20kWuBYGtCPRkuA0QVBnzRfQ9cK2pzjzlCi9vTcJ_BHXgEJQe6ts_roHXjvdNYh64PUweBhNjX3i25xWFvsoXMl5rnz6FtgP15cYvZa2c3sqeTx59TSzRlv9DVGVFQ_YBMEvQAODmU5d5yXDr-WBXYQwcNaJFm0Ry_kiG7MDRpt9XfrKmTsktUGn6XN5RuP-M4oA8oa6wwdUtIDvzo6cqFvDu3U65E3hwOG24adi8UHrnbobavs_kC9zmXB_Wg3BRUFJOCru5d3sk-Igz6_BfW-8Nt41QnPIb2Nc_o&placement=listing_profile&cs_user=unknown&cs_session=b1fe98c5c71cf5918b59cdcad9c7b849ec0f43e8"
AVwc2Nv7ByjofQCxi1gS,2c Loudoun St SW,"Brew Pubs,Beer and Ale,Caterers,American Restaurants,Bar and Grills,Restaurants,Brewery,Restaurant",Leesburg,US,us/va/leesburg/2cloudounstsw/256603340,39.11439,-77.56541,Leesburg Brewing Company,20175,VA,leesburgbrew,"http://leesburgbrewing.com,http://www.leesburgbrewing.com"
AVwc2PbHIN2L1WUfpi6r,3140 SW 42nd Way,"Brew Pubs,Beer and Ale,brewery",Gainesville,US,us/fl/gainesville/3140sw42ndway/1112045162,29.62488,-82.38912,Swamp Head Brewery,32608,FL,swamphead,http://www.swamphead.com
AVwc2PSgIN2L1WUfpi40,1220 W Nickerson St,"Brewery,Brewers,Brewery North Queen Anne",Seattle,US,us/wa/seattle/1220wnickersonst/233625374,47.65576655,-122.3730073,Rooftop Brewing Company,98119,WA,rooftopbrewco,http://rooftopbrewco.com
AVwc2r4wIN2L1WUfpn7V,95 Whiting St,"Brewery,services",Plainville,US,us/ct/plainville/95whitingst/1055514829,41.66653538,-72.86782597,Relic Brewing,6062,CT,relicbrewing,http://relicbeer.com
AVwc2UATIN2L1WUfpju6,2400 Wisconsin 69,"Brewery,Distillery,Brewery and Distillery",New Glarus,US,us/wi/newglarus/2400wisconsin69/2042531953,42.79571556,-89.62972641,New Glarus Brewing Company,53574,WI,newglarusbeer,http://www.newglarusbrewing.com
AVwc2VItIN2L1WUfpj7g,5881 Centennial Center Blvd,"American Restaurant,Pizza Place,Brewery,American Restaurant, Pizza Place, and Brewery Centennial Hills,American Restaurant, Pizza Place, and Brewery",Las Vegas,US,us/nv/lasvegas/5881centennialcenterblvd/554746294,36.26974225,-115.261461,BJ's Restaurant and Brewhouse,89149,NV,bjsrestaurants,http://t.co/bl46gcjDLN
AVwc2yl7_7pvs4fzzrly,12 Resnik Rd,"Food & Drink,Breweries,Brewery",Plymouth,US,us/ma/plymouth/12resnikrd/660114653,41.94919,-70.711544,Mayflower Brewing Company,2360,MA,mayflowerbrew,http://mayflowerbrewing.com
AVwc38PmkufWRAb5z770,1315 Tyler St NE,Brewery,Minneapolis,US,us/mn/minneapolis/1315tylerstne/-841086475,45.000889,-93.24494224,Bauhaus Brew Labs,55413,MN,bauhausbrewlabs,http://bauhausbrewlabs.com
AVwc3dHkByjofQCxjDJ2,3809 Coldwater Rd,"Gastropub,American Restaurant,Brewery,Restaurant,Restaurants,Bars Clubs,Bars Pubs,Brew Pubs,Bar & Grills,Gastropub, American Restaurant, and Brewery",Fort Wayne,US,us/in/fortwayne/3809coldwaterrd/1241605439,41.1114,-85.13592,Granite City Food & Brewery,46805,IN,gcfb,http://www.gcfb.net
AVwc3e1nIN2L1WUfpwkr,701 Eighth Ave. S,Brewery,Nashville,US,us/tn/nashville/701eighthaves/831598967,36.15035077,-86.7793107,Jackalope Brewing Company,37203,TN,jackalopebrew,http://jackalopebrew.com
AVwc3ed2kufWRAb5z2rw,5885 Sawyer Rd,"Brewery,Restaurant,Food & Drink,Breweries",Sawyer,US,us/mi/sawyer/5885sawyerrd/1199299848,41.885659,-86.594577,Greenbush Brewing Company,49125,MI,greenbush_brew,http://greenbushbrewing.com
AVwc3fPLByjofQCxjDfO,21730 Red Rum Dr,"Brewery,Building,Brewery and Building,Restaurant",Ashburn,US,us/va/ashburn/21730redrumdr/-2130663891,39.01601,-77.47567,Lost Rhino Brewing Company,20147,VA,lostrhino,http://www.lostrhino.com
AVwc3GvWIN2L1WUfpsdH,3201 Walnut St,"Brewery,American Restaurant,Restaurant,Brewery and American Restaurant",Boulder,US,us/co/boulder/3201walnutst/-1545073965,40.02061,-105.25113,Twisted Pine Brewing Company,80301,CO,twistedpine,http://twistedpinebrewing.com
AVwc3j3X_7pvs4fzz0NT,610 Merchant St,"American Restaurant,Brewery,American Restaurant and Brewery",Emporia,US,us/ks/emporia/610merchantst/1072746991,38.40537942,-96.18131161,Radius Brewing Company,66801,KS,radiusbrewing,http://radiusbrewing.com
AVwc3kBAIN2L1WUfpxhJ,711 15th Ave N E,"Food & Drink,Breweries,Brewery and Beer Garden,Brewery,Beer Garden",Minneapolis,US,us/mn/minneapolis/71115thavene/-314134622,45.00332792,-93.25146792,Indeed Brewing Company,55413,MN,indeedbrewing,http://indeedbrewing.com
AVwc3QvA_7pvs4fzzw2C,2116 Western Ave,"Attraction,Bars,Clubs and Nightlife,Brewery,Restaurant,bike shop",Seattle,US,us/wa/seattle/2116westernave/861726005,47.611705,-122.345117,Cloudburst Brewing,98121,WA,cloudburst_brew,"http://www.cloudburstbrew.com/,http://cloudburstbrew.com/,http://www.cloudburstbrew.com"
AVwc3RK9ByjofQCxjBMA,1106 N Charles St,"Bars,Beer and Ale,Bar and Grills,Restaurants,Bar,American Restaurant,Brewery,Bars & Clubs,Breweries,Food & Drink,Nightlife",Baltimore,US,us/md/baltimore/1106ncharlesst/-800544065,39.30277,-76.61637,The Brewer's Art,21201,MD,brewersart,http://www.thebrewersart.com
AVwc3sf4IN2L1WUfpy7K,241 W 5th St,"Bars Clubs,Brewery",Winston Salem,US,us/nc/winstonsalem/241w5thst/-1813978813,36.0997,-80.2471,Small Batch Beer Co,27101,NC,smallbatchws,http://smallbatchws.com
AVwc3sHN_7pvs4fzz1rP,305 2nd Ave SE,"American Restaurant,Bar,Restaurant,American Restaurants,Breakfast Brunch and Lunch Restaurants,,Dessert Restaurants,Bars,Banquet Halls and Reception Facilities,Bar and Grills,Wedding Reception Locations and Services,Beer and Ale,Taverns,Restaurants,Bars & Pubs,Pubs,Sports Bars,Sandwich Shops,Breweries,Banquet Facilities,Beer & Ale,Wedding Reception Locations & Services,Banquet Halls & Reception Facilities,Party & Event Planners,Hamburgers & Hot Dogs,Steak Houses,Chicken Restaurants,Breakfast Brunch & Lunch Restaurants,,Bar & Grills,Health Food Restaurants,Pizza",Cedar Rapids,US,us/ia/cedarrapids/3052ndavese/1373481153,41.978546,-91.66631,White Star Ale House,52401,IA,whitestarcr,"http://www.whitestaralehouse.com,http://whitestaralehouse.com"
AVwc3TZe_7pvs4fzzxU3,731 E College Ave,"Beer and Ale,Brew Pubs,Restaurants,Beer and Ale-Wholesale and Manufacturers,Beverages,Brewery,Brewers",Decatur,US,us/ga/decatur/731ecollegeave/1131150139,33.77379,-84.28353,Blue Tarp Brewing Co,30030,GA,bluetarpbrew,"http://www.bluetarpbrew.com,http://bluetarpbrew.com"
AVwc3WrC_7pvs4fzzx2N,500 Blairs Ferry Rd NE,"Sports Bar,American Restaurant,Brewery,Sports Bar, American Restaurant, and Brewery",Cedar Rapids,US,us/ia/cedarrapids/500blairsferryrdne/1558424469,42.03506216,-91.63978457,Third Base Brewing Company,52402,IA,3rdbasebrewery,http://3rdbasebrewery.com
AVwc3YjXIN2L1WUfpvd9,24581 Lorain Rd,"Beer Bar,Brewery,Breweries and brew pubs,Karaoke,Pizza,Restaurants,American restaurants,Bar and grill restaurants,Pub restaurants,Gastropub,Bars Clubs,Bars Pubs,Brew Pubs,Pub Food,Bar,Burger Joint,Bars & Pubs,Pubs,Breweries",North Olmsted,US,us/oh/northolmsted/24581lorainrd/1155396288,41.4263,-81.8942,Fat Head's Brewery & Saloon,44070,OH,fatheadscle,http://www.fatheadscleveland.com
AVwc43Kg_7pvs4fz0CN7,13612 Newport Ave,"Pizza Place,Brewery,Building,Breweries and brew pubs,Pizza,Restaurants,Restaurant,American,Italian,American Restaurants,Caterers,Pizza Place, Brewery, and Building,Breweries,Pizza Restaurants,Italian Restaurants",Tustin,US,us/ca/tustin/13612newportave/-1822852207,33.742405,-117.81726,Oggis Pizza & Brewing Co,92780,CA,oggistustin,http://oggis.com
AVwc49eEByjofQCxjTJE,13300 Bothell Everett Hwy,"Brewery,Wine Bar,Pub,Bars,American Restaurants,Pubs,Brewery, Wine Bar, and Pub,Restaurants,Transportation Companies,Sports Bars,Breweries,Beer & Ale,Wineries,Bar & Grills,Taverns,Restaurant,Movie Theaters",Bothell,US,us/wa/bothell/13300bothelleveretthwy/1453581534,47.876667,-122.212327,McMenamins Mill Creek,98012,WA,captainneon,"http://mcmenamins.com/306-mcmenamins-mill-creek-home,http://www.mcmenamins.com"
AVwc4B_A_7pvs4fzz5VE,2200 S Interstate 35,"Breweries and brew pubs,Movie theaters,Restaurants,Brewers,Movie Theater and Brewery Hesters Crossing Shopping Center,Brewery,Movie Theater,Theatres",Round Rock,US,us/tx/roundrock/2200sinterstate35/-1884486007,30.4887,-97.6799,Flix Brewhouse,78681,TX,flixbrewhouse,"http://flixbrewhouse.com,http://www.flixbrewhouse.com"
AVwc4B-yByjofQCxjJG0,103 S Mills Rd,"Liquor Stores,Food Stores,Wine Stores,Breweries,Liquor Store, Food Drink Shop, and Wine Shop",Ventura,US,us/ca/ventura/103smillsrd/93630837,34.2723,-119.2476,Bevmo,93003,CA,bevmo,http://bevmo.com
AVwc4ftqIN2L1WUfp7JR,13010 W Parmer Ln,"Brewery,Coffee Shop and Brewery,Coffee Shop,restaurant",Cedar Park,US,us/tx/cedarpark/13010wparmerln/-1121460512,30.53396191,-97.7809602,Red Horn Coffee House & Brewing Co,78613,TX,redhornbrew,"http://redhornbrew.com,http://www.redhornbrew.com/"
AVwc4g-0_7pvs4fzz-H4,6530 S Lake Shore Dr,"Wineries,Vineyards,Brewers,Places Of Interest,Tourist Information & Attractions,Beverages,Fruit & Vegetable Growers & Shippers,Liquor Stores",Cedar,US,us/mi/cedar/6530slakeshoredr/1692512761,44.884,-85.7248,Bel Lago Vineyards & Winery,49621,MI,bellagowinery,http://www.bellago.com
AVwc4Hb1kufWRAb5z9nt,at Concourse A,"Steakhouse,American Restaurant,Brewery,Steakhouse, American Restaurant, and Brewery",Denver,US,us/co/denver/atconcoursea/1255227014,39.85380962,-104.6738076,Denver Chop House & Brewery,80202,CO,hmshost,http://denverchophouse.com
AVwc4hKOkufWRAb50Bps,7136 Germantown Ave,"Restaurant,Pizza,Pubs,Brewery,Bar,Restaurants,Brew Pubs,Bars Pubs,Bars & Pubs,Breweries,Pizza Restaurants",Philadelphia,US,us/pa/philadelphia/7136germantownave/-136239492,40.059185,-75.19041,Earth Bread & Brewery,19119,PA,earthbreadbrew,"http://earthbreadbrewery.com,http://www.earthbreadbrewery.com"
AVwc4lbJIN2L1WUfp8Ag,520 S High St,"Restaurant,Restaurant Brewery District",Columbus,US,us/oh/columbus/520shighst/953059784,39.95147,-82.99834,Copious,43215,OH,copiouscolumbus,http://copiouscolumbus.com
AVwc4oRuIN2L1WUfp8gM,13133 Veterans Memorial Dr,"Supermarket,Cheese Shops,Grocery Stores & Supermarkets,Breweries,Beer & Ale Distributors,Beer & Ale Retail",Houston,US,us/tx/houston/13133veteransmemorialdr/-1122957716,29.977857,-95.490986,Kroger,77014,TX,kroger,http://kroger.com
AVwc4s8M_7pvs4fz0ALq,150 Eastside Dr,"Brewery,Bars & Clubs,Nightlife",Black Mountain,US,us/nc/blackmountain/150eastsidedr/1164300497,35.60766154,-82.35853672,Pisgah Brewing Company,28711,NC,pisgahbrewing,http://pisgahbrewing.com
AVwc4saMByjofQCxjP_i,716 SW 3rd St,"Beer and Ale,Brewery",Ankeny,US,us/ia/ankeny/716sw3rdst/-633998828,41.73002,-93.60989,Firetrucker Brewery,50023,IA,firetruckerbrew,http://firetrucker.com
AVwc4sng_7pvs4fz0AIF,535 N Woodlawn St,"Brewery,Restaurant",Wichita,US,us/ks/wichita/535nwoodlawnst/-1714519526,37.69527,-97.26341,Wichita Brewing Company & Pizzeria,67208,KS,wichitabrew,http://wichitabrew.com
AVwc4Zya_7pvs4fzz842,4029 Hagen Rd,"Winery,Wine Bar,Wineries,Vineyards,Brewers,Winery and Wine Bar,Attraction,Tours,Classes and Rentals,Guided Tour",Napa,US,us/ca/napa/4029hagenrd/27138180,38.3232,-122.2244,Palmaz Vineyards,94558,CA,palmazvineyards,http://www.palmazvineyards.com
AVwc576iIN2L1WUfqK9g,1 W Flatiron Crossing Dr,"Brewery,American Restaurant,Brewery, German Restaurant, and American Restaurant,German Restaurant",Broomfield,US,us/co/broomfield/1wflatironcrossingdr/-1268123268,39.93066919,-105.1352119,Gordon Biersch Brewery Restaurant,80021,CO,gordon_biersch,http://gordonbiersch.com
AVwc5aFJkufWRAb50Lr-,7124 E 5th Ave,"Coffee and Tea,Coffee and Espresso Restaurants,Coffee Shops,Restaurants,Coffee Shop,Internet Cafe,Coffee & Tea,Coffee Shop and Internet Cafe Downtown Scottsdale,Coffee Shop, Brewery, and Internet Cafe Downtown Scottsdale,Coffee Shop and Internet Cafe",Scottsdale,US,us/az/scottsdale/7124e5thave/-40653222,33.49834,-111.92758,Cartel Coffee Lab,85251,AZ,cartelcoffeelab,"https://www.cartelcoffeelab.com,http://www.cartelcoffeelab.com"
AVwc5ESwkufWRAb50II1,1333 5th Ave,"Brewery,American Restaurant,Restaurants,Brew Pubs,Bars Clubs,Sports Bars,Brewery and American Restaurant,Brewery and American Restaurant Seattle Central Business District",Seattle,US,us/wa/seattle/13335thave/1021883261,47.6091,-122.3342,Rock Bottom Restaurant & Brewery,98101,WA,rockbottom,http://rockbottom.com
AVwc5ggrkufWRAb50M04,91 Biltmore Ave,"Brewery,Beer Garden,American Restaurant,Liquor Stores,Restaurants,Pubs,Breweries,Wineries",Asheville,US,us/nc/asheville/91biltmoreave/-115482470,35.5917,-82.5511,Wicked Weed Brewing,28801,NC,wickedweedbeer,http://www.wickedweedbrewing.com
AVwc5Hji_7pvs4fz0FNP,130 Bridge St,"Brewery,Food,Restaurant",Phoenixville,US,us/pa/phoenixville/130bridgest/2102366206,40.13398,-75.51377,Iron Hill Brewery & Restaurant,19460,PA,ironhillphx,http://ironhillbrewery.com/phoenixville/
AVwc5ixn_7pvs4fz0JsU,21001 N Tatum Blvd,"American Restaurant,Pizza Place,Brewery,American Restaurant, Pizza Place, and Brewery",Phoenix,US,us/az/phoenix/21001ntatumblvd/554746294,33.67719348,-111.9765937,Bj's Restaurant and Brewhouse,85050,AZ,bjsrestaurants,http://t.co/bl46gcjDLN
AVwc5KZLByjofQCxjVcL,1416 N Litchfield Rd,"Liquor Stores,Wine,Beer and Ale,Wine Shop, Liquor Store, and Brewery,Wine Shop, Liquor Store, and Beer Store,Beer & Ale,Breweries,Beer & Ale Distributors,Wine & Distilled Beverages Retail,Beer & Ale Retail",Goodyear,US,us/az/goodyear/1416nlitchfieldrd/-1152707038,33.46237,-112.35832,Total Wine More,85395,AZ,totalwine,"http://www.totalwine.com/store-info/arizona-goodyear/1008?cid=referral:YEXT::SERP_website_link:1008_goodyear_store_page:,http://www.totalwine.com/store-info/arizona-goodyear/1008"
AVwc5L1OkufWRAb50JcP,1627 S 7th St,"Brewery South San Jose,Brewery",San Jose,US,us/ca/sanjose/1627s7thst/1362690911,37.315174,-121.866429,Sufferfest Beer Co,95112,CA,hermitagebrews,http://hermitagebrewing.com
AVwc5m6lByjofQCxjaaS,105 W. Emma St,"Restaurant,American,Bar,Brewery,American Restaurant,Brewers",Lafayette,US,us/co/lafayette/105wemmast/-572928643,39.994526,-105.091286,The Post Brewing Company,80026,CO,postbrewingco,http://www.postbrewing.com
AVwc5MB1ByjofQCxjVpi,44652 Guilford Dr,"Breweries,Food & Drink,Brewery",Ashburn,US,us/va/ashburn/44652guilforddr/-1763867430,39.02376615,-77.45480491,Old Ox Brewery,20147,VA,oldoxbrewery,http://oldoxbrewery.com
AVwc5NsekufWRAb50JuG,7848 E 96th St,"Brewery,Food & Drink,Breweries",Fishers,US,us/in/fishers/7848e96thst/-2025823524,39.928238,-86.02452,Sun King Tap Room and Small-Batch Brewery,46037,IN,sunkingbrewing,http://sunkingbrewing.com
AVwc5okykufWRAb50Oab,120 Wilkinson St,Brewery,Syracuse,US,us/ny/syracuse/120wilkinsonst/866553734,43.05102913,-76.16199431,Middle Ages Brewing Company,13204,NY,middleagesbeer,http://middleagesbrewing.com
AVwc5P_kByjofQCxjWSe,212 W 6th St,"Wineries,Brewery,Winery,Other Food & Drink,Wineries & Vineyards,More,Brewery and Winery Old Town Manchester,Food & Drink,Breweries,Brewery and Winery",Richmond,US,us/va/richmond/212w6thst/1007915267,37.5256,-77.4414,Blue Bee Cider LLC,23224,VA,bluebeecider,http://bluebeecider.com
AVwc5qmPByjofQCxjbD6,500 Winslow Way E,"Brewers,Bar,Amusement Places & Arcades,Tourist Information & Attractions,Restaurants",Bainbridge Island,US,us/wa/bainbridgeisland/500winslowwaye/1596699160,47.6246,-122.5138,Alehouse On Winslow,98110,WA,alesonwinslow,"http://www.alehouseonwinslow.com,http://alehouseonwinslow.com,http://api.citygridmedia.com/content/places/v2/click?q=9YKflVKbY9NauPJdMy0B1gS1IhB4xv4EWw0zDoT-UWc_izWF3zs5PKGdfOHubWrvM0QwDCYwbOH2fdLi0dK5xArULcksCCbfR-WWAz9xD1AmGVAQZIom4U3n5R4DuRC8WJCtvJcNItEKoCSfzwapuGnmwGnHDpEGYXGjnN4u8zXqkiimSHFf4_dbqGRbVgNJPfW2Rd16RBtow2kmf1DAzc1lG9_sY_6B_yeR_1KC9DbtDFOjW204YLqiw2aZBohC8NdDjqwomntg7pcbp5DtEfu6MJzvSALXn7nJA5eHQFAC8_g2ffQSNPefgBSv_cPo23UWp5zoagTP6MxV2xBh3lf8IzApTcXmUELXk9ok0fq4hXnF9NnrQVpFVoRkJxuGTEgfNi685WWKpW6opOTvIyPMuF4NO-GF80zATbB8v3LVVknUgJGiqzIFDf5GJP6yBwnzrHQCvjMM9bJsOIQWrhgvoJREAuIxiHZqbPC7C4370WzAQRFjyJmNq_Wy5YkRYeW_MSHjTGNo9YLWZn4Btbbhb3MSYpUeVQAgPJsy2ooZ6dzw4IJVzw&placement=listing_profile&cs_user=unknown&cs_session=f61b4a0a17d8e1c494f47753bef3703f94ab33f1"
AVwc5QQE_7pvs4fz0GmP,1828 Abriter Ct,"Restaurant,Brewery,Bar,Restaurant, Brewery, and Bar",Naperville,US,us/il/naperville/1828abriterct/1241605439,41.8029,-88.129329,Granite City Food & Brewery,60563,IL,gcfb,"http://www.gcfb.com,http://gcfb.com"
AVwc5RdakufWRAb50KW4,17700 Hwy 253,Brewery and Disc Golf,Boonville,US,us/ca/boonville/17700hwy253/28716362,39.00074292,-123.3567667,Anderson Valley Brewing Company,95415,CA,avbc,http://avbc.com
AVwc5UcZIN2L1WUfqEOu,5616 Spectrum Dr,"American Restaurant,Pizza Place,Brewery,Restaurants,Pubs,Brew Pubs,American Restaurant, Pizza Place, and Brewery",Frederick,US,us/md/frederick/5616spectrumdr/554746294,39.383755,-77.402943,BJ's Restaurant and Brewhouse,21703,MD,bjsrestaurants,http://t.co/bl46gcjDLN
AVwc5V9VkufWRAb50LFM,13101 Arnold Dr,"Winery,Wineries,Brewers,Restaurant,wholesale",Glen Ellen,US,us/ca/glenellen/13101arnolddr/931526942,38.3705194,-122.5171231,Mayo Family Winery,95442,CA,mayofamilywine,http://www.mayofamilywinery.com
AVwc5vbc_7pvs4fz0L3z,2325 Endicott St,"Brew Pubs,Beer and Ale,Liquor Stores,Restaurants,Brewery,Bar & Grills,Beer & Ale",Saint Paul,US,us/mn/saintpaul/2325endicottst/-1084995983,44.97037,-93.19323,Urban Growler Brewing Company,55114,MN,urbangrowlermn,http://www.urbangrowlerbrewing.com
AVwc5ZBDByjofQCxjXwv,5907 Triangle Dr,"Brewery,Beer Homebrewing Equipment and Supplies,Beer and Ale,Liquor Stores,Beer Homebrewing Equipment & Supplies,Beer & Ale",Raleigh,US,us/nc/raleigh/5907triangledr/1694132614,35.89589,-78.74511,Gizmo Brew Works,27617,NC,gizmobrewworks,http://www.gizmobrewworks.com
AVwc6_2kkufWRAb50cwa,1525 Cortland Ave,"Attraction,Bars,Clubs and Nightlife,Brewery",San Francisco,US,us/ca/sanfrancisco/1525cortlandave/1656262101,37.7401129,-122.409035,Barebottle Brewing Company,94110,CA,barebottlebeer,"http://www.barebottlebeer.com/,http://www.barebottlebeer.com"
AVwc62szIN2L1WUfqVXu,2052 W Virginia Ave Ne,"Brewers,Brewery Ivy City,Brewery,Brew Pubs,Beer & Ale,Restaurants,factory",Washington,US,us/dc/washington/2052wvirginiaavene/-1004580971,38.9149,-76.9814,Atlas Brew Works,20002,DC,atlasbrewworks,"http://atlasbrewworks.com,http://www.atlasbrewworks.com"
AVwc635xkufWRAb50bax,40 Collier Ave,"Brewery,Brewers,Other Food & Drink,Bars & Clubs,More,Food & Drink,Nightlife,Breweries,Brewery Downtown Asheville",Asheville,US,us/nc/asheville/40collierave/-406952667,35.588,-82.5538,Burial Beer Co.,28801,NC,burialbeer,http://burialbeer.com
AVwc64hDIN2L1WUfqVo4,2661 N Maize Rd,"Brewery,Restaurants,Bars Clubs,Bars Pubs,Brew Pubs,Bars & Clubs,Bars & Pubs,Traditional American Restaurants,Polish & Czech Restaurants,Restaurant",Wichita,US,us/ks/wichita/2661nmaizerd/1241605439,37.7308,-97.4632,Granite City Food & Brewery,67205,KS,gcfb,http://gcfb.net
AVwc669DByjofQCxjozf,111 Marble Ave NW,"Brewery,Pub,Beer Garden,Brewers,Brewery, Pub, and Beer Garden,Locks & Locksmiths-Commercial & Industrial,Locksmith Referral Service,Locks & Locksmiths,Safes & Vaults-Opening & Repairing,Locksmiths Equipment & Supplies,Keys",Albuquerque,US,us/nm/albuquerque/111marbleavenw/-617223347,35.0928,-106.6467,Marble Brewery,87102,NM,marblebrewery,http://marblebrewery.com
AVwc685RkufWRAb50cKk,600 Battleground Ave,"Brewery,Brewery Fisher Park",Greensboro,US,us/nc/greensboro/600battlegroundave/1966349568,36.07939157,-79.79394234,Preyer Brewing Company,27401,NC,preyerbrewing,http://preyerbrewing.com
AVwc69WAIN2L1WUfqWbH,639 E Boughton Rd,"Brewery,American Restaurant,Brewery and American Restaurant,Breweries",Bolingbrook,US,us/il/bolingbrook/639eboughtonrd/-1268123268,41.71863909,-88.04074287,Gordon Biersch Brewery Restaurant,60440,IL,gordon_biersch,http://gordonbiersch.com
AVwc6BZWkufWRAb50SSj,501 N Stephanie St,"Wine Shop, Liquor Store, and Brewery,Wine Shop, Liquor Store, and Brewery Whitney Ranch,Wine Shop, Liquor Store, and Beer Store Whitney Ranch,Liquor Store,Brewery,Wine Shop",Henderson,US,us/nv/henderson/501nstephaniest/-1152707038,36.056609,-115.048332,Total Wine & More,89014,NV,totalwine,"http://totalwine.com,http://www.totalwine.com"
AVwc6cYI_7pvs4fz0TWy,4210 82nd St,"Pub, Bar, and Brewery,Pub,Brewery,Bar",Lubbock,US,us/tx/lubbock/421082ndst/-556822686,33.52071643,-101.9017878,Fox and Hound English Pub,79423,TX,the_foxandhound,http://foxandhound.com
AVwc-6D2ByjofQCxkSAF,215 S Grant Ave,Brewery,Springfield,US,us/mo/springfield/215sgrantave/1421577965,37.20754199,-93.29898171,Mother's Brewing Company,65806,MO,mothersbrewing,http://www.mothersbrewing.com
AVwc6dH7ByjofQCxjjzL,25 Cataract St,"Pub,Brewers,Restaurants,Breweries",Rochester,US,us/ny/rochester/25cataractst/-1534253056,43.1636,-77.6149,The Genesee Brew House,14605,NY,geneseebrewery,http://geneseebeer.com/brew-house
AVwc6dO2kufWRAb50XDp,8785 Airport Rd,"Vineyard,Brewery",Waconia,US,us/mn/waconia/8785airportrd/-677557047,44.84318145,-93.74558687,Schram Vineyards,55387,MN,schramvineyards,http://www.schramvineyards.com
AVwc6hNo_7pvs4fz0UJY,1 Industrial Way,"Brewery,Tourist Information & Attractions,Food & Drink,Amusement Places & Arcades,Banquet Halls & Reception Facilities,Breweries",Portland,US,us/me/portland/1industrialway/143925389,43.70274921,-70.32015343,Austin Street Brewery,4103,ME,austinstbrewery,"http://austinstreetbrewery.com,http://www.austinstreetbrewery.com"
AVwc6IKx_7pvs4fz0P7B,124 Perimeter Ctr W,"Wine Shop, Brewery, and Gift Shop Perimeter Center,Wine Shop, Liquor Store, and Brewery Perimeter Center,Wine Shop, Liquor Store, and Brewery,Breweries,Beer & Ale Distributors,Liquor Stores,Wine & Distilled Beverages Retail,Beer & Ale Retail",Atlanta,US,us/ga/atlanta/124perimeterctrw/-1152707038,33.927508,-84.344618,Total Wine & More,30346,GA,totalwine,http://totalwine.com
AVwc6kjtIN2L1WUfqSSi,2315 N Davidson St,"Brewers,brewery",Charlotte,US,us/nc/charlotte/2315ndavidsonst/-1715793262,35.2407,-80.8144,Birdsong Brewing,28205,NC,birdsongbrewing,http://www.birdsongbrewing.com
AVwc6LoXkufWRAb50UBp,1000 Marietta St NW,"Brewery,American Restaurant,Bars,Beer and Ale,Brew Pubs,American Restaurants,Caterers,Restaurants,Taverns",Atlanta,US,us/ga/atlanta/1000mariettastnw/1269111589,33.78434,-84.4191,5 Seasons Brewing,30318,GA,5seasonswest,http://5seasons.info
AVwc6pZTByjofQCxjl42,130 W Gurley St,"Brewery,American Restaurant,American Restaurants,Brew Pubs,Restaurants,Banquet Halls & Reception Facilities,Beer & Ale,Restaurant",Prescott,US,us/az/prescott/130wgurleyst/17147385,34.5419,-112.4715,Prescott Brewing Company,86301,AZ,prescottbrewco,"http://www.prescottbrewingcompany.com,http://www.prescottbrewingcompany.com/"
AVwc6QnqByjofQCxjhkT,1701 Telegraph Ave,"Restaurant,Bar,Brewery,Brewers",Oakland,US,us/ca/oakland/1701telegraphave/-2298467,37.807009,-122.270489,Woods Bar and Brewery,94612,CA,woodsbeer,http://www.woodsbeer.com/
AVwc6TfF_7pvs4fz0Ryc,4561 Virginia Beach Blvd,"Brewery,American Restaurant,Restaurants,Bars Clubs,Bars Pubs,Brew Pubs,Brewery and American Restaurant",Virginia Beach,US,us/va/virginiabeach/4561virginiabeachblvd/-1268123268,36.8433,-76.1347,Gordon Biersch Brewery Restaurant,23462,VA,gbvabeach,http://gordonbiersch.com
AVwc6ytokufWRAb50alP,1505 Taylor Farm Rd,Brewery,Virginia Beach,US,us/va/virginiabeach/1505taylorfarmrd/-183069045,36.78814335,-76.06032153,Reaver Beach Brewing Company,23453,VA,reaverbeach,http://www.reaverbeach.com
AVwc6ytqkufWRAb50alR,110 Wisconsin Dells Pkwy S,"Pizza Place,Brewery,American Restaurant,Barbecue,Breweries and brew pubs,Juice bars,Pizza,Restaurants,American restaurants,Bar and grill restaurants,Cajun-creole restaurants,Hamburger restaurants,Health food restaurants,Hot dog restaurants,Italian restaurants,Mexican restaurants,Natural food restaurants,Seafood restaurants,Steak and chop restaurants,Vegetarian restaurants,Bars Clubs,Bars Pubs,Brew Pubs,Liquor Stores,Take Out Restaurants,Bars & Clubs,Caterers,Bars & Pubs,Pizza Place, Brewery, and American Restaurant,Bars,Restaurant,Bar & Grills,Family Style Restaurants,Pizza Place, Brewery, and American Restaurant Wisconsin Dells",Wisconsin Dells,US,us/wi/wisconsindells/110wisconsindellspkwys/145558421,43.5888,-89.7918,Moosejaw Pizza & Dells Brewing Co,53965,WI,dellsmoosejaw,http://moosejawbrewpub.com
AVwc70H0_7pvs4fz0hsh,1941 W Galena Blvd,"Bar and Grills,Bars,Sports Bars,Pubs,Bars & Pubs,Restaurant, Pub, and Brewery,Taverns,Bar & Grill Restaurants,Restaurant",Aurora,US,us/il/aurora/1941wgalenablvd/564469031,41.764565,-88.36441,Brody's Irish Pub,60506-4305,IL,brodysirishpub,http://brodysirishpub.com
AVwc71M2IN2L1WUfqfxy,4816 NE Thurston Way,"Wine Shop,Liquor Store,Smoke Shop,Liquor Stores,Wine,Beer and Ale,Wine Shop, Liquor Store, and Brewery,Wine Shop, Liquor Store, and Brewery North Sifton - Orchards,Beer & Ale",Vancouver,US,us/wa/vancouver/4816nethurstonway/-1152707038,45.65761,-122.58897,Total Wine & More,98662,WA,totalwine,"http://www.totalwine.com/store-info/washington-vancouver/1404?cid=referral:YEXT::SERP_website_link:1404_vancouver_store_page:,http://www.totalwine.com/store-info/washington-vancouver/1404"
AVwc735V_7pvs4fz0iUf,730 S Rampart Blvd,"Wine Shop,Liquor Store,Smoke Shop,Wine Stores,Liquor Stores,Cigarettes Tobacco,Breweries,Brewery,Beer & Ale Distributors,Wine & Distilled Beverages Retail,Beer & Ale Retail,Wine Shop, Liquor Store, and Brewery Summerlin",Las Vegas,US,us/nv/lasvegas/730srampartblvd/-1152707038,36.1631,-115.2885,Total Wine & More,89145,NV,totalwine,"http://www.totalwine.com/store-info/nevada-las-vegas-summerlin/1201?cid=referral:YEXT::SERP_website_link:1201_summerlin_store_page:,http://www.totalwine.com,http://totalwine.com"
AVwc73WEkufWRAb50lqC,4236 S Lamar Blvd,"Pizza Place,Brewery,Pizza Place and Brewery Barton Hills,Restaurant",Austin,US,us/tx/austin/4236slamarblvd/-498501593,30.236082,-97.795906,Pinthouse Pizza,78704,TX,pinthouselamar,http://pinthousepizza.com
AVwc7A-1kufWRAb50c7v,7474 Towne Center Pkwy,"Brewery,American Restaurant,Restaurant,Brewery and American Restaurant",Papillion,US,us/ne/papillion/7474townecenterpkwy/-339748756,41.13448407,-96.02715969,Nebraska Brewing Company,68046,NE,nebrewingco,http://www.nebraskabrewingco.com/
AVwc7amKIN2L1WUfqbeE,1355 Market St,"French Restaurant,Brewery,Restaurant",San Francisco,US,us/ca/sanfrancisco/1355marketst/498585019,37.776778,-122.41688,Bon March√© Brasserie & Bar,94103,CA,bonmarchesf,"http://www.bonmarche-sf.com/,http://bonmarche-sf.com"
AVwc7B8r_7pvs4fz0Zm_,4 Alsan Way,"Brew Pubs,Restaurants,Beer and Ale,Brewers,Brewery,Restaurant,Beer & Ale",Little Ferry,US,us/nj/littleferry/4alsanway/-2126984970,40.85639,-74.0431,Brix City Brewing,7643,NJ,brxcitybrewing,http://brixcitybrewing.com
AVwc7CgNByjofQCxjqLU,1813 NE 2nd Ave,"Brewery,Restaurant",Portland,US,us/or/portland/1813ne2ndave/-1940672445,45.53599,-122.66411,Reverend Nat's Hard Cider,97212,OR,revnatscider,http://reverendnatshardcider.com
AVwc7dfPByjofQCxjutb,3550 S General Bruce Dr,"American Restaurant,Pizza Place,Brewery,Sandwich Place,Liquor Store,American Restaurant, Pizza Place, and Brewery,Restaurant",Temple,US,us/tx/temple/3550sgeneralbrucedr/554746294,31.09187671,-97.38579597,Bj's Restaurant and Brewhouse,76504,TX,subway,http://subway.com
AVwc7fUDByjofQCxju_S,1502 Froom Ranch Way,"Liquor Store,Wine Shop,Liquor Stores,Food Stores,Wine Stores,Breweries,Liquor Store and Wine Shop",San Luis Obispo,US,us/ca/sanluisobispo/1502froomranchway/93630837,35.2524,-120.6878,BevMo!,93405,CA,bevmo,http://bevmo.com
AVwc7LxxIN2L1WUfqY11,9832 14th Ave SW,Brewery,Seattle,US,us/wa/seattle/983214thavesw/1455045653,47.51445567,-122.3526385,Big Al Brewing,98106,WA,big_al_brewing,http://bigalbrewing.com
AVwc7mpFkufWRAb50jFL,242 Ofarrell St,"American Restaurant,Cocktail Bar,Brewery,Restaurant,Modern,American Restaurant, Cocktail Bar, and Brewery",San Francisco,US,us/ca/sanfrancisco/242ofarrellst/-759590093,37.786354,-122.40912,Bartlett Hall,94102,CA,bartletthallsf,"http://bartletthall.com/,http://www.bartletthallsf.com/,http://bartletthall.com"
AVwc7oTFkufWRAb50jXV,8125 Michigan Ave,"Brewery,Liquor Stores,Craft Supplies,Breweries,Wineries,Art Supplies",Saint Louis,US,us/mo/saintlouis/8125michiganave/258859687,38.545544,-90.26534,Perennial Artisan Ales,63111,MO,perennialbeer,http://perennialbeer.com
AVwc7p5UByjofQCxjwv4,6611 W Newberry Rd,"American Restaurant,Pizza Place,Brewery,Breweries and brew pubs,Carry-out food,Karaoke,Pizza,Restaurants,Bar and grill restaurants,Dinner theatre restaurants,Pub restaurants,Bars Clubs,Bars Pubs,Pubs,Brew Pubs,American Restaurant, Pizza Place, and Brewery",Gainesville,US,us/fl/gainesville/6611wnewberryrd/554746294,29.6596,-82.4135,BJ's Restaurant and Brewhouse,32605,FL,bjsrestaurants,http://t.co/bl46gcjDLN
AVwc7SqE_7pvs4fz0cWH,20 W Beauregard Ave,"American Restaurant,Brewery, American Restaurant, and Gastropub,Gastropub,Brewery",San Angelo,US,us/tx/sanangelo/20wbeauregardave/-521998716,31.46244547,-100.4376887,Zero One Ale House,76903,TX,zeroonealehouse,http://zeroonealehousesanangelo.com
AVwc7swtByjofQCxjxRr,4350 Seneca St,"Brewers,Brewery",Buffalo,US,us/ny/buffalo/4350senecast/-501341663,42.8324,-78.7422,Rusty Nickel Brewing,14224,NY,rustynickelbrew,http://www.rustynickelbrewing.com
AVwc7UIgByjofQCxjtDK,9350 N Central Expy,"Liquor Store,Breweries,Brewery,Beer & Ale Distributors,Wine Shop,Wine & Distilled Beverages Retail,Liquor Stores,Beer & Ale Retail,Wine Shop, Liquor Store, and Brewery",Dallas,US,us/tx/dallas/9350ncentralexpy/-1152707038,32.875763,-96.769597,Total Wine & More,75231,TX,totalwine,http://www.totalwine.com
AVwc7umMkufWRAb50kWd,100 E 14th St,"American Restaurant,Brewery,Restaurants,Pubs,Bars & Pubs,Breweries,Bar & Grill Restaurants",Kansas City,US,us/mo/kansascity/100e14thst/-1268123268,39.097344,-94.58298,Gordon Biersch Brewery Restaurant,64106,MO,gordon_biersch,http://gordonbiersch.com
AVwc7V7Q_7pvs4fz0c5Y,1805 Laskin Rd,"Brewery,Brewers,Breweries",Virginia Beach,US,us/va/virginiabeach/1805laskinrd/-390288329,36.8494,-76.0283,Wasserhund Brewing Company,23454,VA,wasserhundbrew,http://www.wasserhundbrewing.com
AVwc7voWkufWRAb50keq,4550 S Reservoir Rd,"Restaurant,Brewers,Brewery,Brew Pubs,Beer & Ale,Taverns,Bars,Restaurants",Aurora,US,us/co/aurora/4550sreservoirrd/-1060961138,39.635204,-104.75914,Two22 Brew,80015,CO,two22brew,http://www.two22brew.com
AVwc7weHIN2L1WUfqfBO,930 S E Oak St,"Brewery,Pizza Place Buckman",Portland,US,us/or/portland/930seoakst/-66718653,45.5199111,-122.6564392,Pizza Box,97214,OR,basecampbrewing,http://basecampbrewingco.com
AVwc7wkBByjofQCxjx0s,142 W Commercial St.,Brewery,Winchester,US,us/va/winchester/142wcommercialst/26618133,39.19538,-78.16305,Escutcheon Brewing Co.,22601,VA,escutcheonbrew,http://www.escutcheonbrewing.com
AVwc7Xw9_7pvs4fz0dPV,611 Charlotte St,Brewery,Punta Gorda,US,us/fl/puntagorda/611charlottest/1689784745,26.942034,-82.02922,Fat Point Brewing,33950,FL,fatpointbrewing,http://fatpoint.com
AVwc7YorByjofQCxjt25,4542 30th St,Brewery,San Diego,US,us/ca/sandiego/454230thst/1262678981,32.75998009,-117.1302984,Fall Brewing Co.,92116,CA,fallbrewing,http://fallbrewing.com
AVwc7yZBkufWRAb50k22,39603 Traditions Dr,"Karaoke,Restaurants,Czechoslovakian restaurants,Pub restaurants,American Restaurant,Brewery,Restaurant,Pubs,Bars & Pubs,Breweries,Bar & Grill Restaurants",Northville,US,us/mi/northville/39603traditionsdr/1241605439,42.423885,-83.43549,Granite City Food & Brewery,48168,MI,gcfb,http://www.gcfb.com
AVwc7-zAByjofQCxj0NV,2117 NE Oregon St,"Brewery,Bars & Clubs,Food & Drink,Nightlife,Breweries,Brewery Kerns",Portland,US,us/or/portland/2117neoregonst/-147402525,45.52894,-122.64396,Culmination Brewing,97232,OR,culminationbrew,http://culminationbrewing.com
AVwc8Bz__7pvs4fz0kAr,114 E Main St,"Brew Pubs,Bars,Beer and Ale,Taverns,Restaurants,Brewery,Pub,American Restaurant",Waunakee,US,us/wi/waunakee/114emainst/1120948851,43.19179,-89.45434,The Lone Girl Brewing Company,53597,WI,lonegirlbrewing,"http://www.thelonegirl.com,http://www.lonegirlbrewerywaunakeewi.com"
AVwc8CIxIN2L1WUfqiEg,820 County Road 42 W,"Wine Shop,Liquor Store,Smoke Shop,Liquor Stores,Wine,Beer and Ale,Breweries,Brewery,Beer & Ale Distributors,Wine & Distilled Beverages Retail,Beer & Ale Retail",Burnsville,US,us/mn/burnsville/820countyroad42w/-1152707038,44.74665,-93.28977,Total Wine & More,55337,MN,totalwine,"http://www.totalwine.com/store-info/minnesota-burnsville/1603?cid=referral:YEXT::SERP_website_link:1603_burnsville_store_page:,http://www.totalwine.com"
AVwc8CwXkufWRAb50nqJ,440 E Mccullough Drive 100,"wine shop,Wine Shop, Liquor Store, and Brewery,Gift Shop,Breweries,Brewery,Beer & Ale Distributors,Wine & Distilled Beverages Retail,Liquor Stores,Beer & Ale Retail",Charlotte,US,us/nc/charlotte/440emcculloughdrive100/-1152707038,35.302614,-80.748495,Total Wine & More,28262,NC,totalwine,http://www.totalwine.com
AVwc8hwXByjofQCxj6Be,1801 W Foster Ave,"Breweries,Brewery",Chicago,US,us/il/chicago/1801wfosterave/-429038028,41.975968,-87.675137,Empirical Brewery,60640,IL,empiricalbrew,http://empiricalbrewery.com
AVwc8i6t_7pvs4fz0pQl,204 Saint Helens Ave,"Brewery, Pub, and Event Space Downtown Tacoma,Pub,Brewery,Event Space,Brewery, Pub, and Event Space",Tacoma,US,us/wa/tacoma/204sainthelensave/-1320341045,47.26204115,-122.4458349,Harmon Tap Room,98402,WA,harmontaproomwa,http://harmontaproom-hub.com
AVwc8ibnkufWRAb50sk7,249 Ponce de Leon Ave NE,"Brewery,Beer Bar,American Restaurant,restaurant",Atlanta,US,us/ga/atlanta/249poncedeleonavene/-443882197,33.772327,-84.37923,Torched Hop Brewing Company,30308,GA,torched_hop,http://www.torchedhopbrewing.com/
AVwc8JVfkufWRAb50oqy,4543 N Rancho Dr,"Brewery,Restaurant,Casinos,Bars Pubs,Brew Pubs,Restaurants",Las Vegas,US,us/nv/lasvegas/4543nranchodr/-589147882,36.24262,-115.235886,Big Dog's Draft House,89130,NV,bigdogsbrewing,http://bigdogsbrews.com
AVwc8kE1IN2L1WUfqnnc,8761 Vineland Ave,"American Restaurant,Pizza Place,Brewery,American Restaurant, Pizza Place, and Brewery",Orlando,US,us/fl/orlando/8761vinelandave/554746294,28.37549264,-81.50220168,BJ's Restaurant and Brewhouse,32821,FL,bjsrestaurants,http://t.co/bl46gcjDLN
AVwc8Lk-_7pvs4fz0lnt,3663 Las Vegas Blvd S,"Brewery,Brewery and Bar,Bar,nightlife,Bars & Grills",Las Vegas,US,us/nv/lasvegas/3663lasvegasblvds/-1339592707,36.1088524,-115.1696777,Sin City Brewing Co.,89109,NV,sincitybeer,"http://sincitybeer.com,http://www.sincitybeer.com/"
AVwc8QXOByjofQCxj3IP,531 Silverthorne Ln,"Breweries and brew pubs,Restaurants,American restaurants,Pub restaurants,Restaurant",Silverthorne,US,us/co/silverthorne/531silverthorneln/-1910824432,39.629753,-106.06746,The Bakers' Brewery LLC,80497,CO,bakersbrewpub,http://thebakersbrewery.com
AVwc8uyy_7pvs4fz0rP_,1411 NW Flanders St,"Brewery,Pub,Brewers,Restaurant",Portland,US,us/or/portland/1411nwflandersst/906631547,45.5259,-122.6856,10 Barrel Brewing,97209,OR,10barrelbrewing,http://10barrel.com
AVwc8zWdkufWRAb50vP7,501 W Sixth St,Brewery,Lexington,US,us/ky/lexington/501wsixthst/-1870363868,38.0594455,-84.49198723,West Sixth Brewing Company,40508,KY,westsixth,http://westsixth.com
AVwc9_NYIN2L1WUfq2JP,8938 Krum Ave,"Brewers,Brewery,Breweries,Food & Drink,Bars,Brew Pubs,Restaurants,Beer & Ale,Bar & Grills,Taverns",Galesburg,US,us/mi/galesburg/8938krumave/-22046886,42.2843,-85.4539,Bell's Brewery Inc,49053,MI,bellsbrewery,http://www.bellsbeer.com
AVwc96LH_7pvs4fz02-C,18545 N Allied Way,"Brewery,American Restaurant,American Restaurant and Brewery",Phoenix,US,us/az/phoenix/18545nalliedway/-1268123268,33.65442339,-111.9290972,Gordon Biersch Brewery Restaurant,85054,AZ,gordon_biersch,http://gordonbiersch.com
AVwc9ADYByjofQCxj-1h,64 Hobbs St,"Business Consultants,Brewers,Wineries,Tourist Attractions,Brewery",Conway,US,us/nh/conway/64hobbsst/-2076361060,43.9752,-71.1296,Tuckerman Brewing Co,3818,NH,tuckermanbrews,"http://www.tuckermanbrewing.com,http://api.citygridmedia.com/content/places/v2/click?q=9YKflVKbY9NauPJdMy0B1gS1IhB4xv4EWw0zDoT-UWc_izWF3zs5PKGdfOHubWrvM0QwDCYwbOH2fdLi0dK5xArULcksCCbfR-WWAz9xD1AmGVAQZIom4U3n5R4DuRC8WJCtvJcNItEKoCSfzwapuGnmwGnHDpEGYXGjnN4u8zXqkiimSHFf4_dbqGRbVgNJK4huWG_sIu4NNmnSCUNMEksTnjLA8p5Uqu9qp6xknIF681N4ZTSZggeR0OoNSQhMRcZb3UOPapGilCcM2YeUvwVxIpZZ8abL7EsHhr8pN2nHGG0ji4M-CR3K-NFFU7keS-LPctbL3QJtf_oTty8Z_f7JysYnnHTqrxF349ZX92JgOulZLA6HW6m2caUsiNVYs-bdFhaaFxLMA9W_pNIu9n7leHoWocDXJBlMI8UkAtPCyJbWQUSH_VjxPjIEfiP8iz_ZyEJGeTvCDH-Bey6S_wwEnHELKtKqo3KyRWbnH1NmLjz3XuYlElvUWQ22i1WuNIQlvCgHTVAqkjc6ozcYcWvoyX8rhgxEvdWUneCv5_Y&placement=listing_profile&cs_user=unknown&cs_session=060c87a99bdf6bfdf1683e5df91c56720620a9df"
AVwc9FYTByjofQCxj_qV,1241 Linda Vista Dr.,"Attraction,Bars,Clubs and Nightlife,Brewery,Distillery,Brewery and Distillery",San Marcos,US,us/ca/sanmarcos/1241lindavistadr/-7643888,33.137132,-117.193487,Dos Desperados Brewery,92078,CA,dosdesperados,"http://www.dosdesperadosbrew.com/,http://www.dosdesperadosbrew.com"
AVwc9i0dIN2L1WUfqxqb,1041 Broadway,"Bars Clubs,Bars Pubs,Pubs,Taverns,Restaurants,Brew Pubs,Restaurant,Pub,Brewery,American Restaurant,Pub, Brewery, and American Restaurant",Columbus,US,us/ga/columbus/1041broadway/229521182,32.4664,-84.9935,Cannon Brew Pub,31901,GA,cannonbrewpub,http://thecannonbrewpub.com
AVwc9J7VIN2L1WUfqtkA,426 Baxter Ave,"Restaurant,Brewery",Louisville,US,us/ky/louisville/426baxterave/141692202,38.24821076,-85.73074981,The Brewery,40204,KY,thebrewery,http://www.brewerylouisville.com
AVwc9JIxByjofQCxkAM8,4765 NE Fremont St,"Brewery,Distillery,Restaurants,Bars Clubs,Bars Pubs,Brew Pubs,Neighborhood Bars,Bars,American Restaurants,Beer & Ale,Family Style Restaurants,Taverns",Portland,US,us/or/portland/4765nefremontst/-97169133,45.5485,-122.6136,Alameda Brewhouse,97213,OR,alamedabrewing,http://www.alamedabrewing.com
AVwc9JuKkufWRAb50yao,6123 Lower York Rd,"Winery,Wine Bar,Wineries,Vineyards,Brewers,Wine & Distilled Beverages Retail",New Hope,US,us/pa/newhope/6123loweryorkrd/1704532460,40.350922,-75.012533,New Hope Winery,18938,PA,newhopewinery,http://www.newhopewinery.com
AVwc9k4T_7pvs4fz0zkI,1 York St,"Brewery,Brew Pubs,Restaurants,Beer & Ale,Liquor Stores",York,US,us/me/york/1yorkst/-1639381295,43.15059686,-70.66592932,Some Brewing Company,3909,ME,somebrewing,http://www.somebrewingco.com
AVwc9LOVIN2L1WUfqtzm,2101 N Ursula St,Brewery,Aurora,US,us/co/aurora/2101nursulast/-387088586,39.74794063,-104.8372883,Ursula Brewery,80045,CO,ursulabrewery,"http://codabrewing.com,http://ursulabrewery.com"
AVwc9mRIIN2L1WUfqyRc,1265 Boston Ave,"Brewers,Wineries,Beer Homebrewing Equipment & Supplies,Breweries,Beer & Ale,Liquor Stores",Longmont,US,us/co/longmont/1265bostonave/-397363734,40.1586,-105.1155,Left Hand Brewing Co,80501,CO,lefthandbrewing,http://www.lefthandbrewing.com
AVwc9OII_7pvs4fz0vyh,812 Hamilton St,"Brewery,Bar,Restaurant,Brewery, Bar, and Restaurant",Allentown,US,us/pa/allentown/812hamiltonst/56035519,40.6013926,-75.47421813,Fegley's Allentown Brew Works,18101,PA,thebrewworks,http://thebrewworks.com
AVwc-9qKByjofQCxkSmj,62 S Erie Ave,Brewery,Montauk,US,us/ny/montauk/62serieave/1288088940,41.03671015,-71.94402705,Montauk Brewing Company,11954,NY,montauk_brewing,http://www.montaukbrewingco.com
AVwc9QVXkufWRAb50zfF,114 E Washington St,"Restaurants,Bars Clubs,Brew Pubs,Brewery,Bar,Gastropub,Bars & Clubs,Restaurant,Brewery, Bar, and Gastropub Downtown Ann Arbor,Brewery, Bar, and Gastropub,Nightlife",Ann Arbor,US,us/mi/annarbor/114ewashingtonst/32377297,42.28045,-83.74769,Arbor Brewing Company,48104-1905,MI,arborbrew,http://arborbrewing.com
AVwc9RQ3kufWRAb50zp2,2601 E 2nd Ave,"Brewery,Bar",Tampa,US,us/fl/tampa/2601e2ndave/-561311226,27.95607195,-82.43028689,Coppertail Brewing Company,33605,FL,coppertail,http://coppertailbrewing.com
AVwc9yo1_7pvs4fz01np,504 N Broadway Ave,"Brew Pubs,Beer and Ale,Liquor Stores,Restaurants,Brewers,Wineries,Beer & Ale",Bozeman,US,us/mt/bozeman/504nbroadwayave/398968703,45.684788,-111.024,Bozeman Brewing Company,59715,MT,bozemanbrewing,"http://bozemanbrewing.com,http://api.citygridmedia.com/content/places/v2/click?q=9YKflVKbY9NauPJdMy0B1gS1IhB4xv4EWw0zDoT-UWc_izWF3zs5PKGdfOHubWrvM0QwDCYwbOH2fdLi0dK5xArULcksCCbfR-WWAz9xD1AmGVAQZIom4U3n5R4DuRC8WJCtvJcNItEKoCSfzwapuGnmwGnHDpEGYXGjnN4u8zXqkiimSHFf4_dbqGRbVgNJK4huWG_sIu4NNmnSCUNMEksTnjLA8p5UCbJWBPwsTSO1UN5S00xLu4u1YSC9Fl2VmkiVsfNP0soShvJtcGJ03H0JACrKrzz7MDGMBZ8zlKhjFcgOXXm6eoyR7852jE5FkyEg7nmiKqUngpadnnQI13KAjz6CbXQx_VlW5SqZm2UKttfu94dmAITg0Iytp10qPKTHBiul4heVATXDQpN1XxV5zMI6nGHSNBo5W8h0h-FCUicJhB6KpJagPXtEddZPwDAx0QGp5TeZl37CNfrAkNnJPEJOhYcPfIk62kx22WCeyt2T1LDqJZ0YB50NUK7K4npt5sjerTk0rcw1JARxp5wjTgWGTR2MvPE6NsDJdgM&placement=listing_profile&cs_user=unknown&cs_session=5e5d469a9bcfb506c186974799eff474b0fd0f31"
AVwc-b6jIN2L1WUfq6bS,1802 Telegraph Ave,"Brewery,Bar,Beer Garden,Breweries and brew pubs,Restaurants,Brewers,Brewery, Bar, and Beer Garden",Oakland,US,us/ca/oakland/1802telegraphave/1162767827,37.80769756,-122.2697725,Diving Dog Brewhouse,94612,CA,divingdogbrew,http://divingdogbrew.com
AVwce_nR_7pvs4fzvjtL,5859 Lone Tree Way,"Liquor Stores,Food Stores,Breweries,Wine Stores,Beer & Ale,Wine,Liquor Store, Wine Shop, and Speakeasy",Antioch,US,us/ca/antioch/5859lonetreeway/93630837,37.96173,-121.73561,Bevmo,94531,CA,bevmo,"http://www.bevmo.com,http://bevmo.com"
AVwce5FskufWRAb5vnQ5,206 W Pratt St,"Brewery,Pub,Gastropub,Restaurants,Taverns,Bars Clubs,Bars Pubs,Brew Pubs,Restaurant",Baltimore,US,us/md/baltimore/206wprattst/-1502601752,39.2866,-76.618154,Pratt Street Ale House,21201,MD,PrattStAleHouse,http://www.prattstreetalehouse.com
AVwce5lBkufWRAb5vnXw,270 Lorton Ave,"Restaurants,Bars & Clubs,Bars & Pubs,Brewers,Bars Clubs,Bars Pubs,Wineries,Taverns",Burlingame,US,us/ca/burlingame/270lortonave/469683419,37.579006,-122.345822,Nectar Wine Lounge (reported Closed),94010,CA,sfsoupco,http://sfsoupco.com
AVwce5Z5ByjofQCxeuWB,1201 1st Ave S,"Brewery,Beer Garden,Distillery,Beer Garden and Brewery,Brewery, Beer Garden, and Distillery",Seattle,US,us/wa/seattle/12011staves/342913814,47.59157826,-122.3343515,Pyramid Alehouse,98134,WA,pyramidsea,http://pyramidbrew.com/alehouses/seattle
AVwce705IN2L1WUflbz2,1520 Harvey Rd,"Restaurants,Bars Clubs,Bars Pubs,Pubs,Brew Pubs,American Restaurant,Pizza Place,Brewery,Breweries and brew pubs,Carry-out food,Pizza,Bar and grill restaurants,Pub restaurants,Restaurant,American Restaurant, Pizza Place, and Brewery Wolf Pen Creek District,American Restaurant, Pizza Place, and Brewery",College Station,US,us/tx/collegestation/1520harveyrd/554746294,30.6278,-96.3043,BJ'S Restaurant & Brewhouse,77840,TX,bjsrestaurants,http://t.co/bl46gcjDLN
AVwce8pdkufWRAb5voAH,1505 Hawthorne Blvd,"Liquor Stores,Wine,Beer and Ale,Wine Shop,Liquor Store,Smoke Shop,Breweries,Brewery,Beer & Ale Distributors,Wine & Distilled Beverages Retail,Beer & Ale Retail",Redondo Beach,US,us/ca/redondobeach/1505hawthorneblvd/-1152707038,33.86776,-118.35284,Total Wine More,90278,CA,totalwine,"http://www.totalwine.com/store-info/california-redondo-beach/1106?cid=referral:YEXT::SERP_website_link:1106_redondo_beach_store_page:,http://www.totalwine.com"
AVwcevfcByjofQCxesvG,3060 Howard Ave,"Brewery,American Restaurant,Brewery and American Restaurant,Breweries",Myrtle Beach,US,us/sc/myrtlebeach/3060howardave/-322444853,33.6686265,-78.93937318,Gordon Biersch,29577,SC,gbmbsc,http://gordonbiersch.com
AVwc-EVhByjofQCxkJo5,50 SW Division St,"Beer and Ale,Restaurant,Brewery",Bend,US,us/or/bend/50swdivisionst/1727778787,44.05054,-121.30782,Crux Fermentation Project,97702,OR,cruxbrew,http://www.cruxfermentation.com
AVwcew7mByjofQCxes8T,2224 E Williams Field Rd,"Liquor Stores,Wine,Beer and Ale,Wine Shop, Liquor Store, and Brewery,Liquor Store,Brewery,Breweries,Wine Shop,Beer & Ale Distributors,Wine & Distilled Beverages Retail,Beer & Ale Retail",Gilbert,US,us/az/gilbert/2224ewilliamsfieldrd/-1152707038,33.30696,-111.74324,Total Wine More,85295,AZ,totalwine,"http://www.totalwine.com/store-info/arizona-gilbert/1005?cid=referral:YEXT::SERP_website_link:1005_gilbert_store_page:,http://totalwine.com,http://www.totalwine.com"
AVwcex-oByjofQCxetHL,1515 Bethlehem Pike,"Liquor Store,Miscellaneous Shop,Brewery,Liquor Store, Miscellaneous Shop, and Brewery",Hatfield,US,us/pa/hatfield/1515bethlehempike/-438839320,40.29092518,-75.26610413,PA Wine & Spirits,19440,PA,pawinespirits,http://finewineandgoodspirits.com
AVwcezM2IN2L1WUflaT7,7424 SW Beaverton Hillsdale Hwy,"Brewery,Beer Garden,American Restaurant,Brewery, Beer Garden, and American Restaurant,Restaurant",Portland,US,us/or/portland/7424swbeavertonhillsdalehwy/-965267237,45.48562,-122.75399,Raccoon Lodge & Brew Pub,97225-2149,OR,cascadebrewing,http://raclodge.com
AVwcf1_GByjofQCxe5GK,1284 Mcd Dr,"Food & Drink,Brewery,Breweries",Dover,US,us/de/dover/1284mcddr/-1363814009,39.154007,-75.48836,Fordham Brewing Co.,19901,DE,fordhambrewing,http://fordhambrewing.com
AVwcf4lrIN2L1WUflmmX,14300 NE 145th St,"Brewery,Factory,bar drinks",Woodinville,US,us/wa/woodinville/14300ne145thst/-707359370,47.7329,-122.1499,Redhook Brewery,98072,WA,redhook_brewery,"http://redhook.com,http://www.redhook.com/"
AVwcf4V0kufWRAb5vzYT,10403 156th St E,"Restaurants,American Restaurant, Brewery, and Bar,American Restaurant,Brewery,Bar",Puyallup,US,us/wa/puyallup/10403156thste/-144516369,47.115047,-122.290318,Ram Restaurant & Brewery,98374,WA,theram,http://theram.com
AVwcf5khkufWRAb5vzma,700 N Johnson Ave,"retail,Beer Homebrewing Equipment & Supplies,Winemaking Equipment & Supplies,Brewer Equipment Supplies & Services,Bars And Lounges",El Cajon,US,us/ca/elcajon/700njohnsonave/-1469030508,32.804488,-116.971242,All About Brewing,92020,CA,casualmalexl,http://www.allaboutbrewing.com
AVwcf8C5kufWRAb5v0EK,4707 E Shea Blvd,"Grocery Stores,Supermarkets and Super Stores,Pharmacies,Gas Stations,Grocery Store,Supermarket,Cheese Shops,Grocery Stores & Supermarkets,Breweries,Beer & Ale Distributors,Beer & Ale Retail,Supermarket and Grocery Store",Phoenix,US,us/az/phoenix/4707esheablvd/-1529150043,33.58129,-111.97913,Fry's Marketplace,85028,AZ,frysfoodstores,https://www.frysfood.com/onlineshopping?cid=loc_66000612_other
AVwcfB8yByjofQCxewB1,705 E New Haven Ave,"Pub,Bar,American Restaurant,Breweries and brew pubs,Restaurants,American restaurants,Bar and grill restaurants,Dinner theatre restaurants,Bars Pubs,Bars Clubs,Taverns,Pub, Bar, and American Restaurant",Melbourne,US,us/fl/melbourne/705enewhavenave/1860246145,28.0784,-80.6091,Mainstreet Pub,32901,FL,mainstreetpub,http://www.mainstreetpub.cc
AVwcfBD3IN2L1WUflc0V,910 Montreal Cir,"Brewery,Brewers,Wineries,Beer Homebrewing Equipment and Supplies,Beer and Ale,Food & Drink,Brewery West Seventh,Breweries",Saint Paul,US,us/mn/saintpaul/910montrealcir/732936778,44.9143,-93.1404,Summit Brewing Company,55102,MN,summitbeer,"http://www.summitbrewing.com,http://summitbrewing.com"
AVwcfE5fkufWRAb5vpz1,107 E Parrish St,"Burger Joint,Brewery",Durham,US,us/nc/durham/107eparrishst/-1003755817,35.99553937,-78.89989499,Bull City Burger and Brewery,27701,NC,bullcityburger,http://www.bullcityburgerandbrewery.com
AVwcfeJSIN2L1WUfliQ2,850 N Congress Ave,"Liquor Stores,Wine,Beer and Ale,Wine Shop, Liquor Store, and Brewery,Wine Shop, Liquor Store, and Beer Store,Breweries,Beer & Ale Distributors,Wine & Distilled Beverages Retail,Beer & Ale Retail",Boynton Beach,US,us/fl/boyntonbeach/850ncongressave/-1152707038,26.53532,-80.09047,Total Wine More,33426,FL,totalwine,"http://www.totalwine.com/store-info/florida-boynton-beach/906?cid=referral:YEXT::SERP_website_link:906_boynton_beach_store_page:,http://totalwine.com"
AVwcfhU7ByjofQCxe1sz,638 W 4th St,"Brewery,Beer Garden,Restaurant",Winston Salem,US,us/nc/winstonsalem/638w4thst/1496787068,36.09752626,-80.25093734,Foothills Brewing,27101,NC,foothillsbeer,http://www.foothillsbrewing.com
AVwcfiLpIN2L1WUfli5n,1500 E Village Way,"Restaurant,American,Pizza,Brewery,Sports Bar,Pizza Place,Bars,American Restaurants,Restaurants,Sports Bar and Pizza Place",Orange,US,us/ca/orange/1500evillageway/-1822852207,33.827366,-117.8378,Oggi's Pizza & Brewing Co,92865,CA,oggis,"http://www.oggis.com,http://oggis.com"
AVwcfK12IN2L1WUflemI,235 Grandville Ave SW,"Brewery,Brewers,Restaurant",Grand Rapids,US,us/mi/grandrapids/235grandvilleavesw/1345319036,42.958393,-85.673706,Founders Brewing Co.,49503,MI,foundersbrewing,http://foundersbrewing.com
AVwcfq9sIN2L1WUflkWC,1960 Dry Creek Rd,"Winery,Wine Bar,Wineries,Vineyards,Brewers,Winery and Wine Bar,Wine & Distilled Beverages Retail",Healdsburg,US,us/ca/healdsburg/1960drycreekrd/-441020024,38.63925652,-122.9010508,Wilson Winery,95448,CA,wilson_winery,http://www.wilsonwinery.com
AVwcfQIokufWRAb5vr1t,1200 Clinton St,"Distillery,Cocktail Bar,Brewery,Distillery and Cocktail Bar,communications & public relations consultants",Nashville,US,us/tn/nashville/1200clintonst/691171224,36.16501,-86.79527,Corsair Artisan Distillery & Taproom,37203,TN,corsairartisan,http://www.corsairdistillery.com
AVwcfRn7IN2L1WUflf4y,200 E Grayson St,"Breweries,Food & Drink,3 days in San Antonio,Plaza,Brewery,Event Space,Brewery, Event Space, and Plaza Tobin Hill",San Antonio,US,us/tx/sanantonio/200egraysonst/-1917770204,29.443813,-98.47995,Pearl Brewery,78215,TX,pearlbrewery,http://atpearl.com
AVwcftmIkufWRAb5vxah,721 Grand Ave,"Brewery,Bar,American Restaurant,Brewers,Bars,American Restaurants,Brew Pubs,Restaurants,Beer & Ale,Bar & Grills,Taverns",San Diego,US,us/ca/sandiego/721grandave/1210700864,32.79425,-117.25526,Pacific Beach AleHouse,92109,CA,pb_alehouse,http://www.pbalehouse.com
AVwcfV3NIN2L1WUflgtm,2667 Kirkwood Hwy,"Brewery,Pizza Place,Brewery and Pizza Place,Pizza,Bar & Grills,Italian Restaurants,Take Out Restaurants,Caterers,Restaurants",Newark,US,us/de/newark/2667kirkwoodhwy/1630331275,39.707405,-75.6842,Argilla Brewing Company,19711,DE,argillabrew,http://www.argillabrewing.com
AVwcfXgjkufWRAb5vtWE,5510 E Broadway Blvd,"American Restaurant,Pizza Place,Brewery,Breweries and brew pubs,Carry-out food,Karaoke,Pizza,Restaurants,American restaurants,Bar and grill restaurants,Pub restaurants,Bars Clubs,Bars Pubs,Pubs,Brew Pubs,American Restaurant, Pizza Place, and Brewery,Restaurant",Tucson,US,us/az/tucson/5510ebroadwayblvd/554746294,32.2214,-110.8746,BJ's Restaurant and Brewhouse,85711,AZ,bjsrestaurants,http://t.co/bl46gcjDLN
AVwcfXpqkufWRAb5vtX0,247 W Elkhorn Ave,"New American Restaurant,American Restaurant,Brewery",Estes Park,US,us/co/estespark/247welkhornave/2012839164,40.37633418,-105.5259991,Wapiti Colorado Pub,80517,CO,wapitipub,http://www.thewapitipub.com
AVwcfy5mByjofQCxe4h_,361 Pomeroy Ave,"Restaurant,Brewery and Bar,Brewery,Bar",Pismo Beach,US,us/ca/pismobeach/361pomeroyave/-1336240999,35.14149,-120.640594,Pismo Brewing Company,93449,CA,pismobrew,http://pismobrew.com
AVwcfzlMkufWRAb5vyX0,200 Roy St,"Sports Bar,Brewery,Restaurant,Sports Bar, Winery, and Brewery,Bars & Clubs,Winery Tours,Brew Pubs,Pubs,Restaurants,Sports Bars",Seattle,US,us/wa/seattle/200royst/144284492,47.6257,-122.35213,McMenamins Queen Anne,98109,WA,captainneon,"http://mcmenamins.com/308-mcmenamins-queen-anne-home,http://api.citygridmedia.com/content/places/v2/click?q=9YKflVKbY9NauPJdMy0B1gS1IhB4xv4EWw0zDoT-UWc_izWF3zs5PKGdfOHubWrvM0QwDCYwbOH2fdLi0dK5xArULcksCCbfR-WWAz9xD1AmGVAQZIom4U3n5R4DuRC8WJCtvJcNItEKoCSfzwapuGnmwGnHDpEGYXGjnN4u8zXqkiimSHFf4_dbqGRbVgNJ0aEpj_pqn5OX685zhNTmO2gMNT1XmQsqHI1URrH8t1N5DN7vuGGHPIs_rtwI1SwSyrnRvTfqG7YfsFQXXT8DxI3Up1d5s5tK4gYxRctgPmJ8aSi7AvLPWp7xhb6eSyXPcvbiRk4Kjt-KT-wcpq-0bBuMQpBpve8tNSwUHjpR-Nh9NI-mqqkEMJRSeJxImJgEPsgmo5lqa16QBoWIRQr0s9VIyoNaJDP8n9k3WCK4PbKM431woLCpFSa_q2qDjGk2PFl6lCsY70FPEV8l8tA-8ZWp2qEAXihDfQrDpQX5fU7ynmBtYl6oEwQ3nUdajjaudfUNpVLyuR-xA20d8gy6QCxwk3J3NHD-NGE5N34l3BtC8CTZ3j70J5sF4dCbh0f2f5RwItBHi7tD55wT_YjX_A&placement=listing_profile&cs_user=unknown&cs_session=c08fab9c27af55825ad1b2e616362f08f2cff1a8"
AVwcg3NQkufWRAb5v-W8,17300 W Bluemound Rd,"Liquor Store,Brewery,Breweries,Wine Shop,Beer & Ale Distributors,Liquor Stores,Wine & Distilled Beverages Retail,Beer & Ale Retail",Brookfield,US,us/wi/brookfield/17300wbluemoundrd/-1152707038,43.036555,-88.128037,Total Wine & More,53045,WI,totalwine,http://www.totalwine.com
AVwcg5n3ByjofQCxfEHJ,1327 S Mint St,"Breweries,Food & Drink",Charlotte,US,us/nc/charlotte/1327smintst/1795807648,35.220505,-80.85754,The Unknown Brewery,28203,NC,unknownbrewing,http://unknownbrewing.com
AVwcgba3kufWRAb5v5XU,701 Haight St,"Restaurant,Pubs,Brewery,Caf,Brewery, Caf, and Coffee Shop",San Francisco,US,us/ca/sanfrancisco/701haightst/-1802192038,37.771455,-122.433855,Black Sands Brewery,94117,CA,blacksandsbeer,http://www.blacksandsbeer.com/
AVwcgdMt_7pvs4fzv0wh,217 S Liberty St,"Brewery,Food & Drink,Breweries",Harrisonburg,US,us/va/harrisonburg/217slibertyst/493206336,38.44707325,-78.87199368,Pale Fire Brewing Co.,22801,VA,palefirebrewing,http://palefirebrewing.com
AVwcgDpAkufWRAb5v1KP,636 Massachusetts St,"Brewery,Bar,American Restaurant",Lawrence,US,us/ks/lawrence/636massachusettsst/1520064962,38.97170321,-95.23576524,Free State Brewing Company,66044,KS,freestatebeer,http://freestatebrewing.com
AVwcgdz0IN2L1WUflsiW,16 Ardmore Ave,Brewery,Ardmore,US,us/pa/ardmore/16ardmoreave/-23181243,40.00852,-75.29362,Tired Hands Brewing Company,19003,PA,tiredhandsbeer,http://tiredhands.com
AVwcgFJDByjofQCxe7aG,258 W Hamilton Ave,"Brewery,Wholesale Beer,Wholesale Ice,Wholesale Foods,Beer & Ale-Wholesale & Manufacturers,Beer & Ale,Liquor Stores,Wine",State College,US,us/pa/statecollege/258whamiltonave/952253196,40.787525,-77.857124,Beer Belly's Beverage,16801,PA,beerbellysinsc,http://www.beerbellysbeverage.com
AVwcgftlIN2L1WUfls2w,1701 W Village Pkwy,"American Restaurant,Bars & Clubs,Brew Pubs,Bars & Pubs,Restaurants,Brewery",Kansas City,US,us/ks/kansascity/1701wvillagepkwy/1241605439,39.123824,-94.825226,Granite City Food & Brewery,66111,KS,gcfb,http://www.gcfb.net
AVwcgK-F_7pvs4fzvxT9,1338 S Valentia St,"Water Filtration Equipment Retail,Home Water Filtration Equipment,Chemical Water Purification,Water Purification Services,Water Analysis Equipment & Supplies,brewery,Industrial Equipment & Supplies Dealers,Water Testing Laboratories,Testing Laboratories,Bottled & Bulk Water,Water Treatment Service Equipment & Supplies",Denver,US,us/co/denver/1338svalentiast/-2005989718,39.692422,-104.891554,Highland Water,80247,CO,copperkettleden,http://www.copperkettledenver.com/
AVwcgl19IN2L1WUflt6S,200 N. Main St.,"Hotels,Casinos,Casino,Hotel,Brewery",Las Vegas,US,us/nv/lasvegas/200nmainst/1754622967,36.174527,-115.144582,"Main Street Station Casino, Brewery & Hotel",89101,NV,bconnected,"http://www.mainstreetcasino.com/,http://www.mainstreetcasino.com"
AVwcgnQjkufWRAb5v7iP,1150 Pine St,"Brewers,Brewery,Brew Pubs,Bars,Beer & Ale,Liquor Stores,Restaurants",Louisville,US,us/co/louisville/1150pinest/626070930,39.977,-105.1292,Gravity Brewing,80027,CO,gravitybrewing,http://www.thegravitybrewing.com
AVwcgQpB_7pvs4fzvyZE,7631 Woodwind Dr,"Bars,Brew Pubs,Brewery,Beer & Ale",Huntington Beach,US,us/ca/huntingtonbeach/7631woodwinddr/-692385764,33.704205,-117.99508,Beach City Brewery,92647,CA,beachcitybrew,http://www.beachcitybrewery.com
AVwcguEcIN2L1WUflvRP,1800 Ord Way,"Brewery,Other Nightlife,Beer & Ale-Wholesale & Manufacturers,Beverages,Restaurants,Beer & Ale,Brewery and Other Nightlife",Oceanside,US,us/ca/oceanside/1800ordway/-1932569475,33.21166604,-117.2727525,Oceanside Ale Works,92056,CA,oaw_brewery,http://www.oceansidealeworks.net
AVwcguM3kufWRAb5v8tw,616 N 1st Ave,"Brewery,Beer Garden,General Entertainment,Brewery and Beer Garden,Painting Contractors",Knightdale,US,us/nc/knightdale/616n1stave/-1652349604,35.79379229,-78.47663467,Oak City Brewing,27545,NC,oakcitybrews,"http://davbar.liveonatt.com,http://oakcitybrewingcompany.com"
AVwcgyalIN2L1WUflwFK,12562 SW Main St,"Brewery,American Restaurant,Bar,Restaurant,Brewery, American Restaurant, and Bar,Brewery, American Restaurant, and Bar Downtown Tigard",Portland,US,us/or/portland/12562swmainst/574930084,45.42904102,-122.7739566,Max's Fanno Creek Brew Pub,97223,OR,fannocreekbrew,http://www.fannocreekbrewpub.com
AVwcgYbyIN2L1WUflrnI,1630 E Francis St,"Brewers,Brewery,Brew Pubs,Beer & Ale,Taverns,wholesale",Ontario,US,us/ca/ontario/1630efrancisst/884903846,34.04127,-117.61754,Chino Valley Brewery,91761,CA,chinovalleybrew,"http://chinovalleybrewery.com,http://www.chinovalleybrewery.com"
AVwch_ZWIN2L1WUfl920,1106 Town East Mall,"Restaurant,American Restaurant,Pizza Place,Brewery,American Restaurant, Pizza Place, and Brewery",Mesquite,US,us/tx/mesquite/1106towneastmall/554746294,32.809719,-96.62306,Bj's Restaurant & Brewhouse,75150,TX,bjsrestaurants,"http://www.bjsbrewhouse.com/,http://t.co/bl46gcjDLN"
AVwch8GtByjofQCxfQd7,2505 W 2nd Ave,Brewery,Denver,US,us/co/denver/2505w2ndave/-472217728,39.72079535,-105.017597,WitÔøΩÔøΩÔøΩs End Brewery,80219,CO,witsendbrewing,http://www.witsendbrewing.com
AVwcha4pByjofQCxfKBu,1004 Parkway,"Breweries and brew pubs,Pizza,Restaurants,Bar and grill restaurants,Pub restaurants,Sightseeing tours,Tourist attractions,Brewery,Bar,Rock Club,Restaurant,Brewery, Bar, and Rock Club,American Restaurants,Beer & Ale,Family Style Restaurants,Brew Pubs,Bars,Taverns,Bar & Grills",Gatlinburg,US,us/tn/gatlinburg/1004parkway/871959066,35.70754,-83.52044,Smoky Mountain Brewery,37738,TN,smokymtnbrewery,"http://smoky-mtn-brewery.com,http://www.coppercellar.com/Restaurant-SmokyMountainBrewery.html"
AVwchAgeIN2L1WUflyfc,1114 W,"Brewery Downtown Boise City,Brewers",Boise,US,us/id/boise/1114w/159035250,43.616471,-116.208927,Woodland Empire Ale Craft,83702,ID,cyclepubboise,"http://woodlandempire.com,http://api.citygridmedia.com/content/places/v2/click?q=9YKflVKbY9NauPJdMy0B1gS1IhB4xv4EWw0zDoT-UWc_izWF3zs5PKGdfOHubWrvM0QwDCYwbOH2fdLi0dK5xArULcksCCbfR-WWAz9xD1AmGVAQZIom4U3n5R4DuRC8WJCtvJcNItEKoCSfzwapuGnmwGnHDpEGYXGjnN4u8zXqkiimSHFf4_dbqGRbVgNJqPInDL-BtdCPC4uSCjjFzfE9crPHV_Pfg4dhrsW9hk1VM9ZYzIn98tDyEoBQXMlJddsI2WBB1dHfQobEy34Eb7Dl1WK4ZhVgA5PuiFo_HevKggKY5O7SaL8rFBTtPZl2h2le86JmQEzbVB3aVtbm9QCybq5_WPX4IR-nKdtzw-sYhg1-u3xL7sdHiEzF_kuIee7XzbIgUdGAytl1s7FiiblIdOZHzDaIEdFyaIaR-CiXAFg6G1DwRU55x2f_6-1OOZEdvvX8JNw5U9jgdNgN7ZIg9dUkyaPtn4kR-_wJub_O681W3eBfCBbzZ68SyiNah1Ab3NUvuBUMEYalheuS76W1EXm2jmp2bcsLWl2Mb8A&placement=listing_profile&cs_user=unknown&cs_session=e9ebd1350689c72c49ab381dfd9eaba535f15096"
AVwchaq8ByjofQCxfKAA,10633 Westminster Blvd,"Brewery,Bar,Pub",Broomfield,US,us/co/broomfield/10633westminsterblvd/998713690,39.88925351,-105.0693297,Rock Bottom Brewery,80020,CO,rockbottom,http://rockbottom.com/locations/westminster-promenade/
AVwchFFvByjofQCxfGTZ,1001 16th St,"Brewery,American Restaurant,Bar,Brewery, American Restaurant, and Bar,Brewery, American Restaurant, and Bar Central Business District",Denver,US,us/co/denver/100116thst/998713690,39.7474795,-104.994972,Rock Bottom Brewery,80265,CO,rockbottom,http://rockbottom.com/Denver-Downtown
AVwchfuW_7pvs4fzwBM7,9228 Park Meadows Dr,"Restaurant,Mexican,Brewery,Bar,Mexican Restaurant",Lone Tree,US,us/co/lonetree/9228parkmeadowsdr/1988183040,39.554344,-104.8831,Brewery Bar III,80124,CO,brewbar3,"http://brewerybars.com/,http://brewerybar3.com"
AVwchGtRkufWRAb5wBTm,507 Columbia St,"Brewery,Restaurant,Beverages,Liquor Stores,Beer and Ale-Wholesale and Manufacturers,Beer and Ale,Restaurants,Brewery Esther Short",Vancouver,US,us/wa/vancouver/507columbiast/-1274346637,45.625195,-122.67368,Loowit Brewing Company,98660,WA,loowitbrewing,"http://www.loowitbrewing.com,http://loowitbrewing.com"
AVwchiPDkufWRAb5wGd9,100 39th St,"Brewers,Brewery,Astoria Restaurants",Astoria,US,us/or/astoria/10039thst/-366858876,46.1967,-123.7973,Rogue Ales Public House,97103,OR,rogueales,http://rogue.com
AVwchkc4IN2L1WUfl478,1327 N 14th St,"Bars Pubs,Bars Clubs,Grill Restaurants,Bars,American Restaurants,Restaurants,Brewery,Bar,Bar & Grills,Taverns",Sheboygan,US,us/wi/sheboygan/1327n14thst/894317820,43.75886,-87.72299,Hops Haven,53081,WI,3sheepsbrewing,http://www.hops-haven.com
AVwchOlfIN2L1WUfl03T,7401 N LA Cholla Blvd,"Brewery,Bar,Restaurants,Bars Clubs,Bars Pubs,Brew Pubs,Taverns,Brewery and Bar,Restaurant,American Restaurants,Bars,Beer & Ale",Tucson,US,us/az/tucson/7401nlachollablvd/-1269047426,32.3405,-111.0127,Thunder Canyon Brewery,85741,AZ,azfoothillsmall,"http://www.thundercanyonbrewery.com/,http://www.localbreweries.net"
AVwchOw5ByjofQCxfH3P,Sierra Leona 720,Brewery and Restaurant,San Antonio,US,us/tx/sanantonio/sierraleona720/-1553496629,22.13076115,-101.0190167,La Legendaria,78240,TX,la_legendaria,http://lalegendaria.com
AVwchpmLIN2L1WUfl54-,2911 El Cajon Blvd,"Hobby Shop and Food Drink Shop North Park,Hobby Shop and Food Drink Shop,Beer Homebrewing Equipment & Supplies,Winemaking Equipment & Supplies,Brewer Equipment Supplies & Services",San Diego,US,us/ca/sandiego/2911elcajonblvd/1323870926,32.755108,-117.13119,The Homebrewer,92104,CA,thehomebrewersd,"http://thehomebrewersd.com,http://www.thehomebrewersd.com"
AVwchpW_IN2L1WUfl51s,2200 NE Andresen Rd,"Brew Pubs,Beer and Ale,Brewery,Beer & Ale",Vancouver,US,us/wa/vancouver/2200neandresenrd/856528383,45.63834,-122.60109,Fortside Brewing Company,98661,WA,fortsidebrewing,"http://www.fortsidebrewing.com,http://fortsidebrewing.com"
AVwchs2I_7pvs4fzwD3I,119 E Toole Ave,"Brewery,Beer Garden,Bars & Clubs,Beverages,Tours & Activities,Food & Drink,Brewery and Beer Garden,Beer & Ale,Breweries,Wineries,Wine Bars,Concerts & Shows,More,Nightlife,Brewery Tours",Tucson,US,us/az/tucson/119etooleave/-821729511,32.225517,-110.97023,Borderlands Brewing Company,85701,AZ,borderlandsbeer,http://www.borderlandsbrewing.com
AVwchSWnkufWRAb5wDUJ,1410 Locust St,"Restaurant,American,Pubs,Brewers,Wineries,Deordorant,Soap,Glue,Air Fresheners",Walnut Creek,US,us/ca/walnutcreek/1410locustst/342913814,37.89925,-122.061844,Pyramid Alehouse,94596,CA,PyramidWalnutCr,"http://www.pyramidbrew.com/,http://api.citygridmedia.com/content/places/v2/click?q=9YKflVKbY9NauPJdMy0B1gS1IhB4xv4EGQ6wFBP1R9j_yPfgIG2qmnnU3b4EFXLWYqzqH6pileJnsDBgYjhj6412OE3eqoLyrSIPEJpXfr10mUiQbRKfZCKZytUuX1ZpMEsmU-K0mL9uCZDhf-nRxkx0xcmqFX3TZTiNoK_LLFKzM4tXpEgtM6BtXv1F1DttpQ3p9Bvj7cEunAmjLk0QSxT2Eu6bYSqOoqHplmAmSGoJxePF_iGeXz_kzjWnr8LUm7FrUehys1IBJRAVg7B2DnXtxr14YYPMKXNYFkrFiUHW0gKYtGI3LLF49RCuaNuhT1fzGiEc1_qLbuS5F71BiJyw1qB5yyBj2S3wHmur2VJdgsYsVzMU8eV5p6XXGG7s0nuOWaDAyVrVBFHp7S9-UBFPbyXV3AxRcKAgZKw6j3Lou-mXl2cAsXNRs_wgiMOhNuxlhios_mOFUUh_8uK98QNb_y3WtD143eIEPUaDCyOQQ44YiNYGkYKisOBdVM9uBcFohVvUMq4E3oawv5wUKWkRbyScvuubBS9pgswsB50&placement=listing_profile.b&cs_user=unknown&cs_session=9e158be9db8b4909aa21fddb9b9c822b970db7be"
AVwchTYq_7pvs4fzv-q9,475 S Arlington Ave,"Pub,Brewery,New American Restaurant,Brew Pubs,Bars,Night Clubs,Wine Bars,American Restaurants,Beer and Ale,Taverns,Restaurants,Bars & Clubs,Breweries,Food & Drink,Nightlife,Nv\\brewery,Pub, Brewery, and New American Restaurant,Restaurant",Reno,US,us/nv/reno/475sarlingtonave/509936820,39.52055,-119.81728,The Brewer's Cabinet,89501,NV,thebrewcab,"http://www.thebrewerscabinet.com,http://thebrewerscabinet.com"
AVwchW67kufWRAb5wEJ-,9750 Indiana Pkwy,"Pub,Brewery",Munster,US,us/in/munster/9750indianapkwy/-306911696,41.53537437,-87.51645416,Three Floyds Brewery & Pub,46321,IN,3floyds,http://www.3floyds.com
AVwchZCwByjofQCxfJsD,345 Healdsburg Ave,"Brewery,American Restaurant,Burger Joint,Brewery, American Restaurant, and Burger Joint,Restaurant",Healdsburg,US,us/ca/healdsburg/345healdsburgave/1559424282,38.61107363,-122.8713542,Bear Republic Brewery,95448,CA,brbcbrew,http://bearrepublic.com
AVwci01RByjofQCxfbT6,9237 Laguna Springs Dr,"American Restaurant,Pizza Place,Brewery,Restaurants,Pubs,Bars Clubs,Bars Pubs,Brew Pubs,Restaurant,Bars & Clubs,Bars & Pubs,American Restaurant, Pizza Place, and Brewery",Elk Grove,US,us/ca/elkgrove/9237lagunaspringsdr/554746294,38.4195,-121.3969,BJ's Restaurant and Brewhouse,95758,CA,bjsrestaurants,http://t.co/bl46gcjDLN
AVwci0zFIN2L1WUfmIOZ,515 W Bay Area Blvd,"American Restaurant,Pizza Place,Brewery,Breweries and brew pubs,Carry-out food,Pizza,Restaurants,Bar and grill restaurants,Pub restaurants,Bars Clubs,Bars Pubs,Pubs,Brew Pubs,Taverns,Bars & Clubs,Bars & Pubs,American Restaurant, Pizza Place, and Brewery",Webster,US,us/tx/webster/515wbayareablvd/554746294,29.545121,-95.132374,BJ's Restaurant and Brewhouse,77598,TX,bjsrestaurants,http://t.co/bl46gcjDLN
AVwci18R_7pvs4fzwRW2,961 S High St,"Pub,Bar,Pub and Bar Brewery District,Pub and Bar",Columbus,US,us/oh/columbus/961shighst/146805848,39.94243031,-82.99705188,Gresso's Restaurant & Bar,43206,OH,gressoscbus,http://gressos.com
AVwciA_T_7pvs4fzwHlo,19201 Bear Valley Rd,"Pizza Place,Brewery,American Restaurant,Pizza,Caterers,Take Out Restaurants,Italian Restaurants,Restaurants",Apple Valley,US,us/ca/applevalley/19201bearvalleyrd/-1822852207,34.471004,-117.24479,Oggis Pizza & Brewing Co,92308,CA,oggis,http://oggis.com
AVwciATe_7pvs4fzwHcn,2244 N Doctor Martin Luther King Dr,"Fast Food Restaurants,Take Out Restaurants,Sandwich Place,Restaurants,Sandwich Shops,Sandwich Place Brewer's Hill",Milwaukee,US,us/wi/milwaukee/2244ndoctormartinlutherkingdr/-891525969,43.059647,-87.914116,Subway,53212,WI,subway,http://www.subway.com
AVwciBS-ByjofQCxfRS8,1004 S Olde Oneida St,"Gastropub,Brewery,Restaurants,Bars Clubs,Brew Pubs,Taverns,Bars & Clubs,Gastropub and Brewery",Appleton,US,us/wi/appleton/1004soldeoneidast/-9979389,44.2532,-88.4034,Stone Cellar Brewpub,54915,WI,stone_cellar,"http://stonecellarbrewpub.com,http://api.citygridmedia.com/content/places/v2/click?q=9YKflVKbY9NauPJdMy0B1gS1IhB4xv4EWw0zDoT-UWc_izWF3zs5PKGdfOHubWrvM0QwDCYwbOH2fdLi0dK5xArULcksCCbfR-WWAz9xD1AmGVAQZIom4U3n5R4DuRC8WJCtvJcNItEKoCSfzwapuGnmwGnHDpEGYXGjnN4u8zXqkiimSHFf4_dbqGRbVgNJ9Kk2SvJqKGN7lQpaGxMyC20W-XQ9cBI8yW8cziPl-T72KteP9fZC7IQedXXqwK56RoSNwsJZ1k26JuiE65E5L98Mugy-slqCLkaqrevRCYwmPSKTCYLb8eio2VP3EQCZpDcwCc9PMY7ioVIvOJvn5hOG-1jvU_XV6Qx1Ni3PaEOc4Y3tkbvbsvke_L0WQdPFCZzvQjyQKUcfWzHXwwXjG0RII34v6d1Qae5opDjPRJkAU3SyYumBSt_feJBxvQerp7DGTLDKbdZ4poB-XWeSpM1pPSlY8GCflfb-EtpYLEZrzuNGeer2KaK40pZJG6pGCWI-RtOLun-Kz1927VDLxlHC2Wp5JcCqUb5C0iuOczM&placement=listing_profile&cs_user=unknown&cs_session=db1ee6be0d445de953f1ca7ff37aba6309ba6196"
AVwciDrxIN2L1WUfl-vh,5473 Urbana Pike,"Brewery,American Restaurant,Brewery and American Restaurant",Frederick,US,us/md/frederick/5473urbanapike/406722733,39.382034,-77.39959,Barley And Hops Grill & Microbrewery,21704,MD,barleyandhop,http://www.barleyandhops.net
AVwciEfskufWRAb5wND4,7 S Mikes Pike,"Brew Pubs,Beer and Ale,Liquor Stores,Wholesale Liquor,Restaurants,Brewery, Beer Garden, and Pizza Place",Flagstaff,US,us/az/flagstaff/7smikespike/1889928192,35.19693,-111.65228,Mother Road Brewing Company,86001,AZ,motherroadbeer,"http://www.motherroadbeer.com,http://motherroadbeer.com"
AVwcieJ0kufWRAb5wRs5,1035 Sterling Ave,Brewery,Flossmoor,US,us/il/flossmoor/1035sterlingave/-346797657,41.54341748,-87.67874049,Flossmoor Station Restaurant & Brewery,60422,IL,flossmoorbrewco,http://flossmoorstation.blogspot.com
AVwciFB6_7pvs4fzwIaR,903 Parkway,"Tourist Information and Attractions,Places Of Interest,Wineries,Wineries & Vineyards,Food & Drink,Winery, Wine Bar, and Brewery",Gatlinburg,US,us/tn/gatlinburg/903parkway/57319288,35.71148,-83.51991,Bootlegger's Homemade Wine,37738,TN,bootleggerswine,http://bootleggerswine.com
AVwciGeQByjofQCxfSaO,444 W Broad St,"Brewery,American Restaurant,Bar,American Restaurants,Beer and Ale,Brew Pubs,Bar and Grills,Bars,Breakfast Brunch and Lunch Restaurants,,Night Clubs,Taverns,Restaurants,Take Out Restaurants,Beer & Ale,Breakfast Brunch & Lunch Restaurants,,Bar & Grills,Restaurant",Falls Church,US,us/va/fallschurch/444wbroadst/1067968540,38.88636,-77.17721,Mad Fox Brewing Company,22046,VA,MadFoxBrewing,"http://www.madfoxbrewing.com,http://madfoxbrewing.com/"
AVwcihicByjofQCxfXmR,4810 Hope Valley Rd,"American Restaurant,Brewers",Durham,US,us/nc/durham/4810hopevalleyrd/1523340197,35.9205,-78.9595,Hope Valley Brewing Co,27707,NC,citybeveragenc,http://www.hopevalleybrewingcompany.com
AVwcikUCByjofQCxfYJ1,600A Frazier Dr,"Brewery,American Restaurant,American Restaurants,Pizza,Italian Restaurants,Restaurants",Franklin,US,us/tn/franklin/600afrazierdr/1433376237,35.9443,-86.81992,Cool Springs Brewery,37067,TN,csbrewery,http://www.coolspringsbrewery.com
AVwcilfhByjofQCxfYX4,10320 N Scottsdale Rd,"Liquor Store,Breweries,Brewery,Beer & Ale Distributors,Wine Shop,Wine & Distilled Beverages Retail,Liquor Stores,Beer & Ale Retail,Wine Shop, Liquor Store, and Brewery",Paradise Valley,US,us/az/paradisevalley/10320nscottsdalerd/-1152707038,33.580005,-111.926293,Total Wine & More,85253,AZ,totalwine,http://www.totalwine.com
AVwcilTdIN2L1WUfmFQQ,4125 Lorain Ave,"Brewery,Beer Bar,Brewery Ohio City",Cleveland,US,us/oh/cleveland/4125lorainave/1008843851,41.47992098,-81.71400137,Platform Brewhouse,44113,OH,platformbeers,http://platformbeerco.com
AVwciOZzkufWRAb5wO_G,730 N Columbus St,"Brew Pubs,Beer and Ale,Brewers,Brewery,Food & Drink,Breweries,Beer & Ale,Liquor Stores",Spokane,US,us/wa/spokane/730ncolumbusst/1190642743,47.66405,-117.39479,Ramblin Road Craft Brewery,99202,WA,ramblinroad,http://www.ramblinroadbrewery.com
AVwciTLfkufWRAb5wP5T,2121 Arden Way,"Wine Shop,Liquor Store,Smoke Shop,Liquor Stores,Wine,Beer and Ale,Wine Stores,Cigarettes Tobacco,Gifts & Novelties,Breweries,Beer & Ale Distributors,Wine & Distilled Beverages Retail,Cigarettes & Tobacco,Beer & Ale Retail",Sacramento,US,us/ca/sacramento/2121ardenway/-1152707038,38.59629,-121.41646,Total Wine & More,95825,CA,totalwine,"http://www.totalwine.com/store-info/california-sacramento-arden/1108?cid=referral:YEXT::SERP_website_link:1108_arden_store_page:,http://totalwine.com"
AVwcivUuByjofQCxfaQ2,1025 S Perry St,"Brewery,Brewers,Brew Pubs,Restaurants,Beer & Ale,Liquor Stores",Spokane,US,us/wa/spokane/1025sperryst/-184794983,47.646243,-117.389928,Perry Street Brewing,99202,WA,perrystreetbrew,http://perrystreetbrewing.com
AVwciW88kufWRAb5wQeB,118 W 4th St,"Brewery,Brewers",Loveland,US,us/co/loveland/118w4thst/1107965317,40.3955,-105.0775,Loveland Aleworks,80537,CO,lovelandalework,http://www.lovelandaleworks.com
AVwciwJGByjofQCxfaa8,412 E 18th St,"Brewers,Brewery,shop",Kansas City,US,us/mo/kansascity/412e18thst/-182238417,39.0916,-94.5786,Double Shift Brewing Co,64108,MO,dblshiftbrewing,http://www.doubleshiftbrewing.com
AVwciwMG_7pvs4fzwQTf,3812 Grim Ave,"Brewery,Bar,Brewery and Bar North Park,Brewery and Bar,Breweries,Wineries",San Diego,US,us/ca/sandiego/3812grimave/-881375443,32.747669,-117.128426,Mike Hess Brewing,92104,CA,mhb,http://mikehessbrewing.com
AVwciz2fIN2L1WUfmIEa,11424 Washington Plz W,"Brewery,Beer & Ale,Brew Pubs",Reston,US,us/va/reston/11424washingtonplzw/-391514101,38.96795,-77.34198,Lake Anne Brew House,20190,VA,lakeannebrew,http://lakeannebrewhouse.com
AVwciZ3FIN2L1WUfmDHa,115 E 5th St,"Irish Pub,Sports Bar,Brewers,Brew Pubs,Bars,Beer and Ale,Taverns,Restaurants,Irish Pub and Sports Bar First Ward,Charlotte Restaurants,Employment Services",Charlotte,US,us/nc/charlotte/115e5thst/1618620091,35.2277,-80.8415,Connolly's On Fifth,28202,NC,connollyson5th,"http://www.connollysirishpub.com,http://connollysirishpub.com"
AVwcj12DkufWRAb5whQ9,6124 Hollywood Blvd,"Bar,Restaurant,brewery,Hollywood Los Angeles",Los Angeles,US,us/ca/losangeles/6124hollywoodblvd/419904471,34.101624,-118.32295,Blue Palms Brewhouse,90028,CA,bluepalms_brew,"http://www.bluepalmsbrewhouse.com,http://www.bluepalmsbrewhouse.com/"
AVwcjbZ4IN2L1WUfmPn6,8999 Western Way,"Brewers,Food & Drink,Breweries,Brewery Southeast Jacksonville,brewery",Jacksonville,US,us/fl/jacksonville/8999westernway/416091201,30.2012,-81.5569,Veterans United Craft Brewery,32256,FL,vubrew,http://vubrew.com
AVwcjEL4IN2L1WUfmLFm,1785 Fulton St,"Brewery,Gastropub,Attraction,Bars,Clubs and Nightlife,Pub,Restaurant,Brewery and Gastropub",San Francisco,US,us/ca/sanfrancisco/1785fultonst/-869212264,37.775757,-122.446098,Barrel Head Brewhouse,94117,CA,barrelheadsf,"http://www.barrelheadsf.com/,http://barrelheadsf.com"
AVwcjGZoIN2L1WUfmLik,706 E Main St,"Southern / Soul Food Restaurant, Cafeteria, and Brewery Downtown Durham,southern / soul food restaurant",Durham,US,us/nc/durham/706emainst/-50346998,35.99034,-78.89252,Jc's Kitchen,27701,NC,jcskitchendc,http://jcskitchens.com
AVwcj-h_ByjofQCxfpKf,1695 Platte St,"Brewery,Bars And Pubs,Beer & Ale Distributors",Denver,US,us/co/denver/1695plattest/-1554082394,39.758293,-105.007188,Denver Beer Co.,80202,CO,denverbeerco,http://denverbeerco.com
AVwcjJ7AByjofQCxffP2,2811 Walnut St,"Brewery,Bar,restaurant",Denver,US,us/co/denver/2811walnutst/482636785,39.761694,-104.98384,Stem Ciders,80205,CO,stemciders,"http://stemciders.com,http://stemciders.com/"
AVwcjJSXkufWRAb5wZYP,7960 E Kellogg Dr,"American Restaurant,Pizza Place,Brewery,Restaurants,Pubs,Bars Clubs,Bars Pubs,Brew Pubs,Bars & Clubs,Bars & Pubs,New American Restaurants,Pizza Restaurants",Wichita,US,us/ks/wichita/7960ekelloggdr/554746294,37.6797,-97.2087,BJ's Restaurant and Brewhouse,67207,KS,bjsrestaurants,http://t.co/bl46gcjDLN
AVwcjkJvIN2L1WUfmRNT,6282 W Jefferson Blvd,"American Restaurant,Breweries and brew pubs,Karaoke,Restaurants,American restaurants,Pub restaurants,Restaurant",Fort Wayne,US,us/in/fortwayne/6282wjeffersonblvd/1691070789,41.058647,-85.22204,Scotty's Brewhouse,46804,IN,brewhouse,http://scottysbrewhouse.com
AVwcjkXlkufWRAb5weVH,1398 Haight St,"Gastropub,Brewery,Gastropub and Brewery Haight Ashbury,Gastropub and Brewery",San Francisco,US,us/ca/sanfrancisco/1398haightst/442707317,37.770223,-122.445354,Magnolia Gastropub & Brewery,94117,CA,magnoliapub,http://magnoliapub.com
AVwcjoHmByjofQCxflCR,87 Santilli Hwy,"Brew Pubs,Beer and Ale,Liquor Stores,Restaurants,Brewery,Bar,Brewers,Brewery and Bar,restaurant",Everett,US,us/ma/everett/87santillihwy/2082863350,42.40498,-71.06851,Night Shift Brewing,2149,MA,nightshiftbeer,"http://www.nightshiftbrewing.com,http://www.nightshiftbrewing.com/,http://nightshiftbrewing.com"
AVwcjoLyIN2L1WUfmR9h,118 Walnut St,"Breweries and brew pubs,Restaurants,American restaurants,Bar and grill restaurants,Bars Clubs,Bars Pubs,Bar,Pub,Bars,Restaurant,Brew Pubs,Beer & Ale,Bar and Pub,Night Clubs,Bar & Grills,Taverns",Montclair,US,us/nj/montclair/118walnutst/-264065552,40.8176,-74.2118,Egan & Son's,7042,NJ,eganandsons,http://eganandsons.com
AVwcjoTOByjofQCxflEZ,237 Joseph Campau St,Brewery,Detroit,US,us/mi/detroit/237josephcampaust/564332518,42.33716188,-83.01855308,Atwater Brewery,48207,MI,atwaterbeer,http://atwaterbeer.com
AVwcjpm_IN2L1WUfmSON,4625 Millenia Plaza Way,"Liquor Stores,Wine,Beer and Ale,Wine Stores,Cigarettes Tobacco,Wine Shop,Liquor Store,Smoke Shop,Wine Shop, Liquor Store, and Brewery,Wine Shop, Liquor Store, and Beer Store Millenia,Breweries,Brewery,Beer & Ale Distributors,Wine & Distilled Beverages Retail,Beer & Ale Retail,Wine Shop, Liquor Store, and Brewery Millenia",Orlando,US,us/fl/orlando/4625milleniaplazaway/-1152707038,28.49666,-81.42882,Total Wine More,32839,FL,totalwine,"http://www.totalwine.com/store-info/florida-orlando-millenia-plaza/920?cid=referral:YEXT::SERP_website_link:920_millenia_plaza_store_page:,http://totalwine.com,http://www.totalwine.com"
AVwcjQ0DIN2L1WUfmNeF,2520 Tuscany St,"American Restaurant,Pizza Place,Brewery,Breweries and brew pubs,Carry-out food,Pizza,Restaurants,Bar and grill restaurants,Pub restaurants,Bars Clubs,Bars Pubs,Pubs,Brew Pubs,Bars & Clubs,Bars & Pubs,Restaurant",Corona,US,us/ca/corona/2520tuscanyst/554746294,33.8244,-117.5172,BJ's Restaurant and Brewhouse,92881,CA,bjsrestaurants,http://t.co/bl46gcjDLN
AVwcjQgjByjofQCxfggI,2951 Cold Spring Dr,"American Restaurant,Pizza Place,Brewery,Restaurant,Restaurants,Bars Clubs,Bars Pubs,Pubs,Brew Pubs,American Restaurant, Pizza Place, and Brewery",New Braunfels,US,us/tx/newbraunfels/2951coldspringdr/554746294,29.72967,-98.07594,BJ's Restaurant and Brewhouse,78130,TX,bjsrestaurants,http://t.co/bl46gcjDLN
AVwcjRUUkufWRAb5wa1y,105 S 2nd St,"Brewery,Pizza Place,Brewery and Pizza Place",Mount Horeb,US,us/wi/mounthoreb/105s2ndst/1444887988,43.00811841,-89.73821353,The Grumpy Troll Brew Pub and Pizzeria,53572,WI,grumpytrollbrew,http://thegrumpytroll.com
AVwcjV9T_7pvs4fzwXE6,3345 NE Broadway St,"Pizza Place,Bar,Brewery,Restaurant,Take Out Restaurants,Bars & Clubs,Bars & Pubs,Restaurants,Italian Restaurants,Pizza Place, Bar, and Brewery,Taverns,Bars,Family Style Restaurants,Pizza,Pizza Place, Bar, and Brewery Grant Park",Portland,US,us/or/portland/3345nebroadwayst/192462089,45.53537,-122.62979,Blind Onion Pizza and Pub,97232,OR,blindonionpdx,http://www.blindonion.com
AVwcjzmwIN2L1WUfmT_O,1600 38th St,"Restaurant,Breweries,Brewery,Brewery Central Boulder",Boulder,US,us/co/boulder/160038thst/1687386185,40.015041,-105.246272,Fate Brewing Company,80301,CO,fatebrewingco,"http://www.fatebrewingcompany.com/,http://fatebrewingcompany.com"
AVwcjZONIN2L1WUfmPKJ,8381 Brier Creek Pkwy,"Liquor Stores,Wine,Beer and Ale,Wine Shop, Liquor Store, and Brewery,Gifts & Novelties,Breweries,Beer & Ale Distributors,Wine & Distilled Beverages Retail,Cigarettes & Tobacco,Wine Stores,Beer & Ale Retail",Raleigh,US,us/nc/raleigh/8381briercreekpkwy/-1152707038,35.90748,-78.78551,Total Wine More,27617,NC,totalwine,"http://www.totalwine.com/store-info/north-carolina-raleigh-brier-creek/607?cid=referral:YEXT::SERP_website_link:607_brier_creek_store_page:,http://totalwine.com"
AVwck7yu_7pvs4fzwpDe,1250 Lincoln Ave,"Hotels,Brewery,American Restaurant,Wings Joint",Calistoga,US,us/ca/calistoga/1250lincolnave/-704225263,38.57666,-122.57979,Calistoga Inn Restaurant Brewery,94515,CA,napabeer,http://calistogainn.com
AVwckCbrkufWRAb5wjll,777 E Olive Ave,"Brewery,Bar,Brewers,Cable Internet",Fresno,US,us/ca/fresno/777eoliveave/226274606,36.757757,-119.802251,Sequoia Brewing Company,93728,CA,sequoiaoliveca,http://sequoiabrewingolive-hub.com
AVwckd1oByjofQCxfvGJ,103 S 11th St,"Brewery,Brewers,Breweries,Bars & Clubs,Nightlife,Food & Drink",West Des Moines,US,us/ia/westdesmoines/103s11thst/1492015089,41.568626,-93.71905,Fox Brewing,50265,IA,foxbrewco,http://foxbrewco.com
AVwckdCpkufWRAb5woMQ,1236 Light St,"Pub,Bar,Brewers,Bars & Clubs,Caterers,Restaurants,Food & Drink,Pub and Bar,Beer & Ale,Breweries,Night Clubs,Bars,Brew Pubs,Nightlife,Pub and Bar SBIC - West Federal Hill",Baltimore,US,us/md/baltimore/1236lightst/952981082,39.27518204,-76.61217116,Brewer's Cask,21230,MD,brewerscask,http://www.brewerscask.com
AVwckDfg_7pvs4fzwfN6,17530 La Cantera Pkwy,"Wine Shop, Liquor Store, and Brewery,Wine Shop, Liquor Store, and Brewery Northwest Side,Wine Shop, Liquor Store, and Beer Store Northwest Side,Breweries,Beer & Ale Distributors,Wine & Distilled Beverages Retail,Liquor Stores,Beer & Ale Retail,wine shop",San Antonio,US,us/tx/sanantonio/17530lacanterapkwy/-1152707038,29.609572,-98.595519,Total Wine and More,78257,TX,totalwine,http://totalwine.com
AVwckeR2ByjofQCxfvM5,19507 W Catawba Ave,"Brewery,Food & Drink,Breweries,Brew Pubs,Beer & Ale,Restaurants",Cornelius,US,us/nc/cornelius/19507wcatawbaave/-1888151954,35.478436,-80.89096,Bayne Brewing Company,28031,NC,baynebrew,http://www.baynebrew.com
AVwckfcwIN2L1WUfmcY2,326 N Lewis Rd,"Brew Pubs,Bars,Beer and Ale,Taverns,Brewery",Royersford,US,us/pa/royersford/326nlewisrd/731205415,40.19566,-75.5337,Stickman Brews,19468,PA,stickmanbrews,http://www.stickmanbrews.com
AVwckGkAkufWRAb5wkXl,490 Lancaster Ave,"Winemaking Equipment & Supplies,Bathroom & Kitchen Contractors,Kitchen Cabinets & Equipment Dealers,Brewer Equipment Supplies & Services,Cabinet Dealers,Building Contractors' Referral Services,Countertops & Sink Tops",Malvern,US,us/pa/malvern/490lancasterave/-207789449,40.036598,-75.563778,"Coventry Kitchens, Inc.",19355,PA,nudyscafe,http://nudyscafes.com/index.php
AVwckjeQ_7pvs4fzwk7E,1872 N Commerce St,"Brewery,Brewery, Beer Garden, and Bar Brewer's Hill,Bar,Beer Garden,Brewery, Beer Garden, and Bar",Milwaukee,US,us/wi/milwaukee/1872ncommercest/-781495824,43.05487205,-87.90517087,Lakefront Brewery,53212,WI,lakefront,"http://lakefrontbrewery.com,http://www.lakefrontbrewery.com"
AVwcklABByjofQCxfwgV,156 S Greenwood St,"Brewers,Brewery",Wichita,US,us/ks/wichita/156sgreenwoodst/-1178519506,37.6847,-97.3184,Central Standard Brewing,67211,KS,drinkcsb,http://centralstandardbrewing.com
AVwckLbnIN2L1WUfmYxd,2610 Manor Rd,"Grocery Store,Cheese Shop,Snack Place,Grocery Stores,Produce Markets,Food Stores,Breweries,Grocery Store, Cheese Shop, and Snack Place,Food Products Retail,Cheese Shops,Farmers' Markets,Grocery Stores & Supermarkets,Grocery Store, Cheese Shop, and Snack Place Upper Boggy Creek,Farm Produce",Austin,US,us/tx/austin/2610manorrd/-2103719742,30.285122,-97.714821,in.gredients,78722,TX,in_gredients,http://in.gredients.com
AVwckmxikufWRAb5wqCp,6622 E Superstition Springs Blvd,"American Restaurant,Restaurant,Brewery,Pizza Place",Mesa,US,us/az/mesa/6622esuperstitionspringsblvd/-1023406948,33.3848762,-111.6908199,Bj's Restaurant and Brewhouse - Mesa,85206,AZ,bjsrestaurants,http://t.co/bl46gcjDLN
AVwckN9jIN2L1WUfmZPz,855 E State Road 434,"Brewers,Brewery,Brew Pubs,Restaurants,Beer & Ale",Winter Springs,US,us/fl/wintersprings/855estateroad434/1920637390,28.7049,-81.281,Red Cypress Brewery LLC,32708,FL,redcypressbeer,http://www.redcypressbrewery.com
AVwcko9xByjofQCxfxM1,309 Court Ave,"Brewery,American Restaurant,Pub",Des Moines,US,us/ia/desmoines/309courtave/-758691245,41.58541709,-93.62106538,Court Avenue Restaurant & Brewing Company,50309,IA,courtavebrew,http://courtavebrew.com
AVwckrt1ByjofQCxfxom,829 S Shields St,"Bars Clubs,Brewery and Pub North Campus West,Bars & Clubs",Fort Collins,US,us/co/fortcollins/829sshieldsst/-2097003020,40.57601,-105.096046,Three Four Beer,80521,CO,threefourbeerco,http://threefourbeerco.com
AVwcl3A3IN2L1WUfms8E,3002 E Washington St,"Restaurant,Pubs,Brewery,Bar,Brew Pubs,Beer and Ale,Night Clubs,Bars,Restaurants,Brewers,Nightclub Information Services,Hot Dog Restaurants,Burger Restaurants,Brewery and Bar,Breweries",Phoenix,US,us/az/phoenix/3002ewashingtonst/-1869628129,33.44864,-112.016716,The Phoenix Ale Brewery,85034,AZ,phxalebrewery,"http://www.phoenixbrew.com/,http://www.phoenixbrew.com"
AVwcl3AT_7pvs4fzwz2e,2701 184th St S W,"Wine Shop, Liquor Store, and Beer Store,Wine Shop, Liquor Store, and Brewery,Breweries,Beer & Ale Distributors,Wine & Distilled Beverages Retail,Liquor Stores,Beer & Ale Retail,healthcare provider",Lynnwood,US,us/wa/lynnwood/2701184thstsw/-1152707038,47.831968,-122.269871,Total Wine & More,98037,WA,totalwine,http://totalwine.com
AVwcl4QiIN2L1WUfmtKH,9735 Gate Pkwy North,brewery,Jacksonville,US,us/fl/jacksonville/9735gatepkwynorth/-1554814010,30.261524,-81.553796,Seven Bridges Grille & Brewery,32246,FL,seven_bridges,http://www.7bridgesgrille.com
AVwcl5pF_7pvs4fzw0T5,1042 Haywood Rd,Brewery,Asheville,US,us/nc/asheville/1042haywoodrd/1954359914,35.58159263,-82.60428517,Altamont Brewery,28806,NC,altamontbrewing,http://www.altamontbrewingcompany.com
AVwcl8B_IN2L1WUfmt2P,8149 Honeygo Blvd,"American Restaurant,Bar,Gastropub,Restaurant,Brewery,Restaurants,Restaurant, Bar, and Brewery",Nottingham,US,us/md/nottingham/8149honeygoblvd/128564346,39.372063,-76.46448,Red Brick Station Restaurant & Brew Pub,21236,MD,redbrickstation,http://www.redbrickstation.com
AVwcla81ByjofQCxf6gC,4150 Mission Blvd,"restaurant,Brewery",San Diego,US,us/ca/sandiego/4150missionblvd/-677539445,32.7912903,-117.2544098,Amplified Ale Works,92109,CA,amplifiedales,"http://www.amplifiedales.com/,http://amplifiedales.com"
AVwclda_IN2L1WUfmn2T,699 120th Ave N E,"Wine Shop, Liquor Store, and Brewery Wilburton,Wine Shop, Liquor Store, and Beer Store,Wine Shop, Liquor Store, and Brewery,Wine Shop, Liquor Store, and Beer Store Wilburton,Breweries,Beer & Ale Distributors,Wine & Distilled Beverages Retail,Liquor Stores,Beer & Ale Retail",Bellevue,US,us/wa/bellevue/699120thavene/-1152707038,47.618561,-122.179574,Total Wine & More,98005,WA,totalwine,http://totalwine.com
AVwclDGq_7pvs4fzwqbF,2707 W Eisenhower Blvd,"Brewery,Restaurant",Loveland,US,us/co/loveland/2707weisenhowerblvd/982130843,40.4077239,-105.1144095,Big Beaver Brewing Co,80537,CO,bigbeaverbrew,http://bigbeaverbrew.com
AVwclDoeIN2L1WUfmjFP,56 Market St,"Gastropub,Brewery,Bar,Brewers,Business Consultants",Portsmouth,US,us/nh/portsmouth/56marketst/2146246549,43.078007,-70.757599,Portsmouth Brewery,3801,NH,portsbrew,http://portsmouthbrewery.com
AVwclDqAByjofQCxf2LX,2832 Abbeyville Rd,"Barbecue Restaurants,Restaurants,Restaurant,BBQ Joint and Brewery",Medina,US,us/oh/medina/2832abbeyvillerd/-1691322811,41.19722,-81.88717,Lagerhead's Smokehouse,44256,OH,lagerheadsbeer,http://www.lagerheads.us
AVwclGCRIN2L1WUfmjiN,150 Mason Cir,Brewery,Concord,US,us/ca/concord/150masoncir/-2069180959,38.009935,-122.038984,Epidemic Ales,94520,CA,epidemicales,http://epidemicales.com
AVwclGXF_7pvs4fzwrBL,1800 N University Dr,"Brewery,American Restaurant,Restaurants,Brew Pubs,Brewery and American Restaurant",Pompano Beach,US,us/fl/pompanobeach/1800nuniversitydr/1011521644,26.2538,-80.2541,Big Bear Brewing Co.,33071,FL,bigbearbrewing,http://bigbearbrewingco.com
AVwclHd8IN2L1WUfmjzH,1708 Campbell St,"Brewery,International Affairs",Kansas City,US,us/mo/kansascity/1708campbellst/-170533510,39.092512,-94.573292,Torn Label Brewing Company,64108,MO,tornlabelkc,http://tornlabel.com
AVwclIFZ_7pvs4fzwrSo,1710 E Douglas Ave,Brewery,Wichita,US,us/ks/wichita/1710edouglasave/390721474,37.68624845,-97.31676826,Hopping Gnome Brewing Company,67214,KS,hoppinggnome,http://www.hoppinggnome.com
AVwclJGKkufWRAb5wv9O,Planet Hollywood,"Brewery,Brewery The Strip",Las Vegas,US,us/nv/lasvegas/planethollywood/-1432468000,36.1087032,-115.1724238,Sin City Brewing Company,89109,NV,sincitybeer,http://sincitybeer.com
AVwcljRf_7pvs4fzwwCU,301 Canal St,"Beer Garden,Bar,American Restaurant,Brewery",Somerville,US,us/ma/somerville/301canalst/-1120338827,42.39387423,-71.08039825,American Fresh Brewhouse Beer Garden,2145,MA,slumbrew,http://www.slumbrew.com/Assembly_Row
AVwclkzGIN2L1WUfmpN4,1133 Lincoln Ave,"Liquor Store,Wine Bar,Wine Shop,Liquor Stores,Wine Stores,Deordorant,Soap,Glue,Air Fresheners,Breweries,General Merchandise Stores,Soft Drinks Retail,Grocery Stores & Supermarkets,Beverages Retail,Wine & Distilled Beverages Retail,Liquor Store, Wine Bar, and Wine Shop",San Jose,US,us/ca/sanjose/1133lincolnave/93630837,37.307797,-121.900794,BevMo!,95125,CA,bevmo,http://www.bevmo.com
AVwclo2wkufWRAb5w1if,16 E Route 66,"Brewery,Coffee Shop,Food,Brewery, Coffee Shop, and Food",Flagstaff,US,us/az/flagstaff/16eroute66/-734455599,35.19755788,-111.6484685,Flagstaff Brewing Company,86001,AZ,flagstaffbeer,http://flagbrew.com
AVwclob2kufWRAb5w1dT,856 E 136th St,"Brewery,Music Venue,Garden,Beverages Retail,Breweries,Wineries,Brewery, Music Venue, and Garden Port Morris,Food & Drink",Bronx,US,us/ny/bronx/856e136thst/-1692943135,40.801727,-73.910149,The Bronx Brewery,10454,NY,thebronxbrewery,http://thebronxbrewery.com
AVwcloMC_7pvs4fzww7e,2002 Pankratz St,"Brewery,Pub,Brewery and Pub",Madison,US,us/wi/madison/2002pankratzst/-1948932553,43.120481,-89.354343,Ale Asylum,53704,WI,ale_asylum,http://aleasylum.com
AVwclOVeByjofQCxf4H4,7 N 15th St,"Brewery,Bar,Brewery and Bar Greenpoint,Brewery and Bar",Brooklyn,US,us/ny/brooklyn/7n15thst/698673024,40.72495778,-73.95725727,Greenpoint Beer and Ale Company,11222,NY,greenpointbeer,"http://greenpointbeer.com,http://www.greenpointbeer.com"
AVwclpgcByjofQCxf9P6,"Concourse L, Terminal 3","Bar,Brewery,American Restaurant,Bar, Brewery, and American Restaurant",Chicago,US,us/il/chicago/concourselterminal3/-1238927047,41.97683224,-87.89725542,Goose Island Brewery Restaurant,60666,IL,hmshost,http://gooseislandbrewpubs.com
AVwclphakufWRAb5w1rv,10446 Town Center Dr,"Restaurant,American,Chain Restaurant,Breweries and brew pubs,Carry-out food,Karaoke,Pizza,Restaurants,American restaurants,Bar and grill restaurants,Pub restaurants,American Restaurant,Pizza Place,Brewery,Brew Pubs,Pubs,Bars Clubs,Bars Pubs,Bars & Pubs,Breweries,Bar & Grill Restaurants",Broomfield,US,us/co/broomfield/10446towncenterdr/554746294,39.888157,-105.074265,BJ's Restaurant and Brewhouse,80021,CO,bjsrestaurants,"http://www.bjsbrewhouse.com/,http://t.co/bl46gcjDLN"
AVwclPkPIN2L1WUfmlVU,1401 Miner St,"Bars Clubs,Bars Pubs,Restaurants,Brew Pubs,Restaurant,Wings Joint,Brewery,Burger Joint,Brewery, Wings Joint, and Burger Joint,Breweries",Idaho Springs,US,us/co/idahosprings/1401minerst/1340416534,39.7418,-105.5178,Tommyknocker Brewery & Pub,80452,CO,tkbrew,http://www.tommyknocker.com
AVwclpuK_7pvs4fzwxOy,765 Center Blvd,"Restaurant,American,Breakfast & Brunch,Brewery,Pub,Bars Clubs,Bars Pubs,Brew Pubs,Restaurants",Fairfax,US,us/ca/fairfax/765centerblvd/1874499659,37.98617,-122.58404,Iron Springs Pub & Brewery,94930,CA,ironspringspub,"http://ironspringspub.com,http://www.ironspringspub.com"
AVwcltCzIN2L1WUfmq27,419 S Main St,"Brewers,Banquet facilities,Breweries and brew pubs,Restaurants,American restaurants,Bar and grill restaurants,Pub restaurants,Brewery,French Restaurant,Gastropub,Restaurant",Royal Oak,US,us/mi/royaloak/419smainst/1753444068,42.4866,-83.144,Bastone Brewery,48067,MI,bastonebrewery,http://www.bastonebrewery.com
AVwclvMlByjofQCxf-XA,11293 Air Park Rd,"Brewery,Food & Drink,Breweries",Ashland,US,us/va/ashland/11293airparkrd/989960782,37.70885566,-77.4469105,Center of the Universe Brewing Company,23005,VA,cotubrew,http://cotubrewing.com
AVwclXxJ_7pvs4fzwuD6,565 W Fairbanks Ave,"Brewers,Restaurant,Brewery",Winter Park,US,us/fl/winterpark/565wfairbanksave/713972746,28.5934,-81.3561,Cask & Larder,32789,FL,casklarder,http://www.caskandlarder.com
AVwcly0hkufWRAb5w3cx,1050 26th St,"Restaurant,Brewery",San Francisco,US,us/ca/sanfrancisco/105026thst/511244499,37.7516236,-122.3900315,Harmonic Brewing,94107,CA,harmonicbrewing,"http://www.harmonicbrewing.com/,http://harmonicbrewing.com"
AVwclyWWkufWRAb5w3XK,190 E Stacy Rd,"American Restaurant,Pizza Place,Brewery,American Restaurant, Pizza Place, and Brewery",Allen,US,us/tx/allen/190estacyrd/554746294,33.12741173,-96.66023355,BJ's Restaurant and Brewhouse,75002,TX,bjsrestaurants,http://t.co/bl46gcjDLN
AVwcm_dl_7pvs4fzxA4L,1054 S 750 E,"Restaurants,Barbecue Restaurants,Utility Contractors,Restaurant,Fried Chicken Joint, Pub, and Brewery,Take Out Restaurants,Caterers,Food and Beverage,Wings Joint,Chicken Restaurants",Orem,US,us/ut/orem/1054s750e/-1112639208,40.2779,-111.6773,Wing Nutz,84097,UT,wingnutzcorp,http://bakedwingsarebetter.com
AVwcm_ESByjofQCxgMrl,906 Washington St,"Brewery, Gastropub, and American Restaurant Old Oakland,Restaurants,Pubs,Breweries,Beer & Ale,Brewery, Gastropub, and American Restaurant,Night Clubs,Taverns,Bars,Restaurant,Brew Pubs,Bar & Grills,Beer & Ale Retail",Oakland,US,us/ca/oakland/906washingtonst/-1147593327,37.801439,-122.27432,Pacific Coast Brewing-oakland,94607,CA,pcboakland,http://pacificcoastbrewing.com
AVwcm4RGIN2L1WUfm4mX,8131 Georgia Ave,"American Restaurant,Brewery,American Restaurant and Brewery",Silver Spring,US,us/md/silverspring/8131georgiaave/-354199440,38.99161405,-77.02628521,Fire Station 1 Restaurant & Brewing Co.,20910,MD,fire_station1,http://sidengo.com/firestation1#happy-hour-and-sundays
AVwcm-5SIN2L1WUfm5pY,990 W 1st Ave,"Brewery,Brew Pubs,Beer and Ale,Liquor Stores,Restaurants,Wine,Breweries and brew pubs,American restaurants,Pub restaurants,Restaurant,Beer & Ale",Eugene,US,us/or/eugene/990w1stave/-981904968,44.05819,-123.10751,Hop Valley Brewing Co.,97402,OR,hopvalley,http://hopvalleybrewing.com
AVwcm7ONkufWRAb5xEkU,830 W Bannock St,"Brewery,Pub,Restaurant,Brewery and Pub Downtown Boise City,Brewery and Pub",Boise,US,us/id/boise/830wbannockst/906631547,43.617672,-116.202835,10 Barrel Brewing,83702,ID,10barrelbrewing,http://10barrel.com
AVwcmbININ2L1WUfmzWT,407 Radam Ln,"Restaurant,Brewery",Austin,US,us/tx/austin/407radamln/1163787123,30.2234,-97.76974,512 Brewing Company,78745,TX,512brewing,"http://512brewing.com,http://www.512brewing.com"
AVwcmcAkIN2L1WUfmzdU,1300 2nd St NE,Brewery,Minneapolis,US,us/mn/minneapolis/13002ndstne/-218461488,45.00100202,-93.26619963,Dangerous Man Brewing Co,55413,MN,dangerousman7,http://www.dangerousmanbrewing.com
AVwcmdgxkufWRAb5w--E,1740 Travis Blvd.,"Burger Joint,Banquet facilities,Breweries and brew pubs,Carry-out food,Night clubs and live music,Restaurant consultants,Restaurant mgmt.,Restaurants,American restaurants,Bar and grill restaurants,Hamburger restaurants,Hot dog restaurants,Restaurant,Take Out Restaurants,Hamburgers & Hot Dogs,Family Style Restaurants",Fairfield,US,us/ca/fairfield/1740travisblvd/-751601876,38.258827,-122.05986,Fuddruckers,94533,CA,fuddruckers,http://t.co/01pCW27EuK
AVwcmEJdIN2L1WUfmvHr,127 W 2nd St,Brewery,Eagle,US,us/co/eagle/127w2ndst/-1072894903,39.65533268,-106.8287319,Bonfire Brewing,81631,CO,bonfirebrewing,http://www.bonfirebrewing.com
AVwcmFvfIN2L1WUfmvZy,1428 156th Ave NE,"Pool Hall,Bar,Restaurant,Brewers,Billiard Table Manufacturers,Bars,American Restaurants,Restaurants,Burger Restaurants,Pool Halls,Bar & Grill Restaurants,Billiard Equipment-Wholesale & Manufacturers",Bellevue,US,us/wa/bellevue/1428156thavene/1213897345,47.6226,-122.1323,Mugshots Burger N' Brew,98007,WA,seedtoo,http://www.mustardseedtoo.com
AVwcmGFnIN2L1WUfmvdq,5801 Conroy Windermere Rd,"Restaurant,American,Pubs,Bar,Brewery,Sports Bar,Sports Bar and Restaurant Kirkman South",Orlando,US,us/fl/orlando/5801conroywindermererd/-1659142964,28.49397,-81.45925,Bloodhound Brew,32835,FL,bloodhoundbrew,"http://bloodhoundbrew.com,http://www.bloodhoundbrew.com"
AVwcmGvA_7pvs4fzw2VS,3600 Gus Thomasson Rd,"Supermarket,Cheese Shops,Grocery Stores & Supermarkets,Breweries,Beer & Ale Distributors,Beer & Ale Retail,Grocery Stores and Supermarkets,Groceries,Service Stations,Supermarkets",Mesquite,US,us/tx/mesquite/3600gusthomassonrd/-1122957716,32.81378817,-96.63404703,Kroger,75150,TX,kroger,"http://kroger.com,http://www.kroger.com"
AVwcmhGgIN2L1WUfm0d4,1 Executive Way,"Wineries,Brewers,Restaurant,Brewery",Napa,US,us/ca/napa/1executiveway/381950075,38.2243,-122.2568,Napa Smith Brewery & Winery,94558,CA,napa_smith,"http://www.napasmithbrewery.com/,http://api.citygridmedia.com/content/places/v2/click?q=9YKflVKbY9NauPJdMy0B1gS1IhB4xv4EWw0zDoT-UWc_izWF3zs5PKGdfOHubWrvM0QwDCYwbOH2fdLi0dK5xArULcksCCbfR-WWAz9xD1AmGVAQZIom4U3n5R4DuRC8WJCtvJcNItEKoCSfzwapuGnmwGnHDpEGYXGjnN4u8zXqkiimSHFf4_dbqGRbVgNJWVVflNt_l3Xgs_ocOXdEwjm74Wtkm7oz8NrpvlSJCTGROZmaX38sSk3G0Zp7zYJMHVAsC1oQjSrfvbA9HPVrghKKAT6WD1V8neZzyd8NyUTz5JvHrcnA_D2ovMI_WxJjwakhL8k9JFoJT11n_fiWyE5RRSuF90c8zvzJML4JyvZoH6fkUxvpdPcSkhMiC-JLSsnZRFNkXBGKrtcjmspDc6acd3zNL3EjaKSyymxy2KzycxQcG5nXkgzU499H2XcXn3ms7WIbQ5G02sFeMx4cNKykjJTQ-amv0CYNX2A2tJNCIcMVJ4VMmtbyb5oGPZg_ipJOz-Qq9u8IVlkGg4KQrebLqGKNyr8Jo37MGXeFhqY&placement=listing_profile&cs_user=unknown&cs_session=cd1d2f981b9452b7f675d844782f965bac918f57"
AVwcmhgYkufWRAb5w_zf,715 N Courtenay Pkwy,"Brew Pubs,Beer and Ale,Liquor Stores,Restaurants,Brewers,Brewery,Restaurant",Merritt Island,US,us/fl/merrittisland/715ncourtenaypkwy/-1119066821,28.36932,-80.70044,Bugnutty Brewing Company,32953,FL,bugnuttybrew,"http://www.bugnutty.com,http://bugnutty.com"
AVwcmIMQIN2L1WUfmv4w,4500 N Nebraska Ave Tampa,"Hobby Shop,Brewery,Beer Garden",Tampa,US,us/fl/tampa/4500nnebraskaavetampa/1521164460,27.98616652,-82.45157221,Southern Brewing,33603,FL,southern_brew,http://southernbrewingwinemaking.com
AVwcmLjjByjofQCxgDfh,727 S Crouse Ave,"American Restaurants,Bars,Coffee and Espresso Restaurants,Coffee Shops,Coffee and Tea,Taverns,Restaurants,Bar,Dive Bar,Brewery,Bar, Dive Bar, and Brewery,Sandwich Place",Syracuse,US,us/ny/syracuse/727scrouseave/1614796408,43.04206,-76.13652,Chuck's Cafe,13210,NY,chucks_cuse,http://campusfood.com/restaurant.asp?campusid=117&mlid=256053
AVwcmm8S_7pvs4fzw8PQ,2277 Dabney Rd,"Brewers,Brew Pubs,Beer & Ale,Brewery,Liquor Stores",Richmond,US,us/va/richmond/2277dabneyrd/-204969280,37.5864,-77.4832,Strangeways Brewing,23230,VA,strangewaysrva,http://www.strangewaysbrewing.com
AVwcmmlhIN2L1WUfm1RN,140 Thomas Mill Rd,"Brewery,Beer Homebrewing Equipment & Supplies,Beer & Ale",Holly Springs,US,us/nc/hollysprings/140thomasmillrd/-216866008,35.655663,-78.85283,Carolina Brewing Company,27540,NC,carolinabrewing,http://www.carolinabrew.com
AVwcmojhIN2L1WUfm1oQ,2621 N Federal Hwy,"Bar,Brewery,Hookah Bar,Bar, Brewery, and Hookah Bar",Boca Raton,US,us/fl/bocaraton/2621nfederalhwy/-1376960053,26.37512163,-80.07667454,Funky Buddha Brewery And Lounge,33431,FL,funkybuddhabrew,http://www.thefunkybuddha.com
AVwcmP4l_7pvs4fzw39_,4585 Chino Hills Pkwy,"American Restaurant,Pizza Place,Brewery,Restaurants,Bars Clubs,Bars Pubs,Pubs,Brew Pubs,American Restaurant, Pizza Place, and Brewery",Chino Hills,US,us/ca/chinohills/4585chinohillspkwy/554746294,33.9808,-117.7018,BJ's Restaurant and Brewhouse,91709,CA,bjsrestaurants,http://t.co/bl46gcjDLN
AVwcmreKByjofQCxgJHh,7101 E Colfax Ave,"Brewery,restaurant",Denver,US,us/co/denver/7101ecolfaxave/305184441,39.74032636,-104.9056578,Fiction Beer Company,80220,CO,fictionbeer,http://www.fictionbeer.com
AVwcmrkekufWRAb5xBeL,5234 36th Ave,"Brewery,Brewers,Brew Pubs,Food & Drink,Beer & Ale,Breweries",Hudsonville,US,us/mi/hudsonville/523436thave/99292086,42.864382,-85.870885,White Flame Brewing,49426,MI,whiteflamebrew,http://whiteflamebrewing.com
AVwcmSmrIN2L1WUfmxwq,1650 N Hercules Ave,"Barbecue Equipment & Supplies Retail,Winemaking Equipment & Supplies,Brewer Equipment Supplies & Services,Beer Store",Clearwater,US,us/fl/clearwater/1650nherculesave/1442202139,27.981428,-82.754754,Hifi Homebrew and Bbq Supply,33765,FL,hifihomebrewbbq,http://hifihomebrewandbbq.com/#6Jvl5
AVwcmtGh_7pvs4fzw9YV,1334 Oak Aly,"Breweries and brew pubs,Delicatessens,Restaurants,American restaurants,Pub restaurants,Pubs,Restaurant,Brewery",Eugene,US,us/or/eugene/1334oakaly/-1348168410,44.0451,-123.0921,Falling Sky Brewing,97401,OR,fallingskybrew,http://fallingskybrewing.com
AVwcmYCqIN2L1WUfmyzv,833 S Railroad Ave,"Breweries and brew pubs,Juice bars,Restaurants,American restaurants,Bar and grill restaurants,Hamburger restaurants,Health food restaurants,Hot dog restaurants,Irish restaurants,Natural food restaurants,Seafood restaurants,Vegetarian restaurants,Restaurant,Bars Clubs,Bars Pubs,Brew Pubs,Grill Restaurants,Gastropub,Bar,Gastropub and Bar,Bars & Clubs,Bars & Pubs",Opelika,US,us/al/opelika/833srailroadave/2121629529,32.647247,-85.38011,Irish Bred Pub,36801,AL,bpopelika,http://irishbredopelika-hub.com
AVwcn_NnkufWRAb5xQic,714 N Capitol Ave,"Brewery,Brewers,Breweries,Wineries,Brew Pubs,Beer & Ale,Liquor Stores",Indianapolis,US,us/in/indianapolis/714ncapitolave/296948584,39.777147,-86.161506,TwoDEEP Brewing Co.,46204,IN,twodeepbrewing,http://www.twodeepbrewing.com
AVwcn1aw_7pvs4fzxKxF,1 Redhook Way,"Brewery,American Restaurant",Portsmouth,US,us/nh/portsmouth/1redhookway/-707359370,43.08790761,-70.80425765,Redhook Brewery,3801,NH,redhooknh,http://www.redhook.com
AVwcn2gzByjofQCxgWg0,10 Fountain Square Plz,"American Restaurant,Bars & Clubs,Brewery and American Restaurant,Brew Pubs,Restaurants,Bars & Pubs,Brewery,Taverns",Cincinnati,US,us/oh/cincinnati/10fountainsquareplz/1377615297,39.103198,-84.506489,Rock Bottom Restaurant & Brwry,45202,OH,cincyrockbottom,http://www.rockbottom.com
AVwcn5E_kufWRAb5xPh-,625 Black Lake Blvd S W,"Liquor Store,Brewery,Breweries,Wine Shop,Beer & Ale Distributors,Liquor Stores,Wine & Distilled Beverages Retail,Beer & Ale Retail",Olympia,US,us/wa/olympia/625blacklakeblvdsw/-1152707038,47.040651,-122.930972,Total Wine & More,98502,WA,totalwine,http://www.totalwine.com
AVwcnazrkufWRAb5xKKd,2550 N W Federal Hwy,"Wine Shop, Liquor Store, and Brewery,Beer Store,Liquor Store,Brewery,Breweries,Wine Shop,Beer & Ale Distributors,Liquor Stores,Wine & Distilled Beverages Retail,Beer & Ale Retail",Stuart,US,us/fl/stuart/2550nwfederalhwy/-1152707038,27.235792,-80.270372,Total Wine & More,34994,FL,totalwine,http://www.totalwine.com
AVwcnBDDIN2L1WUfm56m,1519 N Main St,"Brewery Sunnyside,Food & Drink,Breweries",Flagstaff,US,us/az/flagstaff/1519nmainst/-1560205708,35.20238,-111.618256,Wanderlust Brewing Company,86004,AZ,wanderlust_beer,http://wanderlustbrewing.com
AVwcnCsl_7pvs4fzxBca,108 W Evergreen Blvd,"Brewery,Pub,Restaurant,Pub and Brewery",Vancouver,US,us/wa/vancouver/108wevergreenblvd/-1788446919,45.62901,-122.67225,Old Ivy Brewery and Taproom,98660,WA,oldivytaproom,http://oldivybrewery.com
AVwcnCXg_7pvs4fzxBXX,69 Heights Blvd,"Restaurant,Pubs,Sports Bar,Pub,American Restaurant,Bars & Pubs,Restaurants,Breweries",Houston,US,us/tx/houston/69heightsblvd/-1409472201,29.770039,-95.397675,Porch Swing Pub,77007,TX,adenilsonka,http://www.porchswingpub.com
AVwcnDFSByjofQCxgNU-,821 Chicago Ave,Brewery,Evanston,US,us/il/evanston/821chicagoave/1439557995,42.03292054,-87.67903358,Sketchbook Brewing Co.,60202,IL,sketchbookbrew,http://www.sketchbookbrewing.com
AVwcne5lkufWRAb5xK1f,1600 Crossways Blvd,"Wine Stores,Liquor Stores,Cigarettes Tobacco,Wine Shop,Liquor Store,Smoke Shop,Wine Shop, Liquor Store, and Brewery",Chesapeake,US,us/va/chesapeake/1600crosswaysblvd/-1152707038,36.7782,-76.2326,Total Wine & More,23320,VA,totalwine,"http://www.totalwine.com/store-info/virginia-chesapeake/211?cid=referral:YEXT::SERP_website_link:211_chesapeake_store_page:,http://totalwine.com"
AVwcnG8hIN2L1WUfm7FV,955 N Russell St,"Brewery,Pub,American Restaurant,Brewery, Pub, and American Restaurant,Brewery, Pub, and American Restaurant Eliot,Brewery Eliot",Portland,US,us/or/portland/955nrussellst/-25364968,45.54106084,-122.6769239,Widmer Brothers Brewing Company,97227,OR,widmer_brothers,http://widmerbrothers.com
AVwcn-k8ByjofQCxgXy_,1370 N Long Lake Rd,"Brewery,Winery,Breweries and brew pubs,Pizza,Restaurants,American restaurants,Pub restaurants,Wineries,Restaurant,Brewery and Winery",Fenton,US,us/mi/fenton/1370nlonglakerd/-330054090,42.852455,-83.70322,Fenton Winery & Brewery,48430,MI,drinkfwb,http://fentonbrewery.com
AVwcnN_gkufWRAb5xIBz,119 N Grand Traverse St,"Seafood Restaurants,Restaurants,Brewery",Flint,US,us/mi/flint/119ngrandtraversest/1375488369,43.01534,-83.69711,Tenacity Brewing,48503,MI,tenacitybrewing,"http://www.tenacitybrewing.com,http://tenacitybrewing.com"
AVwcnn-5kufWRAb5xMie,6008 W Broad St,"Brew Pubs,Bars,Beer and Ale,Restaurants,Brewery,Brewers,Restaurant,Beer & Ale",Richmond,US,us/va/richmond/6008wbroadst/-393059011,37.59358,-77.50793,The Answer Brewpub Co,23230,VA,theanswerbrew,http://www.theanswerbrewpub.com
AVwcnpGaIN2L1WUfnA8g,275-C Harbison Blvd,"Wine Shop,Liquor Store,Smoke Shop,Wine Stores,Liquor Stores,Cigarettes Tobacco,Breweries,Brewery,Beer & Ale Distributors,Wine & Distilled Beverages Retail,Beer & Ale Retail",Columbia,US,us/sc/columbia/275charbisonblvd/-1152707038,34.0742,-81.1601,Total Wine & More,29212,SC,totalwine,"http://www.totalwine.com/store-info/south-carolina-columbia/701?cid=referral:YEXT::SERP_website_link:701_columbia_store_page:,http://www.totalwine.com"
AVwcnPrA_7pvs4fzxD3Q,160 E Altamonte Dr,"Wine Shop,Liquor Store,Smoke Shop,Breweries,Beer & Ale Distributors,Wine & Distilled Beverages Retail,Liquor Stores,Beer & Ale Retail",Altamonte Springs,US,us/fl/altamontesprings/160ealtamontedr/-1152707038,28.661719,-81.385296,Total Wine & More,32701,FL,totalwine,http://totalwine.com
AVwcnpspByjofQCxgUGK,2282 NW Hoyt St,"Pub,Breweries and brew pubs,Hotels and motels,Movie theaters,Restaurants,Bar and grill restaurants,Pub restaurants,Wineries,Winery tours,Restaurant,Brewers,Pub Northwest District,Pubs,Transportation Companies,Breweries",Portland,US,us/or/portland/2282nwhoytst/235407221,45.52691,-122.69844,The Rams Head,97210,OR,captainneon,"http://mcmenamins.com,http://www.mcmenamins.com"
AVwcnTv5ByjofQCxgQJN,151 Commerce Rd,Brewery,Boynton Beach,US,us/fl/boyntonbeach/151commercerd/-1711807308,26.559551,-80.07302,Copperpoint Brewing Company,33426,FL,copperpointbrew,http://copperpointbrewingcompany.com
AVwcnuAdkufWRAb5xN10,175 Amity Rd,Brewery,Woodbridge,US,us/ct/woodbridge/175amityrd/-1299247290,41.33920684,-72.97987027,New England Brewing Company,6525,CT,newenglandbrew,http://newenglandbrewing.com
AVwcnv8jByjofQCxgVZo,613 S 2nd St,Brewery,Milwaukee,US,us/wi/milwaukee/613s2ndst/-2038467923,43.024912,-87.91285499,Milwaukee Brewing Company,53204,WI,mkebrewco,http://mkebrewing.com
AVwcnvjckufWRAb5xOIV,2600 Post Rd,"Brewery and Wings Joint,Beer Homebrewing Equipment & Supplies,Beer & Ale,Wings Joint,Brewery",Southport,US,us/ct/southport/2600postrd/-17023527,41.13948,-73.277596,Sbc Restaurant & Brewery,6890,CT,sbcbrewery,"http://southportbrewing.com,http://www.southportbrewing.com"
AVwcnwvRkufWRAb5xOVy,2823 Saint Louis St,"Brewery,Breweries,Wineries",Dallas,US,us/tx/dallas/2823saintlouisst/-175813137,32.780614,-96.781678,Deep Ellum Brewing Co,75226,TX,deepellumbrewco,http://www.deepellumbrewing.com
AVwcnY5q_7pvs4fzxFgQ,111 W Adams St,"Restaurant,British,Breakfast & Brunch,Pub,Fish Chips Shop,Brewery,Restaurants,Bars Clubs,Bars Pubs,American Restaurants,Bars & Pubs,Fish & Chips Shop,Pub, Fish Chips Shop, and Brewery",Chicago,US,us/il/chicago/111wadamsst/-1639934135,41.879234,-87.63126,Elephant & Castle,60603,IL,elephantcastle,"http://elephantcastle.com/,http://elephantcastle.com"
AVwcny8NkufWRAb5xOtJ,127 E 5th St,"Brewery,Brewers,Brew Pubs",Loveland,US,us/co/loveland/127e5thst/446802963,40.3966,-105.0755,Verboten Brewing,80537,CO,verbotenbrewing,http://www.verbotenbrewing.com
AVwco0ExIN2L1WUfnOen,2245 3rd St,"Attraction,Bars,Clubs and Nightlife,Brewery,Bar,Brewery and Bar Dogpatch,Brewery and Bar",San Francisco,US,us/ca/sanfrancisco/22453rdst/-1001597920,37.76119,-122.388537,Triple Voodoo Brewery & Tap Room,94107,CA,triplevoodoo,http://triplevoodoo.com
AVwco1UBIN2L1WUfnOvz,2801 8th St NE,"Bar,Dive Bar,Bar and Dive Bar,brewery",Washington,US,us/dc/washington/28018thstne/800182595,38.92601596,-76.99492133,The Dew Drop Inn DC,20017,D.C.,thedewdropinndc,"http://dewdropinndc.com,http://www.dewdropinndc.com"
AVwco6G_IN2L1WUfnPlJ,1920 Shattuck Ave,"Bars Clubs,Bars Pubs,Beer Gardens,Brew Pubs,Singles Bars,Sports Bars,Restaurants,Bars & Pubs,Pubs,Brewers,Breweries,Wineries,Brewery",Berkeley,US,us/ca/berkeley/1920shattuckave/144823757,37.873527,-122.268766,Triple Rock Brewery-Ale House,94704,CA,triplerockbeer,http://triplerock.com
AVwco7sZIN2L1WUfnP4W,101 N Brand Blvd,"American Restaurant,Pizza Place,Brewery,Restaurant,Food and Beverage",Glendale,US,us/ca/glendale/101nbrandblvd/554746294,34.146404,-118.255104,BJ's Restaurant and Brewhouse,91203,CA,bjsrestaurants,"http://www.bjsrestaurants.com,http://t.co/bl46gcjDLN"
AVwcoBirkufWRAb5xQ3D,946 Grady Ave,"Brew Pubs,Restaurants,Beer and Ale,Liquor Stores,Brewery,Brewers,Restaurant",Charlottesville,US,us/va/charlottesville/946gradyave/-380572825,38.03767,-78.49114,Three Notch'd Brewing Company,22903,VA,threenotchdbeer,"http://threenb.com,http://threenotchdbrewing.com"
AVwcoDonIN2L1WUfnFuN,610 Penn Ave.,"Brewery,American Restaurant,Restaurant,Brew Pubs,American Restaurants,Bar & Grills,Restaurants",Reading,US,us/pa/reading/610pennave/-1254074284,40.335606,-75.95019,Chatty Monks Brewing Company,19611,PA,chattymonks,http://www.chattymonks.com
AVwcoE5h_7pvs4fzxNHc,200 Prairie St,"Brewery,Event Space,Historical Places,Wedding Reception Locations and Services,Wedding Chapels and Ceremonies,Meeting and Event Planning Services,Event Planning,Ceremony & Reception Venue,Rehearsal Dinner Location",Rockford,US,us/il/rockford/200prairiest/1280305943,42.27329,-89.08717,Prairie Street Brewhouse,61107,IL,psbrewhouse,"http://www.psbrewhouse.com,http://psbrewhouse.com"
AVwcoEwIIN2L1WUfnF6p,2414 Chestnut St,"Beverages,Beer and Ale,Brewery",Everett,US,us/wa/everett/2414chestnutst/17096865,47.98507,-122.18844,Justice Brewing,98201,WA,justicebrewing,http://www.justicebrewing.com
AVwcoF-4_7pvs4fzxNOI,2135 E Camelback Rd,"Sports Bar,Brewery",Phoenix,US,us/az/phoenix/2135ecamelbackrd/-315935348,33.5091,-112.0359367,Twin Peaks,85016,AZ,twinpeaks_az,http://twinpeakscamelback-hub.com
AVwcofmU_7pvs4fzxRmG,1020 Erato St,"Brewers,Brewery,Bar,Beer Garden,Bars & Clubs,Food & Drink,Nightlife,Breweries,Brewery, Bar, and Beer Garden Lower Garden District",New Orleans,US,us/la/neworleans/1020eratost/-1316080059,29.939,-90.0701,Courtyard Brewery,70130,LA,courtyardbrew,"http://www.courtyardbrewing.com,http://courtyardbrewing.com"
AVwcofQwIN2L1WUfnKgQ,17503 W Interstate 10,"American Restaurant,Pizza Place,Brewery,Breweries and brew pubs,Carry-out food,Pizza,Restaurants,Bar and grill restaurants,Pub restaurants,Restaurant,Pubs,Bars Clubs,Bars Pubs,Brew Pubs,American Restaurant, Pizza Place, and Brewery,American Restaurant, Pizza Place, and Brewery Northwest Side",San Antonio,US,us/tx/sanantonio/17503winterstate10/554746294,29.607653,-98.6011,BJ's Restaurant and Brewhouse,78257,TX,bjsrestaurants,http://t.co/bl46gcjDLN
AVwcofvJIN2L1WUfnKnm,2615 Washington St,"Brewery,Bars Clubs,Taverns,Bars Pubs,Brew Pubs,Restaurants,Sports Bars,Restaurant",Grafton,US,us/wi/grafton/2615washingtonst/406895632,43.318462,-87.918816,Water Street Brewery,53024,WI,waterstreetbrew,https://waterstreetbrewery.com
AVwcoJBNkufWRAb5xSFh,301 S Gillette Ave,Brewery and Beer Garden,Gillette,US,us/wy/gillette/301sgilletteave/1666155935,44.292183,-105.50401,Gillette Brewing Company,82716,WY,gillettebrewing,http://gillettebrewingcompany.com
AVwcojpY_7pvs4fzxSWZ,245 Clanton Rd,"Restaurants,Beverages,Juices,Brewery",Charlotte,US,us/nc/charlotte/245clantonrd/-890796951,35.19456,-80.87482,Red Clay Ciderworks,28217,NC,redclaycider,http://redclayciderworks.com
AVwcojrN_7pvs4fzxSWl,24320 Town Center Dr,"American Restaurant,Pizza Place,Brewery,American Restaurant, Pizza Place, and Brewery Valencia,American Restaurant, Pizza Place, and Brewery,Restaurant",Valencia,US,us/ca/valencia/24320towncenterdr/554746294,34.41742048,-118.5616153,BJ's Restaurant and Brewhouse,91355,CA,bjsrestaurants,http://t.co/bl46gcjDLN
AVwcojwTByjofQCxgeZs,1461 Hendricks Ave,"Brewery,Beer Garden,Bar,Brewery, Beer Garden, and Bar San Marco,Brewery, Beer Garden, and Bar",Jacksonville,US,us/fl/jacksonville/1461hendricksave/1679457665,30.31072728,-81.65454165,Aardwolf Brewing Company,32207,FL,aardwolfbar,http://aardwolfbrewing.com
AVwcok4nIN2L1WUfnLn4,322 4th St,"Bar,Brewery,Bars,Bar and Brewery,Brew Pubs,Restaurants,Bar & Grills,Taverns",Columbus,US,us/in/columbus/3224thst/1499701976,39.20251003,-85.92170119,Powerhouse Brewing Company,47201,IN,jackthebum,http://www.powerhousebrewingco.com
AVwcok8c_7pvs4fzxSmh,701 Galveston Ave,"Brewery,Brewers",Fort Worth,US,us/tx/fortworth/701galvestonave/564809286,32.7368,-97.3276,Rahr & Sons Brewing Co.,76104,TX,rahrbrewing,http://www.rahrbrewing.com
AVwcoMCYIN2L1WUfnHI1,1710 Sessums Dr,"Brewery,Beer Garden,Brewers,Restaurant,Bars,Brew Pubs,Brewery and Beer Garden,Beer & Ale,Liquor Stores,Brewery and Beer Garden North Redlands,Taverns",Redlands,US,us/ca/redlands/1710sessumsdr/56342831,34.0831,-117.142,Hangar 24 Craft Brewery,92374,CA,hangar24brewery,http://hangar24brewery.com
AVwcoPMv_7pvs4fzxOy8,109 Courtland St,"Pizza Place,Brewery,Restaurants,Cafes,Juice bars,Karaoke,Pizza,American restaurants,Health food restaurants,Natural food restaurants,Vegetarian restaurants,Bistro restaurants,Restaurant,Pizza Place and Brewery",Rockford,US,us/mi/rockford/109courtlandst/647706009,43.1209,-85.5585,Marinades Pizza Bistro,49341,MI,willowbrew,"http://marinadespizzabistro.com,http://www.marinadespizzabistro.com"
AVwcoSE7IN2L1WUfnIST,11580 S District Main Dr.,"Fried Chicken Joint,Pub,Brewery,Fried Chicken Joint, Pub, and Brewery",South Jordan,US,us/ut/southjordan/11580sdistrictmaindr/-1112639208,40.54126672,-111.980719,Wing Nutz,84095,UT,wingnutzcorp,http://www.bakedwingsarebetter.com
AVwcov3EkufWRAb5xYut,10960 Wheatlands Ave,Brewery and Distillery,Santee,US,us/ca/santee/10960wheatlandsave/-1057237214,32.84627942,-116.9582416,Bns Brewing & Distillery,92071,CA,bnsbrewdistill,http://bnsbrewinganddistilling.com
AVwcoviRIN2L1WUfnNos,555 Broadway,"Pizza Place,Sandwich Place,Bakery, Caf, and Sandwich Place,Bakery Downtown Chula Vista,Restaurant,Pizza Place Downtown Chula Vista,Bakery,Sandwich Place, Bakery, and Caf,Caf√©,Bakery, Caf, and Sandwich Place Downtown Chula Vista,American Restaurant, Pizza Place, and Brewery,American Restaurant, Pizza Place, and Brewery Downtown Chula Vista,Sandwich Place, Bakery, and Caf Downtown Chula Vista",Chula Vista,US,us/ca/chulavista/555broadway/-1969953837,32.63060682,-117.0869671,Project Pie,91910,CA,projectpie2012,"http://panerabread.com,https://www.projectpie.com"
AVwcoWl4IN2L1WUfnJBi,9520 S Eastern Ave,"Restaurant,American,Pizza,Chain Restaurant,Brewery,American Restaurant,Pizza Place,Breweries and brew pubs,Carry-out food,Restaurants,American restaurants,Bar and grill restaurants,Pub restaurants,American Restaurant, Pizza Place, and Brewery Silverado Ranch,American Restaurant, Pizza Place, and Brewery,Breweries",Las Vegas,US,us/nv/lasvegas/9520seasternave/554746294,36.015797,-115.118004,BJ's Restaurant and Brewhouse,89123,NV,bjsrestaurants,"http://www.bjsrestaurants.com/,http://t.co/bl46gcjDLN"
AVwcoyXaByjofQCxghJ_,3242 Peachtree Rd NE,"Brewery,American Restaurant,Brewery and American Restaurant Buckhead,Bars & Pubs,Pubs,Restaurants,Breweries,Bar & Grill Restaurants",Atlanta,US,us/ga/atlanta/3242peachtreerdne/-1268123268,33.843385,-84.372368,Gordon Biersch Brewery Restaurant,30305,GA,gbbuckhead,http://gordonbiersch.com
AVwcoZ8KByjofQCxgcnS,3200 E Expressway 83,"Brewery,American Restaurant,Brewery and American Restaurant",Mcallen,US,us/tx/mcallen/3200eexpressway83/554746294,26.195129,-98.25944,Bj's Restaurant & Brewhouse,78501,TX,bjsrestaurants,http://bjsrestaurants.com
AVwcp48GIN2L1WUfnaZF,2650 N E University Vlg,"Burger Joint and Brewery,Brewery,Burger Joint",Seattle,US,us/wa/seattle/2650neuniversityvlg/-144516369,47.66412289,-122.2980666,Ram Restaurant & Brewery,98105,WA,theram,http://theram.com
AVwcp4ce_7pvs4fzxgju,237 Union St,"American Restaurant,Brewery,American Restaurant and Brewery",Schenectady,US,us/ny/schenectady/237unionst/232965472,42.8165101,-73.94317775,Van Dyck,12305,NY,vandycklounge,http://thevandyck.com
AVwcp5ZZkufWRAb5xkrI,14250 Sweetwater Ln,"American Restaurant,Brewery,Restaurants,American restaurants,Bar and grill restaurants,Restaurant,Taverns,Bars Clubs,Bars Pubs,American Restaurant and Brewery",Centreville,US,us/va/centreville/14250sweetwaterln/389591039,38.829315,-77.43901,Sweetwater Tavern,20121,VA,sweetwater_gar,http://www.greatamericanrestaurants.com/m/sweetwater/centreville
AVwcpdkLIN2L1WUfnV1u,1346 W Valley Pkwy,"Liquor Store,Wine Shop,Beer Store,Liquor Stores,Food Stores,Wine Stores,Breweries,Liquor Store, Wine Shop, and Beer Store",Escondido,US,us/ca/escondido/1346wvalleypkwy/93630837,33.1125,-117.1024,BevMo!,92029,CA,bevmo,http://bevmo.com
AVwcphedByjofQCxgpid,29095 Old Town,Breweries,Temecula,US,us/ca/temecula/29095oldtown/1787049625,33.486077,-117.144504,Garage Brewing Co,92590,CA,garagebrewco,http://garagebrewco.com
AVwcphXv_7pvs4fzxc8L,7270 W 118th Pl,"Bars,Brew Pubs,Beer & Ale,Liquor Stores,Pub,Brewery,Brewery and Pub",Broomfield,US,us/co/broomfield/7270w118thpl/-1913587233,39.9104,-105.07845,Big Choice Brewing,80020,CO,bigchoicebrew,"http://www.bigchoicebrewing.com,http://bigchoicebrewing.com"
AVwcpm6SkufWRAb5xhww,200 Terminal St,"Brewery,Brewery Thompson Square - Bunker Hill,Food & Drink,Breweries",Charlestown,US,us/ma/charlestown/200terminalst/637999348,42.38269985,-71.05047226,Downeast Cider House,2129,MA,downeastcider,"http://www.downeastcider.com,http://downeastcider.com"
AVwcpN2zIN2L1WUfnSzG,5391 Three Notch D Rd,Brewery,Crozet,US,us/va/crozet/5391threenotchdrd/1539871593,38.069092,-78.68753672,Starr Hill Brewery,22932,VA,starrhill,http://starrhill.com
AVwcpoioByjofQCxgqr-,509 W State St,"BBQ Joint,Brewery,Restaurant,salon / barbershop,BBQ Joint and Brewery",Garland,US,us/tx/garland/509wstatest/-2145376620,32.913612,-96.637024,Intrinsic Smokehouse & Brewery,75040,TX,intrinsicbrew,http://www.intrinsicbrewing.com/
AVwcpOsdkufWRAb5xdpI,3747 W Pacific Ave,"Bars & Pubs,Microbreweries,Brewer Equipment Supplies & Services,Breweries,Brewery and Beer Garden,brewery",Sacramento,US,us/ca/sacramento/3747wpacificave/-1242155564,38.538878,-121.482026,Track 7 Brewing Co,95820,CA,track7brewing,http://track7brewing.com
AVwcppH3kufWRAb5xiJL,1451 Chain Bridge Rd,"Wine Shop, Liquor Store, and Brewery,Liquor Store,Brewery,Wine Shop",Mc Lean,US,us/va/mclean/1451chainbridgerd/-1152707038,38.931152,-77.179294,Total Wine & More,22101,VA,totalwine,"http://www.totalwine.com,http://totalwine.com"
AVwcpQMaByjofQCxgmSE,2810 Larimer St,Brewery,Denver,US,us/co/denver/2810larimerst/1199143259,39.76060651,-104.9825338,Our Mutual Friend Brewing Company,80205,CO,omfbrewing,http://www.omfmb.com
AVwcpRAXIN2L1WUfnTYa,4519 W Pine St,"Food & Drink,Brewery and Beer Garden,Breweries",Farmville,US,us/nc/farmville/4519wpinest/1838085277,35.600414,-77.59628,Duck Rabbit Craft Brewery,27828,NC,duckrabbitbrew,http://duckrabbitbrewery.com
AVwcpsEHIN2L1WUfnYWD,529 Grant St,"Brewery,Brewery University of Akron,plumbing contractors",Akron,US,us/oh/akron/529grantst/-1778659330,41.06884456,-81.51766397,Thirsty Dog Brewing Company,44311,OH,thirstydogbeer,http://thirstydog.com
AVwcpTBmkufWRAb5xebv,6694 Sawmill Rd,"Bar,Brewery,Bar and Brewery",Columbus,US,us/oh/columbus/6694sawmillrd/-1701903352,40.104404,-83.09119,The Draught Haus,43235,OH,draughthouse,http://www.mcclellanspub.com
AVwcpuq4ByjofQCxgr0L,4120 Main St,"Restaurant,American,Brewery,Bar",Philadelphia,US,us/pa/philadelphia/4120mainst/997945159,40.022568,-75.21874,Manayunk Brewery and Restaurant,19127,PA,manayunkbrewery,"http://www.manayunkbrewery.com/,http://manayunkbrewery.com"
AVwcpYwbkufWRAb5xfdz,504 506 Poplar St,Bar and Brewery,Cambridge,US,us/md/cambridge/504506poplarst/1078166604,38.57023838,-76.07758641,Realerevival Brewing,21613,MD,reale_talk,http://rarbrewing.com
AVwcq_ZZByjofQCxg5k-,412 N Main St,"Brewery,Pub,Brewery and Pub",Ellensburg,US,us/wa/ellensburg/412nmainst/185612149,46.99611386,-120.5485016,Iron Horse Brewery,98926,WA,ironhorsebeer,http://ironhorsebrewery.com
AVwcq089_7pvs4fzxrQ4,15315 Madison Ave,"Gastropub,Restaurant,Pub, Brewery, and Burger Joint,Pub,Brewery,Burger Joint",Lakewood,US,us/oh/lakewood/15315madisonave/-617338040,41.47709,-81.80415,Buckeye Beer Engine,44107,OH,enginelakewood,http://www.buckeyebeerengine.com
AVwcq3Q6kufWRAb5xvu3,9980 N Newport Hwy,"Liquor Stores,Wine,Beer and Ale,Wine Shop, Liquor Store, and Brewery,Breweries,Beer & Ale Distributors,Wine & Distilled Beverages Retail,Beer & Ale Retail,Wine Shop, Liquor Store, and Brewery Nevada - Lidgerwood",Spokane,US,us/wa/spokane/9980nnewporthwy/-1152707038,47.74748,-117.40382,Total Wine More,99218,WA,totalwine,"http://www.totalwine.com/store-info/washington-spokane/1403?cid=referral:YEXT::SERP_website_link:1403_spokane_store_page:,http://totalwine.com"
AVwcq5aoByjofQCxg4im,5650 Matlock Rd,"Food & Drink,Breweries,Brewery",Granbury,US,us/tx/granbury/5650matlockrd/-1699810841,32.417637,-97.67024,Revolver Brewery,76049,TX,revolverbrewing,http://revolverbrewing.com
AVwcq7AKkufWRAb5xwdY,2410 Granite Ridge Rd,"Brew Pubs,Beer and Ale,Liquor Stores,Restaurants,Brewers,Brewery,Food & Drink,Breweries",Rockville,US,us/va/rockville/2410graniteridgerd/294180954,37.69892,-77.66573,Midnight Brewery,23146,VA,midnightbrewery,"http://www.midnight-brewery.com,http://midnight-brewery.com"
AVwcq95gIN2L1WUfnmS7,1195 Evans Ave,"Brewery, Bar, and Beer Garden Bayview,Brewery, Bar, and Beer Garden,restaurant",San Francisco,US,us/ca/sanfrancisco/1195evansave/674257857,37.73838696,-122.3809036,Speakeasy Ales & Lagers,94124,CA,speakeasybeer,http://www.goodbeer.com/
AVwcqAqtByjofQCxguml,121 E Main St,"Pub,Bar,Brewery,Pub, Bar, and Brewery,ale",Norman,US,us/ok/norman/121emainst/320397728,35.22138872,-97.44292873,The Abner Ale House,73069,OK,mcnelliesnorman,http://www.mcnelliesnorman.com
AVwcqb6NkufWRAb5xqsf,1301 S Lewis St,"Brewery,Tourist Information & Attractions,Places Of Interest",Anaheim,US,us/ca/anaheim/1301slewisst/-986207216,33.815952,-117.89795,Legends Craft Brewery,92805,CA,legendsbeer,http://www.instagram.com/legendsbeer
AVwcqb9DByjofQCxgzYe,40 Andover Rd,"Bars,American Restaurants,Caterers,Brew Pubs,Barbecue Restaurants,Restaurants,Beer & Ale,Breweries,Grill Restaurants,Night Clubs,Bar & Grills,Taverns,Restaurant",New London,US,us/nh/newlondon/40andoverrd/1796775960,43.39957495,-71.9602896,Flying Goose Brew Pub & Grille,3257,NH,flyinggoosepub,"http://www.flyinggoose.com,http://www.flyinggoose.com/"
AVwcqDdwIN2L1WUfncBh,14344 Memorial Dr,"Supermarket,Cheese Shops,Grocery Stores & Supermarkets,Breweries,Beer & Ale Distributors,Department Stores,Gluten-Free Foods,Beer & Ale Retail",Houston,US,us/tx/houston/14344memorialdr/-1122957716,29.770344,-95.599036,Kroger,77079,TX,starbucks,http://kroger.com
AVwcqJq4kufWRAb5xnTi,6959 SW Multnomah Blvd,"Brewery,American Restaurant,Brewery and American Restaurant,Bars & Clubs,Brew Pubs,Restaurants,Bars & Pubs,Pubs,Brewers,Bars Clubs,Bars Pubs,Catering,Restaurant",Portland,US,us/or/portland/6959swmultnomahblvd/-363762448,45.465916,-122.748024,Old Market Pub & Brewery,97223,OR,ompbrew,http://drinkbeerhere.com
AVwcqJrIkufWRAb5xnTm,935 Washington St.,"Attraction,Bars,Clubs and Nightlife,Beer Garden,Brewery,Restaurant",San Carlos,US,us/ca/sancarlos/935washingtonst/993346848,37.49845,-122.243632,Devil's Canyon Brewing Company,94070,CA,devilscanyon,http://devilscanyon.com/
AVwcqpID_7pvs4fzxpV3,4874 Route 414,Brewery,Burdett,US,us/ny/burdett/4874route414/-107720284,42.47092786,-76.86581548,Grist Iron Brewing Company,14818,NY,gristironbrew,http://gristironbrewing.com
AVwcqr1A_7pvs4fzxpwQ,942 Main St,"Brewery,Brew Pubs,Night Clubs,Bar and Grills,Banquet Halls and Reception Facilities,Bars,American Restaurants,Caterers,Taverns,Beer and Ale,Restaurants,Restaurant",Hartford,US,us/ct/hartford/942mainst/-377687355,41.768112,-72.673065,City Steam Brewery,6103,CT,citysteam,"http://www.citysteam.biz,http://www.citysteambrewerycafe.com"
AVwcqRIQkufWRAb5xoxs,1950 S Interstate 35,"Convenience Store,Indian Restaurant,Pub,Brewery,Grocery Store,Grocery Store, Indian Restaurant, and Pub",Austin,US,us/tx/austin/1950sinterstate35/-364151946,30.23795672,-97.73943965,Whip In Convenience Store & Pub,78704,TX,whipin,http://whipin.com
AVwcqSgfByjofQCxgxzD,3001 Ruston Way,"Restaurant,Brewery,Sports Bar",Tacoma,US,us/wa/tacoma/3001rustonway/-1564448100,47.2793478,-122.475373,Ram Restaurant & Brewery - Tacoma,98402,WA,theram,http://theram.com
AVwcqSHYkufWRAb5xo-E,206 Main St,"Brewery,Bar,Brewers,Brewery and Bar",Vista,US,us/ca/vista/206mainst/566352105,33.20242453,-117.2423704,Mother Earth Brew Co.,92084,CA,motherearthbrco,http://motherearthbrewco.com
AVwcqtKwByjofQCxg2df,945 Broadway St NE,"Coffee Shop,Caf,Coffee Shop and Caf,Coffee Shop and Caf Northeast Park,brewery",Minneapolis,US,us/mn/minneapolis/945broadwaystne/-685022288,44.99888899,-93.2463878,Spyhouse Coffee,55413,MN,spyhousecoffee,"http://spyhousecoffee.com,http://www.spyhousecoffee.com"
AVwcqu2WIN2L1WUfnjrD,1700 NE Broadway St,"Brewery,American Restaurant,Restaurant",Portland,US,us/or/portland/1700nebroadwayst/1092788793,45.5348,-122.64815,Broadway Grill & Brewery,97232,OR,bgbrewery,http://www.drinkbeerhere.com
AVwcqvCzkufWRAb5xuR-,2501 Southwest Blvd,"Management Services,Museums,Brewery,Brewers,Non-Alcoholic Beer Manufacturers",Kansas City,US,us/mo/kansascity/2501southwestblvd/114521858,39.0821,-94.5965,Boulevard Brewing Co,64108,MO,boulevard_beer,http://www.boulevard.com
AVwcqvfBByjofQCxg21Z,7801 Saint Helena Hwy,"Wineries,Vineyards,Brewers,Marketing Consultants,Winery,Transportation Companies,Wine & Distilled Beverages Retail",Oakville,US,us/ca/oakville/7801sainthelenahwy/-354342454,38.5132,-122.4366,Robert Mondavi Winery,94562,CA,robertmondavi,http://www.robertmondavi.com
AVwcqVO1kufWRAb5xpgK,12555 Briar Forest Dr,"Supermarket,Grocery Store,Cheese Shops,Supermarket and Grocery Store Briarforest,Supermarket and Grocery Store,Grocery Stores & Supermarkets,Breweries,Beer & Ale Distributors,Beer & Ale Retail",Houston,US,us/tx/houston/12555briarforestdr/-1122957716,29.753689,-95.604916,Kroger,77077,TX,kroger,http://kroger.com
AVwcqX6DkufWRAb5xp4-,12707 Old Redwood Hwy,"Winery,Wineries,Vineyards,Brewers,Bars,Tourist Information & Attractions,Beverages,Places Of Interest,Liquor Stores,Fruit & Vegetable Growers & Shippers,Wine",Healdsburg,US,us/ca/healdsburg/12707oldredwoodhwy/404943981,38.589035,-122.84981,Foppiano Vineyards,95448,CA,foppianowines,http://foppiano.com
AVwcqY_vIN2L1WUfnfxR,400 Main St,"Pub,Bar,Brewery,Bars,Restaurant,Caterers,Brew Pubs,Restaurants,Beer & Ale,Night Clubs,Pub, Brewery, and Bar,Taverns",Metuchen,US,us/nj/metuchen/400mainst/1662654563,40.54121601,-74.36098337,Hailey's Harp Pub,8840,NJ,haileyspub,http://haileysharpandpub.com
AVwcr_StIN2L1WUfnyJ1,200 E Broadway Ave,"Brewery,Beer Bar,Restaurant",Fort Worth,US,us/tx/fortworth/200ebroadwayave/1810373301,32.74157,-97.32472,HopFusion Ale Works,76104,TX,hopfusionale,http://hopfusionaleworks.com
AVwcr0Mw_7pvs4fzx2jP,1223 Pacific Oaks Pl,Brewery,Escondido,US,us/ca/escondido/1223pacificoakspl/-844367422,33.10856433,-117.116704,Offbeat Brewing Company,92029,CA,offbeatbrewing,http://offbeatbrewing.com
AVwcr2UvByjofQCxhDbk,233 N Water St,"Gastropub,Bar,Brewery,Gastropub and Bar Historic Third Ward,Bars & Pubs,Pubs,Breweries,Restaurant",Milwaukee,US,us/wi/milwaukee/233nwaterst/586252182,43.03351,-87.9097,Milwaukee Ale House,53202,WI,alehouse,http://ale-house.com
AVwcr7ErIN2L1WUfnxXY,1844 Columbus Rd,"Beer Bar,Brewery,Brewers,Pub,autos,Pub and Brewery",Cleveland,US,us/oh/cleveland/1844columbusrd/-1922510041,41.48949,-81.700787,Brick & Barrel,44113,OH,brickandbarrel,"http://www.breweryclevelandoh.com,http://breweryclevelandoh.com"
AVwcr8ptkufWRAb5x7-5,12337 S Route 59,"Breweries and brew pubs,Restaurants,American restaurants,Bar and grill restaurants,Pub restaurants,Restaurant,Brewery,American Restaurant",Plainfield,US,us/il/plainfield/12337sroute59/2136462476,41.65755,-88.20254,Nevin's Brewing Company,60585,IL,NevinsBrewing,"http://www.nevinsbrewing.com/,http://www.nevinsbrewing.com"
AVwcrBPI_7pvs4fzxtgA,1795 E 10th St,"Brewery,American Restaurant,Brewery and American Restaurant",Bloomington,US,us/in/bloomington/1795e10thst/84453971,39.17169277,-86.5113176,Lennie's  (Bloomington Brewing Company),47408,IN,lennies_bbc,http://bbc.bloomington.com
AVwcrCgM_7pvs4fzxtu6,400 Water St,"Brewery,Bar,American Restaurant,Restaurants,Bars Pubs,Catering,Brew Pubs",Rochester,US,us/mi/rochester/400waterst/-933818713,42.6802,-83.1314,Rochester Mills Beer Company,48307,MI,rochmillsbeerco,http://www.rochestermillsbeerco.com
AVwcrCUB_7pvs4fzxtsU,15681 N Hayden Rd,"Restaurant,American,Mexican,Pubs,Distillery, New American Restaurant, and Brewery Airpark",Scottsdale,US,us/az/scottsdale/15681nhaydenrd/641038418,33.6276,-111.89348,O.H.S.O. Eatery + Distillery,85260,AZ,ohsobrewery,http://ohsodistillery.com
AVwcreH7IN2L1WUfnsW_,200 Main St,"American Restaurant,Pizza Place,Brewery,American Restaurant, Pizza Place, and Brewery,Restaurant",Huntington Beach,US,us/ca/huntingtonbeach/200mainst/554746294,33.658108,-118.000946,BJ's Restaurant and Brewhouse,92648,CA,bjsrestaurants,http://t.co/bl46gcjDLN
AVwcrEqfIN2L1WUfnnoq,522 E Dunlap Ave,"Restaurant,American,Pubs,Gastropub,Brewery,Brew Pubs,Restaurants,Grill Restaurants,Breweries,Traditional American,Brunch,Bars & Pubs,Beer & Ale Distributors,Bar & Grill Restaurants",Phoenix,US,us/az/phoenix/522edunlapave/903705583,33.567978,-112.066376,North Mountain Brewing Company,85020,AZ,nmtbrew,"http://www.northmountainbrewing.com/,http://www.northmountainbrewing.com,http://northmountainbrewing.com"
AVwcrF_4IN2L1WUfnn42,1124 NW 51st St,Brewery,Oklahoma City,US,us/ok/oklahomacity/1124nw51stst/-1288526731,35.523353,-97.53115698,coop ale works,73118,OK,coopaleworks,http://coopaleworks.com
AVwcrhCe_7pvs4fzxzKs,2030 Se 7th Ave,"Restaurants,Delis And Delicatessens,Diners,Gastropub,Brewery and Gastropub,Brewery,Brewery and Gastropub Hosford-Abernethy",Portland,US,us/or/portland/2030se7thave/1439148396,45.508,-122.6586,Nosh On Seventh,97214,OR,groundbrkrbrew,http://groundbreakerbrewing.com
AVwc-rHU_7pvs4fz0-_l,910 Honoapiilani Hwy,"Brewery and Bar,advertising",Lahaina,US,us/hi/lahaina/910honoapiilanihwy/-581239118,20.88026521,-156.6781282,Maui Brewing Co. Brewery,96761,HI,mauibrewingco,http://www.mauicoffeeco.com
AVwcrK3MkufWRAb5xzPJ,10563 Innovation Dr,"American Restaurant,Pizza Place,Brewery,Breweries and brew pubs,Carry-out food,Pizza,Restaurants,Pub restaurants,American Restaurant, Pizza Place, and Brewery,Pubs,Bars & Pubs,Breweries,Bar & Grill Restaurants,Restaurant",Miamisburg,US,us/oh/miamisburg/10563innovationdr/554746294,39.59796,-84.23268,BJ's Restaurant and Brewhouse,45342,OH,bjsrestaurants,http://t.co/bl46gcjDLN
AVwcrKqUIN2L1WUfnox3,324 N W 24th St,"Brewery Wynwood-Edgewater,Brewery",Lutz,US,us/fl/lutz/324nw24thst/-1811949204,25.80017911,-80.20075968,Concrete Beach Brewery,33549,FL,concretebeachfl,http://concretebeachbrewery.com
AVwcrO1C_7pvs4fzxwBA,6150 O St,"Brewery,Burger Joint,Brewery and Burger Joint",Lincoln,US,us/ne/lincoln/6150ost/-7997523,40.81458671,-96.63502067,Granite City,68510,NE,gcfb,http://gcfb.net
AVwcrO3yIN2L1WUfnpnP,6620 SW Scholls Ferry Rd,"Bars,Beer and Ale,Brew Pubs,Coffee and Espresso Restaurants,Beer Homebrewing Equipment and Supplies,Brewery,Convenience Store,Bar,Shopping,Specialty & Gift Shops,Gift & Specialty Shops,Brewery, Convenience Store, and Bar,Brewery, Convenience Store, and Bar Raleigh West,recreation",Portland,US,us/or/portland/6620swschollsferryrd/1733825065,45.47245,-122.77138,Uptown Market,97223,OR,uptownmarketpdx,"http://www.uptownmarketpdx.com,http://uptownmarketpdx.com"
AVwcrP8JIN2L1WUfnpwK,1305 Cleveland Ave,"Brewery,Restaurant",Santa Rosa,US,us/ca/santarosa/1305clevelandave/-1389594,38.449013,-122.72667,Fogbelt Brewing Company,95401,CA,fogbeltbrewing,http://fogbeltbrewing.com
AVwcrqgyIN2L1WUfnuhd,3155 N Broadway St,"Brew Pubs,Bars,Beer and Ale,Taverns,American Restaurants,Bar and Grills,Restaurants,Brewery,Pub,Brewery and Pub,Bistros,Bars & Pubs,Breweries,Beer & Ale,Bar & Grills,Restaurant",Chicago,US,us/il/chicago/3155nbroadwayst/-86347610,41.93938,-87.64401,Dryhop Brewers,60657,IL,dryhopchicago,http://www.dryhopchicago.com
AVwcrRGvIN2L1WUfnp57,737 W 5th Ave,"American Restaurants,Bars,Brew Pubs,Pizza,Seafood Restaurants,Taverns,Restaurants,Seafood Restaurant,American Restaurant,Continental Restaurants,Brewery,Brewery, American Restaurant, and Seafood Restaurant,Restaurant",Anchorage,US,us/ak/anchorage/737w5thave/-552726897,61.217567,-149.89629,Glacier Brewhouse,99501,AK,gbrewhouseak,"http://www.glacierbrewhouse.com,http://www.glacierbrewhouse.com/"
AVwcrSTTIN2L1WUfnqH8,1106 Bushville Hwy,"Food Products,Restaurants,Restaurant,Tourist Information & Attractions,Food & Drink,Places Of Interest,Breweries,Brewery,Other",Arnaudville,US,us/la/arnaudville/1106bushvillehwy/-1237071951,30.38991,-91.92611,Bayou Teche Brewing,70512,LA,BayouTecheBiere,http://bayoutechebrewing.com
AVwcrtnr_7pvs4fzx1Y6,9401 Sage Meadow Trl,"Restaurants,Bars Clubs,Bars Pubs,Pubs,Brew Pubs,American Restaurant,Pizza Place,Brewery,Restaurant,American Restaurant, Pizza Place, and Brewery,Bars & Clubs,Bars & Pubs",Fort Worth,US,us/tx/fortworth/9401sagemeadowtrl/554746294,32.9099,-97.316,BJ'S Restaurant & Brewhouse,76177,TX,bjsrestaurants,http://t.co/bl46gcjDLN
AVwcrwZ3IN2L1WUfnvcJ,3155 W Chandler Blvd,"American Restaurant,Pizza Place,Brewery,Bars & Pubs,Pubs,Restaurants,Breweries,Bar & Grill Restaurants",Chandler,US,us/az/chandler/3155wchandlerblvd/554746294,33.3055925,-111.8968812,BJ's Restaurant and Brewhouse,85226,AZ,bjsrestaurants,http://t.co/bl46gcjDLN
AVwcs1I9_7pvs4fzyBsI,5674 El Camino Real,Brewery,Carlsbad,US,us/ca/carlsbad/5674elcaminoreal/304898083,33.13867788,-117.2735811,On The Tracks Brewery,92008,CA,onthetracksbrew,"http://ottbrew.com,http://www.ottbrew.com"
AVwcs9Y5_7pvs4fzyC0D,1120 W Lincolnshire Blvd,"Brew Pubs,Beer and Ale,Restaurants,American Restaurant,Brewery, American Restaurant, and Whisky Bar,Brewery,Whisky Bar,Breweries,Restaurant",Springfield,US,us/il/springfield/1120wlincolnshireblvd/1907681454,39.76,-89.7178,Engrained Brewing Company,62711,IL,engrainedbrew,http://www.engrainedbrewing.com
AVwcsamjByjofQCxhJxZ,381 Broadway,"Brewery,Pub,Restaurant,Brewery, Pub, and Restaurant",Saratoga Springs,US,us/ny/saratogasprings/381broadway/-1009828048,43.08091327,-73.78625449,Druthers Brew Pub,12866,NY,druthersbrew,http://druthersbrewing.com
AVwcsbevIN2L1WUfn29e,4424 Commons Dr E,"Restaurant,American,Pubs,Gastropub,Brewery,Bars Clubs,Bars & Clubs",Destin,US,us/fl/destin/4424commonsdre/1710515699,30.223373,-85.8668,The Craft Bar,32541,FL,thecraftbarfl,"http://thecraftbarfl.com/gallery/,http://thecraftbardestin.com,http://thecraftbarfl.com"
AVwcsBuq_7pvs4fzx47U,2305 Montana Ave,"Bar and Grills,Brew Pubs,Bars,Take Out Restaurants,Taverns,Restaurants,Pubs,Grill Restaurants,Brewery",Billings,US,us/mt/billings/2305montanaave/1826251772,45.78425,-108.49936,Uberbrew,59101,MT,uberbrewing,http://www.uberbrewmt.com
AVwcseroIN2L1WUfn3hz,1864 W McEwen Dr,"Brewery,American Restaurant,Restaurant",Franklin,US,us/tn/franklin/1864wmcewendr/1241605439,35.933685,-86.82152,Granite City Food & Brewery,37067,TN,gcfb,http://gcfb.net
AVwcsfdOkufWRAb5yBme,3655 Old Milton Pkwy,"Brewers,Brewery,American Restaurant",Alpharetta,US,us/ga/alpharetta/3655oldmiltonpkwy/1269111589,34.0638,-84.2533,5 Seasons Brewing Llc,30005,GA,5seasonsnorth,http://5seasonsbrewing.com
AVwcsisikufWRAb5yCLV,2920 Newport Blvd,"Brewery,American Restaurant,Restaurants,Beer Gardens,Brew Pubs,Neighborhood Bars,Bars Clubs,Bars Pubs,Singles Bars,Sports Bars,American Restaurants,Bars & Clubs,Caterers,Bars & Pubs,Beer & Ale,Taverns,Bars,Brewery and American Restaurant,Bar & Grills",Newport Beach,US,us/ca/newportbeach/2920newportblvd/-1941684866,33.614117,-117.92985,Newport Beach Brewing Co.,92663,CA,nbbrewingco,http://www.nbbrewco.com
AVwcsKC_ByjofQCxhG71,289 Production Ave,"Brewers,Brewery and Beer Garden",Madison,US,us/al/madison/289productionave/-1279444467,34.6731,-86.7735,"Rocket Republic Brewing Company, Inc.",35758,AL,rrbeer,http://rocketrepublicbrewing.com
AVwcskDhkufWRAb5yCZA,15120 E Hampden Ave,"Brewers,Wineries,Brewery and Bar,Brewery,Bar,nightlife",Aurora,US,us/co/aurora/15120ehampdenave/-1647143874,39.653,-104.8119,Dry Dock Brewing Co - South Dock,80014,CO,drydockbrewing,http://drydockbrewing.com
AVwcskV0_7pvs4fzx-kG,241 E Market St,"Brewery,Restaurant,Food & Drink,Breweries",Harrisonburg,US,us/va/harrisonburg/241emarketst/-380572825,38.44874,-78.86577,Three Notch'd Brewing Company,22801,VA,threenotchdbeer,http://threenotchdbrewing.com
